id,name,address,info,lon,lat
0,アドアーズ札幌北42条店,北海道札幌市東区北42条東7-1-1,開催なし,141.3557891845703,43.111473083496094
1,イオン室蘭アミューズメントランド店,北海道室蘭市東町2丁目4-32イオン室蘭,開催なし,141.02578735351562,42.344242095947266
2,イオン千歳キッズ・パーク店,北海道千歳市栄町６－５１イオン千歳2階,開催なし,141.6482696533203,42.82899856567383
3,イオン帯広キッズ・パーク店,北海道帯広市西４条南20丁目1 イオン帯広,開催なし,143.20066833496094,42.90883255004883
4,イトーヨーカドーアリオ札幌キッズ・パーク店,北海道札幌市東区北七条東9-2-20アリオ札幌３階,開催なし,141.37039184570312,43.072914123535156
5,イトーヨーカドー屯田グルグル店,北海道札幌市北区屯田8条3-5-1イトーヨカドー屯田2階,開催なし,141.34230041503906,43.139625549316406
6,キッズパークイオン岩見沢店,北海道岩見沢市大和4条8丁目イオン岩見沢内,開催なし,141.74159240722656,43.1837043762207
7,げーむぱーくぎゃらくしー西友厚別店,北海道札幌市厚別区厚別西4条6-700-126西友厚別店2階,開催なし,141.46957397460938,43.05342483520508
8,こどものくに 西條百貨店稚内店,北海道稚内市大黒4丁目7番地1 西條百貨店,開催なし,141.6923370361328,45.397560119628906
9,東武端野アミューズメントシティ店,北海道北見市端野町三区572-1東武イーストモール橋野1階,開催なし,143.92880249023438,43.841251373291016
10,ゲームランド新さっぽろ店,北海道札幌市厚別区厚別中央2条5丁目新さっぽろアークシティ　カテプリさっぽろ3Ｆ,開催なし,141.4718017578125,43.03885269165039
11,ディノスパークちとせモール店,北海道千歳市勇舞8-1-1ちとせモール2F,開催なし,141.62745666503906,42.85389709472656
12,ディノスパーク帯広稲田店,北海道帯広市稲田町南8線西12-1 スズランボウル内,開催なし,143.19651794433594,42.89017868041992
13,ディノスパーク帯広店,北海道帯広市白樺16条西2丁目ドリームタウン白樺内,開催なし,143.17330932617188,42.91886520385742
14,ディノスパーク苫小牧店,北海道苫小牧市柳町3丁目1番20号イオン苫小牧CS2階,開催なし,141.6403350830078,42.65706253051758
15,ディノスパーク函館昭和店,北海道函館市昭和3丁目24-18ｹﾞｵ函館昭和店内,開催なし,140.73402404785156,41.818885803222656
16,ディノスパーク北見店,北海道北見市西三輪5丁目1番地16,開催なし,143.84268188476562,43.79651641845703
17,ソユーゲームフィールド 旭川駅前店,北海道旭川市宮下通7丁目2番5号　イオンモール旭川駅前4F,開催なし,142.35806274414062,43.76445007324219
18,ソユーゲームフィールド 旭川西店,北海道旭川市緑町二十三丁目2161番地3　イオンモール旭川西3F,開催なし,142.32508850097656,43.79402160644531
19,ソユーゲームフィールド 札幌発寒店,北海道札幌市西区発寒8条12丁目1番1号　イオンモール札幌発寒3F ,開催なし,141.27818298339844,43.09579086303711
20,ソユーゲームフィールド 札幌苗穂店,北海道札幌市東区東苗穂2条三丁目1番1号　イオンモール札幌苗穂2F,開催なし,141.4038848876953,43.07968521118164
21,ｎａｍｃｏアリオ札幌店,北海道札幌市東区北七条東９丁目２番２０　アリオ札幌スパ・レジャー館２Ｆ,開催なし,141.37039184570312,43.072914123535156
22,ｎａｍｃｏウイングベイ小樽店,北海道小樽市築港１１番５号　ウィングベイ小樽５番街３階,開催なし,141.018310546875,43.1859245300293
23,ｎａｍｃｏサッポロファクトリー店,北海道札幌市中央区北１条東４丁目１番地１　サッポロファクトリー１条館２Ｆ,開催なし,141.363037109375,43.06425857543945
24,ｎａｍｃｏラソラ札幌店,北海道札幌市白石区東札幌３条１丁目１－１ラソラ札幌店　Ａタウン２Ｆ,開催なし,141.38436889648438,43.054256439208984
25,ｎａｍｃｏ札幌西町店,北海道札幌市西区西町北１３丁目１番,開催なし,141.28387451171875,43.082725524902344
26,アピナ新千歳空港店,北海道千歳市美々1292-33新千歳空港(国内線)旅客ターミナルビル4階,開催なし,141.68331909179688,42.788394927978516
27,宝島函館店,北海道函館市美原1-7-1MEGAドン・キホーテ函館店2階,開催なし,140.75677490234375,41.81316375732422
28,ファンタジープラザ旭川店,北海道旭川市春光1条8-1-65MEGAドン・キホーテ旭川店2階,開催なし,142.378662109375,43.798004150390625
29,ファンタジープラザ西帯広店,北海道帯広市西21条南4-1MEGAドン・キホーテ西帯広2階,開催なし,143.14381408691406,42.91188430786133
30,ファンタジープラザ帯広店,北海道帯広市西4条南12-3長崎屋帯広店3階,開催なし,143.19863891601562,42.91864776611328
31,キャッツアイ新札幌店,北海道札幌市厚別区厚別東5条1丁目,開催なし,141.47540283203125,43.04630661010742
32,キャッツアイ新川店,北海道札幌市北区新川2条7-1-7,開催なし,141.30967712402344,43.10036849975586
33,キャッツアイ清田店,北海道札幌市清田区清田1条1丁目20-1,開催なし,141.4362030029297,43.00312042236328
34,タイトーステーション イオンモール釧路昭和店,北海道釧路市昭和中央4-18-1イオンモール釧路昭和2F,開催なし,144.3594207763672,43.02446746826172
35,タイトーステーション イオンモール札幌平岡店,北海道札幌市清田区平岡3条5-3-1イオンモール札幌平岡店2F,開催なし,141.45814514160156,42.99821853637695
36,モーリーファンタジー旭川西,北海道旭川市緑町２３－２１６１－３イオン２階　,開催なし,142.32508850097656,43.79402160644531
37,モーリーファンタジー三笠,北海道三笠市岡山１０５９－１ＳｕＣ１階　,開催なし,141.80563354492188,43.243953704833984
38,モーリーファンタジー名寄,北海道名寄市字徳田８０番地１イオンＳＣ２階　,開催なし,142.45262145996094,44.338401794433594
39,ＰＡＬＯ滝川,北海道滝川市東町２丁目２９－１イオン１階　,開催なし,141.93081665039062,43.554046630859375
40,モーリーファンタジー旭川パルプ,北海道旭川市パルプ町１条２丁目５０５番地２ショッピングセンタープルプタウン内１階　,開催なし,142.3850555419922,43.77509307861328
41,モーリーファンタジー札幌元町,北海道札幌市東区北３１条東１５丁目１－１イオン３階　,開催なし,141.36907958984375,43.101253509521484
42,"モーリーファンタジー札幌桑園★メザスタシティ★
",北海道札幌市中央区北８条西１４丁目２８番地イオン２階　,開催なし,141.33399963378906,43.06840133666992
43,モーリーファンタジー札幌発寒,北海道札幌市西区発寒８条１２丁目１－１イオン３階　,開催なし,141.27818298339844,43.09579086303711
44,モーリーファンタジー石狩緑苑台,北海道石狩市緑苑台中央１丁目２番ＳｕＣ１階　,開催なし,141.33462524414062,43.159217834472656
45,モーリーファンタジー手稲山口,北海道札幌市手稲区明日風６丁目１番１号ＳｕＣ１階　,開催なし,141.23394775390625,43.14162826538086
46,モーリーファンタジー札幌麻生,北海道札幌市北区北３９条西４－１－５イオン４階　,開催なし,141.3397674560547,43.106502532958984
47,ＰＡＬＯ江別,北海道江別市幸町３５イオン３階　,開催なし,141.53363037109375,43.09698486328125
48,モーリーファンタジー札幌平岡,北海道札幌市清田区平岡３条５丁目３－１イオン２階　,開催なし,141.45814514160156,42.99821853637695
49,モーリーファンタジー札幌苗穂,北海道札幌市東区東苗穂２条３丁目１番１号イオン２階　,開催なし,141.4038848876953,43.07968521118164
50,モーリーファンタジー新さっぽろ,北海道札幌市厚別区厚別中央２条５丁目６－２新札幌アークシティｄＵｏ２２階　,開催なし,141.47116088867188,43.03890609741211
51,モーリーファンタジー札幌琴似,北海道札幌市西区琴似２条４－２－２イオン３階　,開催なし,141.303466796875,43.07652282714844
52,モーリーファンタジー東札幌,北海道札幌市白石区東札幌３条２－１イオン２階　,開催なし,141.385498046875,43.052520751953125
53,モーリーファンタジー登別,北海道登別市若山町４－３３－１イオン２階　,開催なし,141.0688018798828,42.381649017333984
54,モーリーファンタジー苫小牧,北海道苫小牧市柳町３－１－２０イオン２階　,開催なし,141.6403350830078,42.65706253051758
55,モーリーファンタジー湯川,北海道函館市湯川町３－１４－５イオン１・２階　,開催なし,140.79359436035156,41.77766036987305
56,モーリーファンタジー上磯,北海道北斗市七重浜４－４４－１イオン１階　,開催なし,140.71009826660156,41.82268142700195
57,ＰＡＬＯ苫小牧,北海道苫小牧市糸井１３５－１トライアルＧ棟トライアル苫小牧店階　,開催なし,141.52566528320312,42.614356994628906
58,ＰＡＬＯ釧路,北海道釧路郡釧路町桂木１－１－７イオン２階　,開催なし,144.40481567382812,43.00910186767578
59,モーリーファンタジー釧路昭和,北海道釧路市昭和中央４－１８－１イオン２階　,開催なし,144.3594207763672,43.02446746826172
60,モーリーファンタジー中標津,北海道標津郡中標津町南町３番地１０東武サウスヒルズ１階　,開催なし,144.9783172607422,43.53572082519531
61,ＰＡＬＯ網走,北海道網走市駒場北５丁目８３番地駒場ショッピングタウン階　,開催なし,144.28346252441406,44.00181198120117
62,ポケモンセンターサッポロ,北海道札幌市中央区北５条西４－７　大丸札幌店８F,開催なし,141.3494873046875,43.067596435546875
63,ポケモンストア新千歳空港,北海道千歳市美々９８７　新千歳空港国内線ターミナルビル２F,開催なし,141.67848205566406,42.78734588623047
64,イオン小樽,北海道小樽市築港１１番６号玩具売場　,開催なし,141.018310546875,43.1859245300293
65,イオン千歳,北海道千歳市栄町６丁目５１　玩具売場,開催なし,141.6482696533203,42.82899856567383
66,イオン北見,北海道北見市北進町１丁目１－１　玩具売場,開催なし,143.8763885498047,43.809234619140625
67,コジマ×ビックカメライオン西岡,北海道札幌市豊平区西岡３－４－１　イオン札幌西岡ＳＣ内,開催なし,141.38726806640625,43.01752471923828
68,イトーヨーカドーアリオ札幌,北海道札幌市東区北７条東９－２－２０　玩具売場,開催なし,141.37039184570312,43.072914123535156
69,イトーヨーカドー帯広,北海道帯広市稲田町南８線西１０－１　玩具売場,開催なし,143.1990509033203,42.89017105102539
70,イトーヨーカドー屯田,北海道札幌市北区屯田八条３－５－１　玩具売場,開催なし,141.34230041503906,43.139625549316406
71,イトーヨーカドー福住,北海道札幌市豊平区福住二条１－２－５　玩具売場,開催なし,141.40402221679688,43.020599365234375
72,イトーヨーカドー北見,北海道北見市光西町１８５　玩具売場,開催なし,143.869140625,43.79755783081055
73,イトーヨーカドー琴似,北海道札幌市西区琴似二条１－４－１　玩具売場,開催なし,141.30679321289062,43.080604553222656
74,おもちゃのヨシダ本店,北海道旭川市本町３－４３７－２３８　　吉田ビル１Ｆ,開催なし,142.35589599609375,43.78095245361328
75,ヨドバシカメラマルチメディア札幌,北海道札幌市北区北６条西５－１－２２　,開催なし,141.3478240966797,43.06814193725586
76,MEGAドン・キホーテ西帯広店,北海道帯広市西21条南4-1,開催なし,143.14381408691406,42.91188430786133
77,MEGAドン・キホーテ室蘭中島,北海道室蘭市中島町1丁目19-11,開催なし,141.01785278320312,42.35432815551758
78,キャッツアイ苫小牧駅前店,北海道苫小牧市木場町1-3,開催なし,141.59754943847656,42.64178466796875
79,東急百貨店 さっぽろアミューズパーク,北海道札幌市中央区北4条西2-1　札幌東急内９F,開催なし,141.35350036621094,43.0661506652832
80,ユーズランド下田店,青森県上北郡おいらせ町中野平40-1イオンモール下田1F,開催なし,141.41783142089844,40.60477828979492
81,ラ・セラキッズ,青森県青森市八重田4-2-1ﾗ･ｾﾗ東ﾊﾞｲﾊﾟｽ店,開催なし,140.80003356933594,40.82737350463867
82,ゲームランドつがる柏店,青森県つがる市柏稲盛幾世41イオンモールつがる柏2F,開催なし,140.41641235351562,40.802757263183594
83,GiGO弘前,青森県弘前市末広1-3-3,開催なし,140.5,40.6039924621582
84,GiGO八戸,青森県八戸市城下4-25-14,開催なし,141.49729919433594,40.520015716552734
85,ゲームフィールド弘前樋の口店,青森県弘前市樋の口二丁目9-6　イオンタウン弘前樋の口店,開催なし,140.44480895996094,40.6025276184082
86,スペースファンタジーインフィニ店,青森県弘前市城東北三丁目10番地1　さくら野百貨店弘前店4F,開催なし,140.49624633789062,40.607147216796875
87,ソユーゲームフィールド 青森店,青森県青森市浜田一丁目14番地1　イトーヨーカドー青森店2F,開催なし,140.74859619140625,40.80093002319336
88,ソユーゲームフィールド八戸店,青森県八戸市沼館四丁目7番112号　八戸ピアドゥB棟2F,開催なし,141.49758911132812,40.52608108520508
89,ｎａｍｃｏエルムの街ショッピングセンター,青森県五所川原市大字唐笠柳字藤巻５１７－１　エルムの街ＳＣ　本棟２階,開催なし,140.45443725585938,40.79890823364258
90,ラウンドワン青森店,青森県青森市浜田3丁目1番1号,開催なし,140.7486114501953,40.799293518066406
91,ファンタジードーム八戸店,青森県八戸市江陽2-14-1ラピア八戸店別棟,開催なし,141.50315856933594,40.520835876464844
92,タイトーステーション 青森アムゼ店,青森県青森市緑3丁目9番地の2サンロード青森 アムゼ内,開催なし,140.7534637451172,40.80809783935547
93,ハロータイトー むつ,青森県むつ市小川町2-4-8前田百貨店内 4F,開催なし,141.2083282470703,41.293006896972656
94,ハロータイトー イオン七戸十和田駅前店,青森県上北郡七戸町字荒熊内67番地990イオン七戸十和田駅前店内,開催なし,141.15589904785156,40.71832275390625
95,モーリーファンタジー藤崎,青森県南津軽郡藤崎町大字西豊田１－７－１イオン２階　,開催なし,140.50111389160156,40.65778732299805
96,モーリーファンタジーつがる柏,青森県つがる市柏稲盛幾世４１イオン１階　,開催なし,140.41641235351562,40.802757263183594
97,モーリーファンタジー平賀,青森県平川市小和森上松岡１９３－１イオンタウン１階　,開催なし,140.5655059814453,40.59074783325195
98,ＰＡＬＯ五所川原,青森県五所川原市大字唐笠柳字藤巻６４１番１アクロスプラザ五所川原階　,開催なし,140.4616241455078,40.800987243652344
99,モーリーファンタジー鶴田,青森県北津軽郡鶴田町大字鶴田字中泉２４５番地１鶴田フットリバーモール店１階　,開催なし,140.44244384765625,40.76384353637695
100,ＰＡＬＯ黒石,青森県黒石市富士見１０３番地３アクロスプラザ黒石階　,開催なし,140.60107421875,40.66715621948242
101,"モーリーファンタジー下田★メザスタシティ★
",青森県上北郡おいらせ町中野平４０－１イオン２階　,開催なし,141.41783142089844,40.60477828979492
102,モーリーファンタジー八戸田向,青森県八戸市大字田向字毘沙門平２７－１イオン１階　,開催なし,141.50543212890625,40.49391174316406
103,モーリーファンタジー十和田,青森県十和田市大字相坂字六日町山１６６番１ＳｕＣ１階　,開催なし,141.25784301757812,40.602962493896484
104,モーリーファンタジー三沢,青森県三沢市松園町３－１０－１ビードルプラザ三沢店１階　,開催なし,141.36354064941406,40.67605209350586
105,ＰＡＬＯむつ,青森県むつ市中央２丁目７番８号１階　,開催なし,141.1837615966797,41.28708267211914
106,イトーヨーカドー弘前,青森県弘前市大字駅前３－２－１　玩具売場,開催なし,140.48101806640625,40.59941864013672
107,イトーヨーカドー八戸沼館,青森県八戸市沼館４－７－１１１　玩具売場,開催なし,141.4977569580078,40.52606964111328
108,イトーヨーカドー青森,青森県青森市浜田１－１４－１　玩具売場,開催なし,140.74859619140625,40.80093002319336
109,Hapipi Landヒロロ弘前店,青森県弘前市駅前町9-20　ヒロロ4F,開催なし,140.48179626464844,40.59746170043945
110,ファミリーらんどDORA店,岩手県宮古市小山田2-2-1 宮古ｼｮｯﾋﾟﾝｸﾞｾﾝﾀｰﾏﾘﾝｺｰﾌﾟDORA内2F,開催なし,141.94276428222656,39.63218688964844
111,チャットタウン北上店,岩手県北上市北鬼柳19地割71番地外パルショッピングセンター,開催なし,141.09339904785156,39.29343795776367
112,ニコアプレイランド,岩手県二戸市米沢字荒谷25ﾆｺｱｼｮｯﾋﾟﾝｸﾞｾﾝﾀｰ内,開催なし,141.29444885253906,40.28296661376953
113,プレーゴ金ヶ崎,岩手県胆沢郡金ケ崎町三ケ尻荒巻165ｲｵﾝｽｰﾊﾟｰｾﾝﾀｰ金ヶ崎店内,開催なし,141.10122680664062,39.220062255859375
114,ゲームランド盛岡店,岩手県盛岡市前潟4-7-1イオンモール盛岡2F,開催なし,141.10105895996094,39.71052551269531
115,GiGO水沢,岩手県奥州市水沢区佐倉河字鐙田4-1,開催なし,141.14947509765625,39.152679443359375
116,アミューズメントゾーン 北上店,岩手県北上市本通り二丁目2-1　さくら野百貨店北上店4F,開催なし,141.11590576171875,39.28908157348633
117,ソユーゲームフィールド 釜石店,岩手県釜石市港町二丁目1番1号　イオンタウン釜石店3Ｆ,開催なし,141.8824920654297,39.272457122802734
118,ソユーゲームフィールド 盛岡南店,岩手県盛岡市本宮七丁目1番1号　イオンモール盛岡南1F ,開催なし,141.12892150878906,39.68412780761719
119,ソユーファミリーゲームフィールド 花巻店,岩手県花巻市高木第16地割68番地6 銀河モール花巻内,開催なし,141.135986328125,39.38631057739258
120,タイトーステーション 盛岡マッハランド店,岩手県盛岡市上堂1-2-38マッハランド内,開催なし,141.12791442871094,39.72447204589844
121,モーリーファンタジー盛岡,岩手県盛岡市前潟４－７－１イオン２階　,開催なし,141.10105895996094,39.71052551269531
122,"モーリーファンタジーイオン盛岡南★メザスタシティ★
",岩手県盛岡市本宮７－１－１イオン３階　,開催なし,141.1297607421875,39.684715270996094
123,モーリーファンタジー遠野,岩手県遠野市新穀町１－１１とぴあ２階　,開催なし,141.5323944091797,39.33123779296875
124,モーリーファンタジー盛岡渋民,岩手県盛岡市玉山区渋民字鶴飼２０番地－１ＳｕＣ１階　,開催なし,141.2145538330078,39.824485778808594
125,ＰＡＬＯ久慈,岩手県久慈市長内町第３０地割３２－２久慈ショッピングセンター１階　,開催なし,141.7855224609375,40.1898307800293
126,モーリーファンタジー盛岡南,岩手県盛岡市津志田西２丁目１７－５０盛岡南ショッピングセンターサンサ店１階　,開催なし,141.1486358642578,39.66180419921875
127,モーリーファンタジー前沢,岩手県奥州市前沢区向田２丁目８５イオン２階　,開催なし,141.129638671875,39.0521354675293
128,モーリーファンタジー一関,岩手県一関市山目字泥田８９－１イオン２階　,開催なし,141.113525390625,38.937068939208984
129,モーリーファンタジースーパーセンター一関,岩手県一関市狐禅寺字石ノ瀬１１番１ＳｕＣ１階　,開催なし,141.15365600585938,38.93935012817383
130,白牡丹盛岡,岩手県盛岡市前潟４－７－１　イオン盛岡ショッピングセンター２Ｆ,開催なし,141.10105895996094,39.71052551269531
131,イトーヨーカドー花巻,岩手県花巻市下小舟渡１１８－１　玩具売場,開催なし,141.11785888671875,39.393428802490234
132,トイザらス北上,岩手県北上市有田町１０－３　,開催なし,141.1034698486328,39.29365539550781
133,ユーズランド大河原店,宮城県柴田郡大河原町小島2-1フォルテ2F,開催なし,140.7372283935547,38.064674377441406
134,スイーツ・ハート仙台泉大沢,宮城県仙台市泉区大沢1丁目5-1ｲｵﾝ仙台泉大沢2F,開催なし,140.88113403320312,38.349205017089844
135,プレーゴ加美店,宮城県加美郡加美町字赤塚178　イオンスーパーセンター加美店内,開催なし,140.86572265625,38.56245422363281
136,ゲームランド佐沼店,宮城県登米市南方町新島前46-1イオンタウン佐沼1F  ,開催なし,141.1835174560547,38.68352127075195
137,プラサカプコン石巻店,宮城県石巻市蛇田字新金沼170番地イオン石巻ショッピングセンター2F,開催なし,141.26544189453125,38.443992614746094
138,THE 3RD PLANET BiVi仙台店,宮城県仙台市宮城野区榴岡2-1-25,開催なし,140.88450622558594,38.26118469238281
139,GiGO 仙台,宮城県仙台市青葉区中央2-5-5三経60ビル,開催なし,140.8767547607422,38.261436462402344
140,GiGO仙台コロナワールド,宮城県仙台市宮城野区福室字田中前一番53-1,開催なし,140.96914672851562,38.260223388671875
141,GiGO名取,宮城県名取市飯野坂字土城堀57-1,開催なし,140.88839721679688,38.15664291381836
142,ゲームフィールド仙台長町店,宮城県仙台市太白区長町7丁目20番3号　ザ・モール仙台長町店3階,開催なし,140.87686157226562,38.22582244873047
143,ソユーゲームフィールド古川店,宮城県大崎市古川沢田字筒場浦15番地イオンタウン古川内,開催なし,140.97299194335938,38.59736633300781
144,ｎａｍｃｏアリオ仙台泉店,宮城県仙台市泉区泉中央一丁目五番地一　アリオ仙台泉店内,開催なし,140.88192749023438,38.324249267578125
145,ｎａｍｃｏイオンモール富谷店,宮城県富谷市大清水１－３３－１　イオンモール富谷店２階,開催なし,140.87376403808594,38.36505889892578
146,"ｎａｍｃｏイオンモール名取店★メザスタシティ★
",宮城県名取市杜せきのした５－３－１　イオンモール名取２Ｆ,開催なし,140.89381408691406,38.1639289855957
147,ｎａｍｃｏヨークタウン市名坂店,宮城県仙台市泉区市名坂字中道１００－９,開催なし,140.90576171875,38.315834045410156
148,スーパーノバイオン仙台中山店,宮城県仙台市泉区南中山1-35-57ｲｵﾝ仙台中山店　別館3F,開催なし,140.82891845703125,38.299198150634766
149,スーパーノバ仙台利府店,宮城県宮城郡利府町加瀬字新前谷地55-1利府ﾍﾟｱｶﾞｰﾃﾞﾝ内,開催なし,140.97567749023438,38.327816009521484
150,GAMEBANK仙台泉店,宮城県仙台市泉区大沢2-5-4,開催なし,140.87759399414062,38.35284423828125
151,タイトーステーション 仙台ベガロポリス店,宮城県仙台市太白区西多賀5-24-10,開催なし,140.8479461669922,38.219688415527344
152,モーリーファンタジー古川,宮城県大崎市古川旭二丁目２－１イオン２階　,開催なし,140.97154235839844,38.5677490234375
153,モーリーファンタジー気仙沼,宮城県気仙沼市赤岩舘下６－１外イオン２階　,開催なし,141.57208251953125,38.8874626159668
154,モーリーファンタジー栗原志波姫,宮城県栗原市志波姫新熊谷１１番ＳｕＣ１階　,開催なし,141.06861877441406,38.74872970581055
155,モーリーファンタジー仙台中山,宮城県仙台市泉区南中山１－３５－４０イオン３階　,開催なし,140.82740783691406,38.29799270629883
156,モーリーファンタジー利府,宮城県宮城郡利府町新中道3-1-1　イオンモール新利府　南館3階,開催なし,140.97181701660156,38.323001861572266
157,モーリーファンタジー富谷,宮城県富谷市大清水1丁目33-1イオン１階　,開催なし,140.87376403808594,38.36505889892578
158,モーリーファンタジー新名取,宮城県名取市杜せきのした５丁目３番地の１イオン３階　,開催なし,140.89381408691406,38.1639289855957
159,モーリーファンタジー仙台卸町,宮城県仙台市若林区卸町１－１イオンスタイル仙台卸町３Ｆ　,開催なし,140.9193572998047,38.25225830078125
160,モーリーファンタジー鈎取,宮城県仙台市太白区本町１－２１－１イオンスーパーセンター鈎取店１Ｆ　,開催なし,140.87721252441406,38.224395751953125
161,モーリーファンタジー多賀城,宮城県多賀城市町前４－１－１イオン３階　,開催なし,141.00372314453125,38.28218460083008
162,モーリーファンタジー石巻,宮城県石巻市茜平４－１０４番地イオン２階　,開催なし,141.26629638671875,38.44793701171875
163,モーリーファンタジー石巻東,宮城県石巻市流留字七勺１番１ＳｕＣ１階　,開催なし,141.3757781982422,38.427616119384766
164,モーリーファンタジー涌谷,宮城県遠田郡涌谷町字洞ヶ崎５番地ＳｕＣ１階　,開催なし,141.14866638183594,38.5381965637207
165,モーリーファンタジー塩釜,宮城県塩竈市海岸通５番１００号イオンタウン２階　,開催なし,141.0218963623047,38.31792068481445
166,ポケモンセンタートウホク,宮城県仙台市青葉区中央１－２－３　仙台PARCO８F,開催なし,140.88194274902344,38.26170349121094
167,フォルテ,宮城県柴田郡大河原町小島２－１　,開催なし,140.7372283935547,38.064674377441406
168,イトーヨーカドーアリオ仙台泉,宮城県仙台市泉区泉中央１－５－１　玩具売場,開催なし,140.88192749023438,38.324249267578125
169,イトーヨーカドー石巻あけぼの,宮城県石巻市あけぼの１－１－２　玩具売場,開催なし,141.27420043945312,38.44772720336914
170,トイザらス石巻矢本,宮城県東松島市小松字上浮足４３　,開催なし,141.20335388183594,38.42634582519531
171,トイザらス名取りんくうタウン,宮城県名取市杜せきのした５－５－１３　　アクロスプラザ杜せきのした,開催なし,140.9015655517578,38.16353225708008
172,ヨドバシカメラマルチメディア仙台,宮城県仙台市宮城野区榴岡１－３－１　玩具売場,開催なし,140.8844757080078,38.25923156738281
173,ファミリーランド加賀野店,宮城県登米市中田町石森字加賀野3-6-1　みやぎ生協加賀野店1階,開催なし,141.2110137939453,38.696834564208984
174,ｎａｍｃｏイオンモール新利府　南館店,宮城県宮城郡利府町新中道3-1-1　イオンモール新利府南館３F,開催なし,140.97181701660156,38.323001861572266
175,アピナ新利府 北館,宮城県宮城郡利府町利府字新屋田前22　イオンモール新利府 北館２F,開催なし,140.97215270996094,38.32603073120117
176,ヤマダデンキ Tecc  LIFE  SELECT 仙台あすと長町店,宮城県仙台市太白区あすと長町3丁目1-2,開催なし,140.88528442382812,38.220890045166016
177,ピーターパンと仲間たち 船岡店,宮城県柴田郡柴田町西船迫2-1-15　イオン船岡２F,開催なし,140.76242065429688,38.063255310058594
178,PRIZE SPOT PALO 泉パークタウン タピオ,宮城県仙台市泉区寺岡6丁目5-1,開催なし,140.8363494873047,38.34294509887695
179,SOYU Game Field 矢本店,宮城県東松島市小松字上浮足43番地　イオンタウン矢本,開催なし,141.20335388183594,38.42634582519531
180,モーリーファンタジーヨドバシ仙台,宮城県仙台市宮城野区榴岡1丁目3-1　ヨドバシ仙台第1ビル,開催なし,140.8844757080078,38.25923156738281
181,アピナ富谷店,宮城県富谷市大清水１丁目 33 番地１　イオンモール富谷別棟 109 シネマズ富谷 １階,開催なし,140.87559509277344,38.36810302734375
182,プラサカプコン大曲店,秋田県大仙市和合字坪立177イオン大曲ショッピングセンター2F,開催なし,140.50927734375,39.438167572021484
183,GiGO秋田,秋田県秋田市茨島1-1-16,開催なし,140.1026153564453,39.70494079589844
184,ゲームフィールド十文字店,秋田県横手市十文字町仁井田字東22-1　スーパーモールラッキー内,開催なし,140.52053833007812,39.21622085571289
185,ゲームフィールド鷹巣店,秋田県北秋田市栄字前綱76　いとく鷹巣ショッピングセンター内,開催なし,140.38037109375,40.23249435424805
186,ソユーゲームフィールド御所野店,秋田県秋田市御所野地蔵田一丁目1番地1号　イオンモール秋田2F,開催なし,140.1608123779297,39.66324234008789
187,ソユープレイランドソピア いとく鹿角店,秋田県鹿角市花輪字下夕町164-1　いとく鹿角ショッピングセンター内,開催なし,140.8197479248047,40.21592330932617
188,ソユープレイランドソピアいとくアクロス能代店,秋田県能代市字寺向70番地　いとくアクロス能代店内,開催なし,140.05226135253906,40.18263626098633
189,ｎａｍｃｏイオンタウン大館西店,秋田県大館市根下戸新町１８番１２１号　イオンタウン大館西内,開催なし,140.5290985107422,40.273799896240234
190,秋田ＯＰＡアミューズパーク,秋田県秋田市千秋久保田町４ー２　秋田ＯＰＡ内,開催なし,140.1287841796875,39.71993637084961
191,ファンタジープラザ秋田店,秋田県秋田市旭北錦町4-58MEGAドン・キホーテ秋田店2階,開催なし,140.10910034179688,39.713890075683594
192,モーリーファンタジー能代,秋田県能代市柳町１１－１イオン３階　,開催なし,140.02520751953125,40.20964431762695
193,モーリーファンタジー中仙,秋田県大仙市北長野字袴田１８８イオン１階　,開催なし,140.55067443847656,39.55128860473633
194,モーリーファンタジー横手,秋田県横手市安田字向田１４７イオン２階　,開催なし,140.55386352539062,39.2985954284668
195,モーリーファンタジー大曲,秋田県大仙市和合字坪立１７７番地イオン２階　,開催なし,140.50927734375,39.438167572021484
196,モーリーファンタジー御所野,秋田県秋田市御所野地蔵田１－１－１イオン３階　,開催なし,140.1608123779297,39.66324234008789
197,"モーリーファンタジー秋田中央★メザスタシティ★
",秋田県秋田市楢山川口境５－１１イオン３階　,開催なし,140.1098175048828,39.70417404174805
198,モーリーファンタジー大館,秋田県大館市大田面２３８ＳｕＣ１階　,開催なし,140.5769805908203,40.2863655090332
199,ソユーゲームフィールド能代店,秋田県能代市鰄渕字古屋布1番　イオンタウン能代内,開催なし,140.07847595214844,40.189056396484375
200,SOYU Game Field 大館店,秋田県大館市御成町3-7-58　いとく大館ショッピングセンター3F,開催なし,140.55950927734375,40.280364990234375
201,モーリーファンタジー本荘,秋田県由利本荘市石脇字田中138番地　イオンスーパーセンター本荘店1階,開催なし,140.02601623535156,39.3907470703125
202,トム・ソーヤのなかまたち 五城目店,秋田県南秋田郡五城目町大川西野田屋前138　ｲｵﾝｽｰﾊﾟｰｾﾝﾀｰ五城目店内,開催なし,140.1080780029297,39.93571090698242
203,G3ポロス横手南店,秋田県横手市婦気大堤字中田4-1　イオンスーパーセンター横手南店内 2Fゲームコーナー,開催なし,140.55288696289062,39.295379638671875
204,GiGO庄内,山形県東田川郡三川町大字猪子字大堰端326-6,開催なし,139.8346710205078,38.819339752197266
205,GiGO北山形,山形県山形市北町1-3-20,開催なし,140.33123779296875,38.268463134765625
206,GiGO米沢,山形県米沢市大字花沢字タナコ原177,開催なし,140.12127685546875,37.919254302978516
207,ソユーゲームフィールド 三川店,山形県東田川郡三川町大字猪子字和田庫128番地1　イオンモール三川1F,開催なし,139.8339385986328,38.816524505615234
208,ソユーゲームフィールド 天童店,山形県天童市芳賀タウン北四丁目1番1号 イオンモール天童2階　,開催なし,140.36497497558594,38.34530258178711
209,ｎａｍｃｏイオンモール山形南店,山形県山形市若宮３－７－８　イオンモール山形南２Ｆ,開催なし,140.30677795410156,38.226318359375
210,ｎａｍｃｏ Ｓ－ＭＡＬＬ店,山形県鶴岡市錦町２－２１　Ｓ－ＭＡＬＬ２階,開催なし,139.83233642578125,38.73820114135742
211,スーパーノバ天童店,山形県天童市南町1-5-26ららﾊﾟｰｸ内,開催なし,140.37380981445312,38.342952728271484
212,アピナ鶴岡店,山形県鶴岡市文下字広野1-1,開催なし,139.8442840576172,38.75838851928711
213,モーリーファンタジー酒田南,山形県酒田市あきほ町１２０－１イオン１階　,開催なし,139.8528594970703,38.89219284057617
214,モーリーファンタジー山形北,山形県山形市馬見ケ崎２－１２－１９イオン２階　,開催なし,140.33114624023438,38.282501220703125
215,"モーリーファンタジー東根★メザスタシティ★
",山形県東根市さくらんぼ駅前３丁目７番１５号イオン２階　,開催なし,140.38818359375,38.42780685424805
216,モーリーファンタジー山形南,山形県山形市若宮３－７－８イオン２階　,開催なし,140.30677795410156,38.226318359375
217,モーリーファンタジー三川,山形県東田川郡三川町大字猪子字和田庫１２８－１イオン２階　,開催なし,139.8339385986328,38.816524505615234
218,モーリーファンタジー天童,山形県天童市芳賀土地区画整理事業地内３４街区イオン２階　,開催なし,140.354248046875,38.34103012084961
219,モーリーファンタジー米沢,山形県米沢市春日２－１３－４イオン２階　,開催なし,140.1088104248047,37.92356491088867
220,こぴあおもちゃ館,山形県鶴岡市余慶１－２　ＳＣこぴあ内,開催なし,139.83030700683594,38.74591064453125
221,ビーカム成沢店,山形県山形市成沢西5-3-27,開催なし,140.3177032470703,38.20835494995117
222,ザ・モール郡山キッズ・パーク店,福島県郡山市長者1丁目1-56西友ザ・モール郡山2階,開催なし,140.37191772460938,37.39847183227539
223,らくだのせなか鹿島エブリア店,福島県いわき市鹿島町米田日渡5番地鹿島エブリア店2階プレビプレイランド,開催なし,140.90496826171875,36.99345779418945
224,ドリームファクトリーいわき,福島県いわき市中央台飯野4-1,開催なし,140.9161834716797,37.012367248535156
225,THE 3RD PLANET ピボット福島店,福島県福島市栄町1-1 パワーシティピボット内,開催なし,140.46067810058594,37.75318908691406
226,ゲームプラザAGS郡山店,福島県郡山市西ノ内2-11-40イトーヨーカドー郡山店4階（連絡先は母体代表）,開催なし,140.36305236816406,37.40715026855469
227,GiGO白河,福島県白河市新高山1-1 メガステージ白河内,開催なし,140.19383239746094,37.1185188293457
228,GiGO福島,福島県福島市本内字中井1-2,開催なし,140.48834228515625,37.78540802001953
229,GiGO小名浜,福島県いわき市小名浜林城字塚前18-1,開催なし,140.89720153808594,36.98591232299805
230,GiGO日和田,福島県郡山市日和田町字西中島7-1,開催なし,140.3805694580078,37.448158264160156
231,GiGO勿来,福島県いわき市勿来町四沢字鍵田13,開催なし,140.78370666503906,36.8895378112793
232,ソユーエンターテイメントスタジオ 須賀川店,福島県須賀川市古河105番地　イオンタウン須賀川B棟内,開催なし,140.3854522705078,37.298301696777344
233,ソユーゲームフィールドいわき小名浜店,福島県いわき市小名浜字辰巳町79番地　イオンモールいわき小名浜3階,開催なし,140.90267944335938,36.946712493896484
234,"ｎａｍｃｏイオンタウン郡山店★メザスタシティ★
",福島県郡山市松木町２－８８　イオンタウン郡山,開催なし,140.38758850097656,37.388954162597656
235,ｎａｍｃｏ郡山西部プラザ店,福島県郡山市西ノ内２丁目１１－３５　西部プラザ内,開催なし,140.3631591796875,37.408199310302734
236,スイーツファクトリーパックン会津若松店,福島県会津若松市幕内南町9番10号アピタ会津若松店2F,開催なし,139.90444946289062,37.484039306640625
237,タイトーＦステーション郡山オリエントパーク店,福島県郡山市安積町荒井字大久保35-1,開催なし,140.34878540039062,37.37458038330078
238,スーパーノバ会津インター店,福島県会津若松市町北町大字上荒久田字宮下142,開催なし,139.92181396484375,37.51824951171875
239,スーパーノバ福島店,福島県福島市黒岩字中島7-2,開催なし,140.46714782714844,37.7277717590332
240,モーリーファンタジー白河西郷,福島県西白河郡西郷村大字小田倉字岩下１１－１イオン２階　,開催なし,140.17750549316406,37.121585845947266
241,モーリーファンタジーいわき小名浜,福島県いわき市小名浜港背後地土地区画整理事業地内イオンモールいわき小名浜店内　４階　,開催なし,140.88734436035156,36.944984436035156
242,モーリーファンタジーいわき,福島県いわき市平字三倉６８－１イオン３階　,開催なし,140.8993377685547,37.050941467285156
243,モーリーファンタジー福島,福島県福島市南矢野目字西荒田５０番地の１７イオン３階　,開催なし,140.4575653076172,37.788330078125
244,モーリーファンタジー鏡石,福島県岩瀬郡鏡石町桜岡３７５－９ＳｕＣ１階　,開催なし,140.3342742919922,37.24293518066406
245,ＰＡＬＯ喜多方,福島県喜多方市字押切南２－４２－１１階　,開催なし,139.8597412109375,37.6468391418457
246,イトーヨーカドー福島,福島県福島市太田町１３－４　玩具売場,開催なし,140.45706176757812,37.75305938720703
247,イトーヨーカドー郡山,福島県郡山市西ノ内２－１１－４０　玩具売場,開催なし,140.36305236816406,37.40715026855469
248,トイザらス福島,福島県福島市森合字清水７　　コープマートいずみ２Ｆ,開催なし,140.44142150878906,37.77214431762695
249,ヨドバシカメラ郡山駅前,福島県郡山市駅前１－１６－７　玩具売場,開催なし,140.38755798339844,37.397274017333984
250,トイザらス郡山,福島県郡山市松木町2-88　イオンタウン郡山内,開催なし,140.38758850097656,37.388954162597656
251,トイザらスいわき,福島県いわき市平谷川瀬3丁目23－10　ヨークタウン谷川瀬1F,開催なし,140.900390625,37.046451568603516
252,モーリーファンタジー南相馬,福島県南相馬市原町区大木戸字金場77,開催なし,140.94334411621094,37.63751983642578
253,モーリーファンタジーベイシア白河,福島県白河市字老久保28,開催なし,140.19979858398438,37.11668014526367
254,ユーズランド水戸内原店,茨城県水戸市内原2-1イオンモール水戸内原2F,開催なし,140.35916137695312,36.3747673034668
255,ゲームメガみらい平店,茨城県つくばみらい市陽光台1-14-1,開催なし,140.03988647460938,35.995418548583984
256,ピンクパンサー水戸けやき台店,茨城県水戸市酒門町3276-1,開催なし,140.48313903808594,36.33793640136719
257,ピンクパンサー水戸赤塚店,茨城県水戸市河和田1-1,開催なし,140.4136505126953,36.381004333496094
258,ピンクパンサー土浦店,茨城県土浦市木田余4585-3,開催なし,140.21351623535156,36.1075439453125
259,ゲームメガ日立店,茨城県日立市東多賀町5-10-10,開催なし,140.62974548339844,36.54808807373047
260,ゲオひたちなか高場店,茨城県ひたちなか市高場1140番地1,開催なし,140.5380859375,36.42156982421875
261,GiGO日立,茨城県日立市田尻町3-26-1,開催なし,140.6698760986328,36.62660598754883
262,GiGO龍ヶ崎,茨城県龍ケ崎市藤ケ丘4-2-8,開催なし,140.1953887939453,35.93852233886719
263,GiGO水戸南,茨城県水戸市千波町2017-1　1F,開催なし,140.44395446777344,36.3510627746582
264,GiGO石岡,茨城県石岡市東大橋中峯1976-1,開催なし,140.30809020996094,36.19820022583008
265,ソユートイズニューヨーク 守谷店,茨城県守谷市百合ヶ丘三丁目249番1　イオンタウン守谷2F,開催なし,139.99208068847656,35.945404052734375
266,スコナランド行方,茨城県行方市麻生3288-50セイミヤモール麻生店　1F,開催なし,140.4985809326172,36.016422271728516
267,ジャングルパーク笠間店,茨城県笠間市赤坂8番地笠間SCポレポレシティ 1F,開催なし,140.25051879882812,36.39078140258789
268,ジョイフル本田ニューポートひたちなかアミューズパーク,茨城県ひたちなか市新光町34-1 ジョイフル本田ニューポートひたちなか1F,開催なし,140.58694458007812,36.40680694580078
269,"ｎａｍｃｏ　ｉｉａｓつくば店★メザスタシティ★
",茨城県つくば市研究学園５丁目１９番地　ｉｉａｓつくば店２Ｆ２１９０,開催なし,140.08457946777344,36.088584899902344
270,ｎａｍｃｏイオンモールつくば店,茨城県つくば市稲岡６６－１　イオンモールつくば店３Ｆ,開催なし,140.13272094726562,36.03459548950195
271,ＦＥＳＴＡ古河,茨城県古河市松並2-18-10 ﾏｰｹｯﾄｼﾃｨ古河内,開催なし,139.7096710205078,36.20896911621094
272,GAME PANIC　つくば店,茨城県土浦市中村東1-1-1　サンタスワールド内,開催なし,140.1674041748047,36.04652404785156
273,楽市楽座イオンモール土浦店,茨城県土浦市上高津３６７番地　イオンモール土浦店３階,開催なし,140.17955017089844,36.08086013793945
274,アピナ下館店,茨城県筑西市玉戸1012-3,開催なし,139.94210815429688,36.294189453125
275,宝島鹿嶋店,茨城県鹿嶋市宮中290-1ショッピングセンターチェリオ1階,開催なし,140.64256286621094,35.959228515625
276,宝島勝田店,茨城県ひたちなか市石川町1-1MEGAドン・キホーテ勝田店2階,開催なし,140.52755737304688,36.39313507080078
277,ファンタジープラザ上水戸店,茨城県水戸市上水戸2-9-10MEGAドン・キホーテ上水戸店2階,開催なし,140.44598388671875,36.38895797729492
278,タイトーステーション イオンタウン水戸南店,茨城県東茨城郡茨城町長岡3480-1010,開催なし,140.43980407714844,36.309364318847656
279,タイトーステーション 佐原東店,茨城県稲敷市西代1495ショッピングセンターパルナ2F,開催なし,140.48776245117188,35.91889190673828
280,モーリーファンタジー古河,茨城県古河市旭町１－２－１７イオン２階　,開催なし,139.71905517578125,36.19717025756836
281,モーリーファンタジー下妻,茨城県下妻市堀籠９７２－１イオン２階　,開催なし,139.98941040039062,36.190086364746094
282,モーリーファンタジー佐原東,茨城県稲敷市西代１４９５パルナ２階　,開催なし,140.48776245117188,35.91889190673828
283,モーリーファンタジー東海,茨城県那珂郡東海村舟石川駅東四丁目１番１号イオン２階　,開催なし,140.56683349609375,36.46329879760742
284,モーリーファンタジー水戸内原,茨城県水戸市内原２丁目１番地イオン３階　,開催なし,140.35916137695312,36.3747673034668
285,モーリーファンタジー土浦,茨城県土浦市上高津３６７番イオン３階　,開催なし,140.17955017089844,36.08086013793945
286,モーリーファンタジーつくば,茨城県つくば市稲岡６６－１イオン３階　,開催なし,140.13272094726562,36.03459548950195
287,モーリーファンタジー高萩,茨城県高萩市安良川２３１イオン２階　,開催なし,140.7080841064453,36.7059211730957
288,水戸京成百貨,茨城県水戸市泉町１－６－１　７階玩具売場,開催なし,140.46466064453125,36.377708435058594
289,イトーヨーカドー竜ヶ崎,茨城県龍ケ崎市小柴５－１－２　玩具売場,開催なし,140.16017150878906,35.933170318603516
290,西友ひたち野うしく,茨城県牛久市ひたち野東１－２３－１　,開催なし,140.16061401367188,36.00889587402344
291,トイザらス龍ヶ崎,茨城県龍ケ崎市小柴１－７　,開催なし,140.1640625,35.93110275268555
292,トイザらス水戸,茨城県水戸市河和田町３６３７－１　,開催なし,140.41197204589844,36.36240768432617
293,トイザらスつくば,茨城県つくば市研究学園Ｃ５０街区１　イーアスつくば３Ｆ,開催なし,140.07711791992188,36.08350372314453
294,ビックカメラ水戸駅,茨城県水戸市宮町１－７－３１　エクセルみなみ４Ｆ　,開催なし,140.47616577148438,36.3699951171875
295,ハローズガーデン江戸崎店,茨城県稲敷市江戸崎甲4836　ﾊﾟﾝﾌﾟ江戸崎SC1F,開催なし,140.31591796875,35.959205627441406
296,ゲームメガつくば店,茨城県つくば市小野崎177－2,開催なし,140.10427856445312,36.07685470581055
297,タイトーFステーションイオン下妻店,茨城県下妻市堀篭972-1　イオンモール下妻店２Ｆ,開催なし,139.98941040039062,36.190086364746094
298,AMジャムジャムつくば店,茨城県つくば市竹園1-9-2　デイズタウンつくばB1F,開催なし,140.1150360107422,36.078006744384766
299,タイトーFステーション ヨークタウン坂東店,茨城県坂東市辺田1104-1,開催なし,139.89012145996094,36.03763961791992
300,AMジャムジャムひたちなか店,茨城県ひたちなか市田中後40-11,開催なし,140.58050537109375,36.34784698486328
301,AMジャムジャム神栖店,茨城県神栖市神栖1-8-1,開催なし,140.64434814453125,35.89762878417969
302,アドアーズアシコタウンあしかが店,栃木県足利市大月町３－２ アシコタウンあしかが 内,開催なし,139.477294921875,36.33679962158203
303,タイトーFステーション トナリエ宇都宮店,栃木県宇都宮市 駅前通り1丁目4番6号　トナリエ宇都宮B1,開催なし,139.8828125,36.55511474609375
304,タイトーFステーション小山店,栃木県小山市喜沢1475,開催なし,139.80691528320312,36.33413314819336
305,ドリームファクトリーアロハ！ビバモール鹿沼,栃木県鹿沼市睦町字川西城下287番地1,開催なし,139.7528076171875,36.57210159301758
306,テクモピアパルテロン宇都宮店,栃木県宇都宮市今泉町237福田屋ショッピングプラザ宇都宮店2F,開催なし,139.90003967285156,36.57365798950195
307,テクモピアロックダムインターパーク店,栃木県宇都宮市インターパーク6-1-1FKDショッピングモールインターパーク店2F,開催なし,139.90643310546875,36.490623474121094
308,テクモピア鹿沼店,栃木県鹿沼市東末広町1073福田屋鹿沼店3F,開催なし,139.75186157226562,36.56403732299805
309,GiGO宇都宮,栃木県宇都宮市東宿郷5-1-7,開催なし,139.90887451171875,36.55842590332031
310,GiGO日光,栃木県日光市芹沼1448-1,開催なし,139.70956420898438,36.74144744873047
311,GiGO西那須野,栃木県那須塩原市南郷屋2-106-27,開催なし,139.98265075683594,36.89515686035156
312,ドラマ足利店,栃木県足利市朝倉町244-1,開催なし,139.4505157470703,36.321990966796875
313,スコナランドトライアル宇都宮,栃木県宇都宮市睦町５－５トライアル宇都宮　1階,開催なし,139.8632354736328,36.562835693359375
314,ｎａｍｃｏイオン栃木店,栃木県栃木市箱森町３７－９　イオン栃木店２Ｆ,開催なし,139.7255859375,36.39435958862305
315,ｎａｍｃｏフェドラＰ＆Ｄ佐野店,栃木県佐野市高萩町１３４０,開催なし,139.60592651367188,36.29725646972656
316,ｎａｍｃｏロブレ小山店,栃木県小山市中央町３－７－１　ロブレ小山店４階,開催なし,139.8046417236328,36.31230926513672
317,ｎａｍｃｏ宇都宮店,栃木県宇都宮市簗瀬町１６０６番地１　Ｐ＆Ｄビル,開催なし,139.89126586914062,36.543758392333984
318,ファンタジーランドガル―宇都宮店,栃木県宇都宮市江曽島本町22番7号アピタ宇都宮店2F,開催なし,139.8673095703125,36.532840728759766
319,アピナ小山店,栃木県小山市駅南町4-27-18,開催なし,139.80909729003906,36.29987335205078
320,タイトーステーション 宇都宮ベルモール店,栃木県宇都宮市陽東6丁目2-10,開催なし,139.93063354492188,36.55284118652344
321,タイトーステーション イオンモール佐野新都市店,栃木県佐野市高萩町1324-10,開催なし,139.60630798339844,36.30002975463867
322,"モーリーファンタジー小山★メザスタシティ★
",栃木県小山市中久喜１４６７－１イオン２階　,開催なし,139.8404541015625,36.32181930541992
323,モーリーファンタジー今市,栃木県日光市豊田字若林７９－１イオン２階　,開催なし,139.70401000976562,36.73051071166992
324,モーリーファンタジー真岡,栃木県真岡市台町２６６８ザ・ビッグ１階　,開催なし,140.0006866455078,36.430023193359375
325,モーリーファンタジーさくら,栃木県さくら市桜野１５５１ザ・ビッグ１階　,開催なし,139.97946166992188,36.689754486083984
326,モーリーファンタジー那須塩原,栃木県那須塩原市　島方４５５イオンタウン１階　,開催なし,140.04605102539062,36.96168899536133
327,ＰＡＬＯ石橋,栃木県下野市下古山３３６２－１ヨークタウン階　,開催なし,139.86851501464844,36.46906280517578
328,モーリーファンタジー佐野新都市,栃木県佐野市高萩町１３２４－１イオン２階　,開催なし,139.60630798339844,36.30002975463867
329,ＰＡＬＯ足利,栃木県足利市朝倉町２－２１－１６ヨークタウン足利店１階　,開催なし,139.44496154785156,36.316104888916016
330,東武百貨店宇都宮,栃木県宇都宮市宮園町５－４  　５階玩具売場,開催なし,139.88063049316406,36.55901336669922
331,ＦＫＤインターパーク,栃木県宇都宮市インターパーク６－１－１　２Ｆ玩具売場,開催なし,139.90643310546875,36.490623474121094
332,ＦＫＤ宇都宮,栃木県宇都宮市今泉町２３７番地　２Ｆファミコン売場,開催なし,139.90003967285156,36.57365798950195
333,イトーヨーカドー宇都宮,栃木県宇都宮市陽東６－２－１　玩具売場,開催なし,139.93161010742188,36.5527458190918
334,ＪＯＹＦＵＬ－２宇都宮,栃木県河内郡上三川町大字磯岡字中原４２１－１　,開催なし,139.9103546142578,36.47935485839844
335,トイザらス宇都宮,栃木県宇都宮市鶴田町２０８－１　,開催なし,139.8543701171875,36.54872131347656
336,トイザらス小山,栃木県小山市神山２－９－３３　,開催なし,139.80325317382812,36.30079650878906
337,アピタ宇都宮,栃木県宇都宮江曽島本町２２番７号　玩具売場,開催なし,139.8673095703125,36.532840728759766
338,アピタ足利,栃木県足利市朝倉町２４５番地　玩具売場,開催なし,139.44989013671875,36.32057571411133
339,イオン栃木,栃木県栃木市箱森町３７－９　玩具売場,開催なし,139.7255859375,36.39435958862305
340,ヨドバシカメラマルチメディア宇都宮,栃木県宇都宮市駅前通り１－４－６　宇都宮西口ビル,開催なし,139.8970947265625,36.55998992919922
341,こころっこ新田店,群馬県太田市新田市野井町592-13ニコモール新田店内１階プレイランド,開催なし,139.30226135253906,36.30278015136719
342,ユーズランド高崎店,群馬県高崎市棟高町1400イオンモール高崎2F,開催なし,139.00657653808594,36.390380859375
343,ユーズランド太田店,群馬県太田市石原町81イオンモール太田2F,開催なし,139.4002227783203,36.294002532958984
344,THE 3RD PLANET 高崎店,群馬県高崎市下和田町5-3-8,開催なし,139.01426696777344,36.31936264038086
345,GiGOスマーク伊勢崎,群馬県伊勢崎市西小保方町368　スマーク伊勢崎3F302区画,開催なし,139.23239135742188,36.3395881652832
346,GiGO館林,群馬県館林市小桑原町949-1,開催なし,139.52059936523438,36.23470687866211
347,GiGO沼田,群馬県沼田市下久屋町1100-1,開催なし,139.07891845703125,36.65684509277344
348,GiGO太田,群馬県太田市西矢島町575-1,開催なし,139.37789916992188,36.27461242675781
349,ハローズガーデン伊勢崎東店,群馬県伊勢崎市三室町5330MEGAドン・キホーテUNY伊勢崎東店2F,開催なし,139.2342071533203,36.32959747314453
350,ｎａｍｃｏアカマル店,群馬県高崎市中尾町字鳥羽前４４－１　アカマル２Ｆ,開催なし,139.03321838378906,36.37506866455078
351,ｎａｍｃｏけやきウォーク前橋店,群馬県前橋市文京町２－１－１　けやきウォーク前橋２Ｆ,開催なし,139.07675170898438,36.380340576171875
352,ｎａｍｃｏ伊勢崎店,群馬県伊勢崎市宮子町３４０２－６,開催なし,139.16441345214844,36.33037567138672
353,アピナ太田店,群馬県太田市内ｹ島町907-1,開催なし,139.3753662109375,36.2911262512207
354,群馬レジャーランド伊勢崎店,群馬県伊勢崎市連取町3066-1　,開催なし,139.1722869873047,36.31805419921875
355,群馬レジャーランド高崎駅東口店,群馬県高崎市江木町333番地1,開催なし,139.01296997070312,36.32940673828125
356,群馬レジャーランド渋川店,群馬県渋川市八木原1364　,開催なし,139.01539611816406,36.47422409057617
357,群馬レジャーランド太田店,群馬県太田市西矢島町162番地2　,開催なし,139.37669372558594,36.26811599731445
358,群馬レジャーランド藤岡店,群馬県藤岡市中2002-1　,開催なし,139.07156372070312,36.274776458740234
359,宝島桐生店,群馬県桐生市永楽町5-10MEGAドン・キホーテ桐生店3階,開催なし,139.33631896972656,36.412357330322266
360,タイトーFステーション 前橋リリカ店,群馬県前橋市国領町2-14-1　　　　前橋リリカ2F,開催なし,139.0673828125,36.40409469604492
361,モーリーファンタジーミスターマックス伊勢崎,群馬県伊勢崎市宮子町３５５６番地１ミスターマックス１階　,開催なし,139.15151977539062,36.329158782958984
362,"モーリーファンタジー高崎★メザスタシティ★
",群馬県高崎市棟高町１４００番地イオン３階　,開催なし,139.00657653808594,36.390380859375
363,モーリーファンタジー倉賀野,群馬県高崎市倉賀野町４６９１－１ミスターマックス倉賀野店１階　,開催なし,139.0552978515625,36.30099105834961
364,モーリーファンタジーガーデン前橋,群馬県前橋市小屋原町４７２－１ガーデン前橋１階　,開催なし,139.12904357910156,36.356048583984375
365,ＬＡＢＩ１ＬＩＦＥＳＥＬＥＣＴ高崎,群馬県高崎市栄町１－１　,開催なし,139.01324462890625,36.3238410949707
366,ＭＥＧＡドン・キホーテ桐生,群馬県桐生市永楽町５－１０　玩具売場,開催なし,139.33631896972656,36.412357330322266
367,トイザらス前橋,群馬県前橋市鳥羽町１６４－１　,開催なし,139.0351104736328,36.373321533203125
368,アピタ高崎,群馬県高崎市矢中町字渕ノ内６６８番地１　玩具売場,開催なし,139.05093383789062,36.31081771850586
369,アピタ前橋,群馬県前橋市文京町二丁目１番１号　玩具売場,開催なし,139.07681274414062,36.380619049072266
370,アピタ前橋,群馬県前橋市文京町二丁目１番１号　玩具売場,開催なし,139.07681274414062,36.380619049072266
371,MEGAドン・キホーテUNY伊勢崎東,群馬県伊勢崎市三室町５３３０　玩具売場,開催なし,139.2342071533203,36.32959747314453
372,トイザらス伊勢崎,群馬県伊勢崎市連取町3025-2,開催なし,139.1699676513672,36.32514953613281
373,TeccLIFESELECT前橋吉岡,群馬県北群馬郡吉岡町字七日市526-1,開催なし,139.00970458984375,36.44744110107422
374,アピナ吉岡店,群馬県北群馬郡吉岡町大久保364-1　ジョイホンパーク吉岡２F,開催なし,139.02049255371094,36.43424987792969
375,アドアーズ和光店,埼玉県和光市本町3-5MillionAnnex和光 1~3階,開催なし,139.61160278320312,35.78848648071289
376,タイトーFステーションダイエー大宮店,埼玉県さいたま市大宮区桜木町２丁目３ダイエー大宮店6階,開催なし,139.62179565429688,35.90699005126953
377,プレビ HEY WORLD北本店,埼玉県北本市深井6-87HEY WORLD店内,開催なし,139.52587890625,36.05349349975586
378,ユーズランド越谷店,埼玉県越谷市レイクタウン4-2-2イオンレイクタウンKAZE3F,開催なし,139.82342529296875,35.878395080566406
379,ユーズランド春日部店,埼玉県春日部市下柳420-1イオンモール春日部2F,開催なし,139.78927612304688,35.98855972290039
380,アミュージアム所沢店,埼玉県所沢市小手指台23-1マミーマート所沢山口店2Ｆ,開催なし,139.44293212890625,35.79157257080078
381,アミュージアム新座店,埼玉県新座市東北2-32-12イオン新座店3F　,開催なし,139.57496643066406,35.82069396972656
382,アミュージアム川口店,埼玉県川口市本町2-7-25ミエルかわぐち3F,開催なし,139.7279510498047,35.80061340332031
383,NICOPA＆nicoground所沢店,埼玉県所沢市青葉台1327 島忠ﾎｰﾑｽﾞ所沢店2階,開催なし,139.4399871826172,35.80662536621094
384,NICOPA幸手店,埼玉県幸手市上高野764ｴﾑｽﾞﾀｳﾝ幸手,開催なし,139.7150421142578,36.0679817199707
385,NICOPA草加舎人店,埼玉県草加市遊馬町2-1島忠ﾎｰﾑｽﾞ草加舎人店1F,開催なし,139.76821899414062,35.81807327270508
386,あそびライブラリー川口店,埼玉県川口市宮町18-9ララガーデン川口2F,開催なし,139.6991424560547,35.80621337890625
387,プラサカプコン羽生店,埼玉県羽生市川崎2-281-3イオンモール羽生2F,開催なし,139.54238891601562,36.14279556274414
388,ゲオ久喜店,埼玉県久喜市久喜北2-6-18,開催なし,139.66868591308594,36.07898712158203
389,ゲオ春日部ユリノキ通り店,埼玉県春日部市豊町4-1-7,開催なし,139.73939514160156,35.967647552490234
390,ゲオ川口元郷店,埼玉県川口市元郷6-20,開催なし,139.74392700195312,35.79792022705078
391,ゲオ草加花栗店,埼玉県草加市花栗4-26-21,開催なし,139.7912139892578,35.83616256713867
392,ゲオ大和田店,埼玉県さいたま市見沼区大和田町1-1154-1,開催なし,139.6523895263672,35.921714782714844
393,ゲオ東浦和店,埼玉県さいたま市緑区東浦和1-5-8 ,開催なし,139.70201110839844,35.86431121826172
394,ゲオ東越谷店,埼玉県越谷市東越谷4-8-17,開催なし,139.7971649169922,35.89930725097656
395,ゲオ東松山店,埼玉県東松山市松本町2丁目1-51,開催なし,139.41412353515625,36.03788375854492
396,ウェアハウス 草加店(本館),埼玉県八潮市南後谷507,開催なし,139.82083129882812,35.82957458496094
397,サープラ八潮あそびタウン,埼玉県八潮市大瀬1-1-3 フレスポ八潮3F,開催なし,139.84397888183594,35.808807373046875
398,GiGO籠原,埼玉県熊谷市美土里町 1-169,開催なし,139.31605529785156,36.1702995300293
399,GiGO花園,埼玉県深谷市荒川359,開催なし,139.23391723632812,36.12015914916992
400,GiGO所沢,埼玉県所沢市日吉町 8-1,開催なし,139.47109985351562,35.78725814819336
401,GiGO川口,埼玉県川口市東領家 2-2-10,開催なし,139.74693298339844,35.79761505126953
402,GiGO入間,埼玉県入間市東藤沢 2-18,開催なし,139.41326904296875,35.824623107910156
403,GiGOイオンモール与野,埼玉県さいたま市中央区本町西5-2-9 イオン与野ショッピングセンター3F,開催なし,139.61590576171875,35.88959884643555
404,ソユーゲームフィールド 熊谷店,埼玉県熊谷市銀座二丁目245番地　ショッピングセンターニットーモール4F,開催なし,139.39395141601562,36.13850021362305
405,ソユーゲームフィールド 川口店,埼玉県川口市並木元町1番79号　アリオ川口3F,開催なし,139.7158203125,35.806884765625
406,ソユーゲームフィールド菖蒲店,埼玉県久喜市菖蒲町菖蒲6005番地1　モラージュ菖蒲3F,開催なし,139.61106872558594,36.07542037963867
407,スコナランド新座,埼玉県新座市中野2-1-38OSCデオシティ新座店　3F,開催なし,139.5492706298828,35.817535400390625
408,ハローズガーデンワカバウォーク店,埼玉県鶴ヶ島市富士見1-2-1,開催なし,139.41114807128906,35.94932174682617
409,ハローズガーデン吹上店,埼玉県鴻巣市袋字道上90-1FUJIMALL吹上店2F,開催なし,139.471923828125,36.098567962646484
410,ｎａｍｃｏイオンモール北戸田店,埼玉県戸田市美女木東１－３－１　イオンモール北戸田,開催なし,139.6530303955078,35.82670593261719
411,"ｎａｍｃｏイオンレイクタウン店★メザスタシティ★
",埼玉県越谷市レイクタウン３丁目１番地１イオンレイクタウンｍｏｒｉ３Ｆ　３１３３区画,開催なし,139.82797241210938,35.88489532470703
412,ｎａｍｃｏステラタウン店,埼玉県さいたま市北区宮原町一丁目８５４－１　ステラモール３Ｆ,開催なし,139.62246704101562,35.932640075683594
413,ｎａｍｃｏ熊谷店,埼玉県熊谷市銀座２丁目９７番地,開催なし,139.3946075439453,36.13919448852539
414,スイーツファンタジーパックン東松山店,埼玉県東松山市あずま町4丁目3番地ピオニウォーク東松山店2F,開催なし,139.4102783203125,36.00537872314453
415,ＧＩＧＡ武蔵浦和本店,埼玉県さいたま市南区沼影3-5-15,開催なし,139.6514129638672,35.83707809448242
416,きゃらんど上里店,埼玉県児玉郡上里町大字七本木2272-1ウニクス上里2Ｆ,開催なし,139.15306091308594,36.23786926269531
417,ゲーセン クレヨンしんちゃん嵐を呼ぶブリブリシネマスタジオ,埼玉県春日部市南1-1-1ララガーデン春日部3Ｆ,開催なし,139.755126953125,35.97726821899414
418,コロコロ BASE,埼玉県富士見市山室1-1313ららぽーと富士見店2階　コロコロＢＡＳＥ,開催なし,139.54791259765625,35.85874557495117
419,シルクハット川口,埼玉県川口市栄町3-1-16イート川口ビル4階,開催なし,139.7176513671875,35.803184509277344
420,ラウンドワン　スタジアムららぽーと新三郷,埼玉県三郷市新三郷ららｼﾃｨ3丁目1-1ららぽｰと新三郷2階20000番,開催なし,139.87225341796875,35.83013153076172
421,ラウンドワンさいたま・上里,埼玉県児玉郡上里町大字金久保394-1,開催なし,139.1377410888672,36.25950241088867
422,ラウンドワンスタジアム上尾店,埼玉県上尾市大字平塚917番地1,開催なし,139.6079864501953,35.98590087890625
423,ラウンドワンスタジアム朝霞店,埼玉県朝霞市膝折町2丁目16-10,開催なし,139.5800018310547,35.78993225097656
424,ＦＥＳＴＡ上尾,埼玉県上尾市愛宕3丁目1-40 ﾊﾞﾘｭｰﾌﾟﾗｻﾞ上尾愛宕店 2F,開催なし,139.59776306152344,35.96516418457031
425,GAME PANIC　三郷店,埼玉県三郷市ピアラシティ1-1-200　,開催なし,139.85504150390625,35.842430114746094
426,楽市楽座イオンモール川口前川店,埼玉県川口市前川１－１－１１　イオンモール川口前川店３階　　,開催なし,139.7060546875,35.83334732055664
427,アピナ上尾店,埼玉県上尾市緑丘3-3-11-2P･A･P･A上尾ｼｮｯﾋﾟﾝｸﾞｱﾍﾞﾆｭｰﾌﾟﾘﾝｾｽ棟別棟,開催なし,139.5791015625,35.98640441894531
428,アピナ川越店,埼玉県川越市泉町1-1ウニクス南古谷 シネマ棟1F,開催なし,139.5130157470703,35.90562438964844
429,ゲームスクエア三芳,埼玉県入間郡三芳町大字藤久保字北新埜855-403ｱｸﾛｽﾌﾟﾗｻﾞ三芳内,開催なし,139.5312042236328,35.837249755859375
430,モナコ川越店,埼玉県川越市新富町2丁目4－1,開催なし,139.483154296875,35.91313552856445
431,タイトーＦステーションクレアモール川越店,埼玉県川越市新富町2-1-13　本川越ＳＳビル1F～4F,開催なし,139.48272705078125,35.913658142089844
432,埼玉レジャーランド春日部店,埼玉県春日部市大字増富字谷際163-1　,開催なし,139.73252868652344,35.962982177734375
433,宝島浦和美園店,埼玉県さいたま市緑区美園5-50-1イオンモール浦和美園店2階,開催なし,139.73043823242188,35.89347457885742
434,タイトーステーション 所沢店,埼玉県所沢市日吉町3番7号,開催なし,139.47218322753906,35.78794860839844
435,ラクガキ王国 三郷店,埼玉県三郷市天神2丁目22番地イトーヨーカドー 三郷店2F,開催なし,139.85256958007812,35.84297180175781
436,タイトーステーション 大宮店,埼玉県さいたま市大宮区大門町１丁目１,開催なし,139.62559509277344,35.90739440917969
437,タイトーステーション 和光店,埼玉県和光市丸山台1-4-50,開催なし,139.61366271972656,35.78672790527344
438,プレイランド イオン北浦和店　　　　　　,埼玉県さいたま市浦和区常盤10-20-29　イオン北浦和店3階,開催なし,139.63931274414062,35.87154006958008
439,モーリーファンタジー本庄中央,埼玉県本庄市中央２－４先ビバモール本庄中央　２Ｆ　,開催なし,139.18777465820312,36.24367141723633
440,モーリーファンタジー上里,埼玉県児玉郡上里町大字金久保字蓮山３５９番１イオンタウン２階　,開催なし,139.1380157470703,36.264930725097656
441,モーリーファンタジー北戸田,埼玉県戸田市美女木東１－３－１イオン２階　,開催なし,139.6530303955078,35.82670593261719
442,モーリーファンタジー与野,埼玉県さいたま市中央区本町西５丁目２－９イオン３階　,開催なし,139.61590576171875,35.88959884643555
443,モーリーファンタジー大宮,埼玉県さいたま市北区櫛引町２－５７４－１イオン３階　,開催なし,139.60992431640625,35.92253494262695
444,モーリーファンタジー入間,埼玉県入間市上藤沢４６２－１イオン２階　,開催なし,139.39483642578125,35.82190704345703
445,モーリーファンタジー狭山,埼玉県狭山市上奥富１１２６－１イオン２階　,開催なし,139.41094970703125,35.8677978515625
446,モーリーファンタジービバモール東松山,埼玉県東松山市神明町２丁目１１番６号　,開催なし,139.4045867919922,36.03102493286133
447,モーリーファンタジー大井,埼玉県ふじみ野市ふじみ野１－２－１イオン３階　,開催なし,139.51365661621094,35.861000061035156
448,ＰＡＬＯ埼玉大井,埼玉県ふじみ野市西鶴ケ岡１丁目３番１５号ビバモール埼玉大井ショッピングセンター２階　,開催なし,139.5011444091797,35.86259078979492
449,モーリーファンタジー川口前川,埼玉県川口市前川１丁目１番１１号イオン３階　,開催なし,139.7060546875,35.83334732055664
450,モーリーファンタジー浦和美園,埼玉県さいたま市緑区美園五丁目５０番地１イオンモール３階　,開催なし,139.73043823242188,35.89347457885742
451,モーリーファンタジーレイクタウン,埼玉県越谷市レイクタウン３丁目１番地１イオンレイクタウン（ｍｏｒｉ）３階　,開催なし,139.82797241210938,35.88489532470703
452,モーリーファンタジー春日部,埼玉県春日部市下柳４２０－１イオン３階　,開催なし,139.78927612304688,35.98855972290039
453,モーリーファンタジー羽生,埼玉県羽生市川崎２丁目２８１番地３イオン３階　,開催なし,139.54238891601562,36.14279556274414
454,ＰＡＬＯ熊谷,埼玉県熊谷市本石２－１３５イオン３階　,開催なし,139.37852478027344,36.145381927490234
455,そごう大宮,埼玉県さいたま市大宮区桜木町１－６－２　５階玩具売場,開催なし,139.6220703125,35.90475845336914
456,丸広百貨店川越本店,埼玉県川越市新富町2-6-1　,開催なし,139.48233032226562,35.91252136230469
457,おもちゃのアポロ,埼玉県八潮市中央３－２１－４　,開催なし,139.83123779296875,35.82014846801758
458,イトーヨーカドー三郷,埼玉県三郷市天神２－２２　玩具売場,開催なし,139.85256958007812,35.84297180175781
459,イトーヨーカドー春日部,埼玉県春日部市中央１－１３－１　玩具売場,開催なし,139.74954223632812,35.97969436645508
460,イトーヨーカドー草加,埼玉県草加市高砂２－７－１　玩具売場,開催なし,139.8042449951172,35.82754898071289
461,トイザらス草加,埼玉県草加市清門町字北４０１－１　　セーモンプラザ２Ｆ,開催なし,139.7819061279297,35.8523063659668
462,イトーヨーカドー大宮宮原,埼玉県さいたま市北区宮原町１－８５４－１　玩具売場,開催なし,139.62246704101562,35.932640075683594
463,イトーヨーカドーアリオ上尾,埼玉県上尾市壱丁目３６７　玩具売場,開催なし,139.56619262695312,35.961883544921875
464,イトーヨーカドー浦和,埼玉県さいたま市浦和区仲町１－７－１　玩具売場,開催なし,139.6558837890625,35.86014175415039
465,イトーヨーカドーアリオ鷲宮,埼玉県久喜市久本寺谷田７－１　玩具売場,開催なし,139.6613311767578,36.07866668701172
466,イトーヨーカドーアリオ深谷,埼玉県深谷市上柴町西４－２－１４　玩具売場,開催なし,139.2984619140625,36.18111038208008
467,イトーヨーカドーアリオ川口,埼玉県川口市並木元町１－７９　玩具売場,開催なし,139.7158203125,35.806884765625
468,イトーヨーカドー埼玉大井,埼玉県ふじみ野市西鶴ケ岡１－３－１５　玩具売場,開催なし,139.5011444091797,35.86259078979492
469,イトーヨーカドー久喜,埼玉県久喜市久喜中央４－９－１１　玩具売場,開催なし,139.67515563964844,36.069969177246094
470,西友小手指,埼玉県所沢市小手指町１－２５－８　,開催なし,139.4398651123047,35.802818298339844
471,ＭＥＧＡドン・キホーテ蓮田,埼玉県蓮田市東４－５－１３　玩具売場,開催なし,139.65785217285156,35.9798583984375
472,ＭＥＧＡドン・キホーテ浦和原山,埼玉県さいたま市緑区原山４－３－３　玩具売場,開催なし,139.67405700683594,35.871334075927734
473,トイザらス岩槻,埼玉県さいたま市岩槻区城町２－６－２８　,開催なし,139.7147216796875,35.94804763793945
474,トイザらス新座,埼玉県新座市野火止５－２－６０　　ラ・ウ゛ィニュ２Ｆ,開催なし,139.55857849121094,35.80293655395508
475,アピタ東松山,埼玉県東松山市あずま町四丁目３番地　玩具売場,開催なし,139.4102783203125,36.00537872314453
476,アピタ桶川,埼玉県桶川市桶川市桶川都市計画事業下日出谷東特定土地区画整理事業地内42街区1画地　玩具売場,開催なし,139.5581817626953,36.002967834472656
477,ヨドバシカメラマルチメディアさいたま新都心駅前,埼玉県さいたま市大宮区吉敷町４－２６３－６　,開催なし,139.63433837890625,35.89669418334961
478,ビックカメラ大宮西口そごう,埼玉県さいたま市大宮区桜木町１－８－４そごう大宮店　,開催なし,139.6210174560547,35.904579162597656
479,ビックカメラ所沢駅,埼玉県所沢市日吉町１２－１　西武所沢Ｓ．Ｃ６Ｆ,開催なし,139.4720001220703,35.78647994995117
480,ダイエー南浦和東口,埼玉県さいたま市南区南浦和３－２－１,開催なし,139.67149353027344,35.84637451171875
481,スウィーツファンタジーパックン桶川店,埼玉県桶川市桶川都市計画事業下日出谷東 特定土地区画整理事業地内42街区1画地　ベニバナウォーク桶川2階,開催なし,139.5581817626953,36.002967834472656
482,ｎａｍｃｏイオンタウンふじみ野店,埼玉県ふじみ野市福岡2-1-6,開催なし,139.5220184326172,35.87938690185547
483,モーリーファンタジーふじみ野店,埼玉県ふじみ野市福岡二丁目1番6号イオンタウンふじみ野3階,開催なし,139.5220184326172,35.87938690185547
484,モーリーファンタジー上尾店,埼玉県上尾市愛宕三丁目8番1号イオンモール上尾2階,開催なし,139.5980682373047,35.9650764465332
485,八木橋百貨店,埼玉県熊谷市仲町74,開催なし,139.38197326660156,36.14595413208008
486,アミュージアム新所沢パルコ店,埼玉県所沢市緑町1-2-1　新所沢パルコLet's館３F,開催なし,139.45558166503906,35.80570602416992
487,モーリーファンタジー草加,埼玉県草加市高砂2丁目9番1号　草加マルイ店内,開催なし,139.80455017089844,35.828399658203125
488,モーリーファンタジー蕨錦町,埼玉県蕨市錦町1丁目12番1号　ビバモール蕨錦町店内,開催なし,139.67779541015625,35.822811126708984
489,トイザらス熊谷,埼玉県熊谷市代1067,開催なし,139.36935424804688,36.17393112182617
490,モーリーファンタジー川口,埼玉県川口市安行領根岸3180　イオンモール川口内,開催なし,139.72352600097656,35.83961486816406
491,アピナ吉川美南店,埼玉県吉川市美南３-２５-１　イオンタウン吉川美南２F,開催なし,139.85897827148438,35.86598587036133
492,GiGOららぽーと富士見,埼玉県富士見市山室1-1313　ららぽーと富士見3F　3520区画,開催なし,139.54791259765625,35.85874557495117
493,テクモピア川越店,埼玉県川越市脇田町4-2　ドン・キホーテ川越東口店3F,開催なし,139.48287963867188,35.9090690612793
494,Secret Base Chichibu店,埼玉県秩父市上野町805-14　ウニクス秩父 シネマ館１F,開催なし,139.08877563476562,35.996826171875
495,埼玉レジャーランド大宮ラクーン店,埼玉県さいたま市大宮区宮町1-60　ラクーン5階,開催なし,139.625732421875,35.90782928466797
496,ウェアハウス三橋店,埼玉県さいたま市西区三橋6-955-1,開催なし,139.5951385498047,35.916561126708984
497,キッズパーク ボンベルタ成田店,千葉県成田市赤坂2-1-10ボンベルタ成田店,開催なし,140.29055786132812,35.7781982421875
498,タイトーFステーションダイエー新松戸店,千葉県松戸市新松戸3丁目2-2ダイエー新松戸4階,開催なし,139.91603088378906,35.82524871826172
499,アミューズメントPLABIモラージュ柏店,千葉県柏市大山台2-3モラージュ柏店2階,開催なし,139.96923828125,35.88262939453125
500,マリンガーデンららぽーと船橋店 (ららぽーとTOKYO-BAY店),千葉県船橋市浜町2-1-1ららぽーと船橋店西館3階,開催なし,139.99020385742188,35.686241149902344
501,アミュージアム稲毛店,千葉県千葉市稲毛区小仲台1-4-20イオン稲毛店2F,開催なし,140.09603881835938,35.635711669921875
502,アミューズメントパフェ　パレパレ稲毛長沼,千葉県千葉市稲毛区長沼原町731-17　ﾌﾚｽﾎﾟ稲毛,開催なし,140.1273651123047,35.6557502746582
503,メルヘンランド大網店,千葉県大網白里市みやこ野1-1-1白里 アミリー3F,開催なし,140.31472778320312,35.51933288574219
504,トムソーヤのなかまたちアリオ市原,千葉県市原市更級4-3-2ｱﾘｵ市原店2F,開催なし,140.1024932861328,35.50847625732422
505,NICOPA & nico ground 成田富里店,千葉県成田市東町133番地,開催なし,140.32345581054688,35.77800369262695
506,NICOPA＆nicoground新浦安店,千葉県浦安市明海4-1-1ﾆｭｰｺｰｽﾄ新浦安3F,開催なし,139.9228515625,35.64295196533203
507,NICOPAアクロスモール新鎌ヶ谷店,千葉県鎌ケ谷市新鎌ケ谷2-12-1ｱｸﾛｽﾓｰﾙ新鎌ヶ谷2F,開催なし,140.001220703125,35.78090286254883
508,NICOPAマリンピア店,千葉県千葉市美浜区高洲3-13-1 ﾏﾘﾝﾋﾟｱ4階,開催なし,140.0730743408203,35.62832260131836
509,ゲームランドちはら台店,千葉県市原市ちはら台西3丁目4番unimoちはら台ショッピングセンター2F,開催なし,140.17153930664062,35.52817153930664
510,ゲームランド千葉ニュータウン店,千葉県印西市中央北3-2イオンモール千葉ニュータウンモール棟3棟,開催なし,140.1121826171875,35.80221176147461
511,ゲームランド津田沼店,千葉県習志野市津田沼1-23-1イオンモール津田沼2階,開催なし,140.0225067138672,35.69114303588867
512,プラサカプコン成田店,千葉県成田市ウイング土屋24イオンモール成田2F,開催なし,140.31890869140625,35.79525375366211
513,プラサカプコン富津店,千葉県富津市青木1-5-1イオンモール富津内ゲームコーナー,開催なし,139.84767150878906,35.33020782470703
514,テクモピアロックダム公津の杜店,千葉県成田市公津の杜4-5-3成田ユアエルム3F,開催なし,140.29672241210938,35.7594108581543
515,GiGO稲毛オーツーパーク,千葉県千葉市稲毛区園生町380-1,開催なし,140.11947631835938,35.65171813964844
516,GiGOフェスティバルウォーク蘇我,千葉県千葉市中央区川崎町51-1 ハーバーシティ蘇我 フェスティバルウォーク アミューズメント棟1F,開催なし,140.11756896972656,35.59385681152344
517,GiGOイオンモール銚子,千葉県銚子市三崎町2-2660-1 イオンモール銚子2F,開催なし,140.7877960205078,35.709991455078125
518,GiGO旭,千葉県旭市二3150-1,開催なし,140.64659118652344,35.720455169677734
519,GiGO我孫子,千葉県我孫子市柴崎字天王台 47-1,開催なし,140.03419494628906,35.87720489501953
520,GiGO八柱,千葉県松戸市日暮1-1-1 八柱駅第2ビル2F,開催なし,139.93850708007812,35.792057037353516
521,GiGO幕張,千葉県千葉市美浜区ひび野1-8 メッセ･アミューズ･モール1F,開催なし,140.0426025390625,35.64982986450195
522,ソユーゲームフィールド 木更津店,千葉県木更津市築地1番4　イオンモール木更津2F,開催なし,139.90138244628906,35.35668182373047
523,ソユーゲームフィールド 幕張店,千葉県千葉市花見川区幕張町四丁目417-25　イトーヨーカドー幕張店2F,開催なし,140.05116271972656,35.656410217285156
524,Ｍｏｒｉｓｉａ　ＡＭＵＳＥ　ＰＡＲＫ（モリシア）,千葉県習志野市谷津１－１６－１　モリシア津田沼２Ｆ,開催なし,140.01910400390625,35.68973159790039
525,ｎａｍｃｏイオンモール船橋店,千葉県船橋市山手１丁目１番８号,開催なし,139.97576904296875,35.711883544921875
526,ｎａｍｃｏイオンモール八千代緑が丘店,千葉県八千代市緑ヶ丘２－１－３　イオンモール八千代緑ヶ丘４Ｆ,開催なし,140.07284545898438,35.72785568237305
527,ｎａｍｃｏイオンモール幕張新都心店,千葉県千葉市美浜区豊砂１－１　イオンモール幕張新都心　グランドモール３階,開催なし,140.02651977539062,35.656089782714844
528,ｎａｍｃｏシェラトントーキョーベイ店,千葉県浦安市舞浜１－９,開催なし,139.87432861328125,35.63126754760742
529,ｎａｍｃｏテラスモール松戸店,千葉県松戸市八ヶ崎２－８－１　テラスモール松戸店３Ｆ,開催なし,139.9328155517578,35.81767272949219
530,ｎａｍｃｏ松戸店,千葉県松戸市松戸１２３０番地１　ピアザ松戸１Ｆ,開催なし,139.9010467529297,35.78485870361328
531,"ｎａｍｃｏ流山おおたかの森Ｓ・Ｃ店★メザスタシティ★
",千葉県流山市おおたかの森南一丁目５番地の１　流山おおたかの森Ｓ・Ｃ　３Ｆ,開催なし,139.9278106689453,35.8710823059082
532,イオンタウンユーカリが丘ゲームコーナー,千葉県佐倉市西ユーカリが丘６丁目１２番地の３,開催なし,140.15042114257812,35.72652053833008
533,ラウンドワンスタジアム　アリオ柏店,千葉県柏市大島田1-6-1,開催なし,140.0129852294922,35.83298873901367
534,タイトーFステーション市川妙典店,千葉県市川市妙典4-1-1　イオン市川妙典店２番街２Ｆ,開催なし,139.9268798828125,35.692840576171875
535,アピナ野田七光台店,千葉県野田市七光台4-2,開催なし,139.85325622558594,35.98158264160156
536,アピナ印西店,千葉県印西市原1-2BIGHOPガーデンモール印西 2階,開催なし,140.16488647460938,35.80307388305664
537,アピナ市原店,千葉県市原市更級4丁目2番1号ｱｸﾛｽﾌﾟﾗｻﾞ市原更級F棟1,開催なし,140.10128784179688,35.50997543334961
538,ゲームスクエア茂原,千葉県茂原市六ﾂ野八貫野2785-1ﾗｲﾌｶﾞｰﾃﾞﾝ茂原内,開催なし,140.28805541992188,35.42853927612305
539,スポーツウェーブ鉄腕24稲毛長沼店,千葉県千葉市稲毛区長沼原町697番地　,開催なし,140.12667846679688,35.66177749633789
540,スポーツウェーブ鉄腕24浜野店,千葉県千葉市中央区浜野町1025-59　,開催なし,140.12200927734375,35.55518341064453
541,千葉レジャーランド成東店,千葉県山武市姫島111-1　,開催なし,140.38995361328125,35.588504791259766
542,千葉レジャーランド野田店,千葉県野田市吉春字鎌田776-1　,開催なし,139.86553955078125,35.96567916870117
543,GiGOイオンスタイル新浦安,千葉県浦安市入船1-4-1　イオンスタイル新浦安店4階,開催なし,139.9149627685547,35.6490592956543
544,宝島柏の葉店,千葉県柏市若柴175ららぽーと柏の葉店3階,開催なし,139.95118713378906,35.89335250854492
545,ファンタジープラザ成東店,千葉県山武市成東1808-1MEGAドン・キホーテ成東店2階,開催なし,140.39767456054688,35.59538269042969
546,ハロータイトー 流山,千葉県流山市流山9丁目8002号イトーヨーカドー 流山店3F,開催なし,139.89944458007812,35.84909439086914
547,タイトーステーション 旭サンモール店,千葉県旭市イ-2676-1サンモール3F,開催なし,140.659423828125,35.72492980957031
548,タイトーステーション 茂原アスモ店,千葉県茂原市高師1735茂原ショッピングプラザ アスモ2F,開催なし,140.2876739501953,35.435035705566406
549,タイトーステーション アリオ蘇我店,千葉県千葉市中央区川崎町52-7アリオ蘇我2F,開催なし,140.12139892578125,35.590206146240234
550,モーリーファンタジーノア,千葉県野田市中根３６－１イオン１階　,開催なし,139.87619018554688,35.94647216796875
551,モーリーファンタジー八街,千葉県八街市文違３０１イオン１階　,開催なし,140.30641174316406,35.67770004272461
552,モーリーファンタジー成田,千葉県成田市ウイング土屋２４番地イオン２階　,開催なし,140.31890869140625,35.79525375366211
553,モーリーファンタジー八千代緑が丘,千葉県八千代市緑が丘２丁目１－３イオン４階　,開催なし,140.07284545898438,35.72785568237305
554,モーリーファンタジー柏,千葉県柏市 豊町２丁目５番２５号イオン２階　,開催なし,139.9761962890625,35.86829376220703
555,モーリーファンタジー銚子,千葉県銚子市三崎町２丁目２６６０－１イオン２階　,開催なし,140.7877960205078,35.709991455078125
556,モーリーファンタジーユーカリが丘,千葉県佐倉市西ユーカリが丘６－１２－３イオンタウン３階　,開催なし,140.15042114257812,35.72652053833008
557,モーリーファンタジー鎌取,千葉県千葉市緑区おゆみ野３丁目１６－１イオン３階　,開催なし,140.17747497558594,35.56129455566406
558,モーリーファンタジー木更津,千葉県木更津市築地１－４イオン２階　,開催なし,139.90138244628906,35.35668182373047
559,モーリーファンタジー館山,千葉県館山市八幡５４５－１イオン１階　,開催なし,139.86297607421875,35.006263732910156
560,モーリーファンタジーおゆみ野,千葉県千葉市緑区おゆみ野南５丁目３７－１イオンタウン２階　,開催なし,140.17352294921875,35.54396057128906
561,モーリーファンタジー長浦,千葉県袖ケ浦市長浦駅前１－７イオン２階　,開催なし,139.99761962890625,35.450313568115234
562,モーリーファンタジーあすみが丘,千葉県千葉市緑区あすみが丘７丁目１番あすみが丘ブランニューモール２階　,開催なし,140.26712036132812,35.52094268798828
563,モーリーファンタジー市川妙典,千葉県市川市妙典５－３－１イオン３階　,開催なし,139.92800903320312,35.693695068359375
564,モーリーファンタジー千葉ニュータウン,千葉県印西市中央北３丁目１番１イオン３階　,開催なし,140.11361694335938,35.8029670715332
565,モーリーファンタジー津田沼,千葉県習志野市津田沼１丁目２３番１号イオン３階　,開催なし,140.0225067138672,35.69114303588867
566,モーリーファンタジー鎌ヶ谷,千葉県鎌ケ谷市新鎌ケ谷２丁目７－１イオン２階　,開催なし,140.00169372558594,35.779693603515625
567,モーリーファンタジー東習志野,千葉県習志野市東習志野６丁目７－８イオンタウン１階　,開催なし,140.0678253173828,35.70040512084961
568,モーリーファンタジー船橋,千葉県船橋市山手１丁目１番地８号イオン３階　,開催なし,139.97576904296875,35.711883544921875
569,モーリーファンタジー幕張新都心,千葉県千葉市美浜区豊砂１－５イオンモール２階　,開催なし,140.02651977539062,35.656089782714844
570,ＰＡＬＯ市川,千葉県市川市鬼高１－１－１ニッケコルトンプラザ２階　,開催なし,139.9326629638672,35.715030670166016
571,そごう千葉,千葉県千葉市中央区新町１０００　本館６階玩具売場,開催なし,140.1135711669922,35.61111831665039
572,ポケモンセンタートウキョーベイ,千葉県船橋市浜町２－１－１　ららぽーとTOKYO-BAY西館２F,開催なし,139.99020385742188,35.686241149902344
573,ポケモンストアアウトレット木更津,千葉県木更津市金田東３－１－１三井アウトレットパーク 木更津 ２１５０区画　,開催なし,139.934814453125,35.435394287109375
574,タイトーＦステーション柏中央,千葉県柏市十余ニ２４９－５　ＭＥＭ内,開催なし,139.94432067871094,35.913387298583984
575,イトーヨーカドーアリオ蘇我,千葉県千葉市中央区川崎町５２－７　玩具売場,開催なし,140.12139892578125,35.590206146240234
576,イトーヨーカドー四街道,千葉県四街道市中央５　玩具売場,開催なし,140.16510009765625,35.66756057739258
577,イトーヨーカドー我孫子,千葉県我孫子市我孫子４－１１－１　玩具売場,開催なし,140.00955200195312,35.87518310546875
578,イトーヨーカドーセブンパークアリオ柏,千葉県柏市大島田９５０－１　玩具売場,開催なし,140.01280212402344,35.83577346801758
579,イトーヨーカドーアリオ市原,千葉県市原市更級４－３－２　玩具売場,開催なし,140.1024932861328,35.50847625732422
580,イトーヨーカドー船橋,千葉県船橋市本町７－６－１　玩具売場,開催なし,139.9850616455078,35.703556060791016
581,イトーヨーカドー流山,千葉県流山市流山９－８００－２　玩具売場,開催なし,139.89944458007812,35.84909439086914
582,イトーヨーカドー幕張,千葉県千葉市花見川区幕張町４－４１７－２５　玩具売場,開催なし,140.05116271972656,35.656410217285156
583,イトーヨーカドー松戸,千葉県松戸市松戸１１４９　玩具売場,開催なし,139.90249633789062,35.782894134521484
584,イトーヨーカドー姉崎,千葉県市原市姉崎６４５－１　玩具売場,開催なし,140.0499267578125,35.47926712036133
585,イトーヨーカドー津田沼,千葉県習志野市津田沼１－１０－３０　玩具売場,開催なし,140.02346801757812,35.68976593017578
586,家電住まいる館ＹＡＭＡＤＡ松戸本店,千葉県松戸市松戸２２８９－３　,開催なし,139.9091033935547,35.779598236083984
587,西友常盤平,千葉県松戸市常盤平３－１１－１　,開催なし,139.95140075683594,35.80199432373047
588,トイザらス成田,千葉県成田市飯仲９－４　,開催なし,140.3009796142578,35.75482940673828
589,トイザらス松戸,千葉県松戸市二ツ木１７８１－２　プチモール二ツ木２Ｆ　,開催なし,139.92578125,35.81725311279297
590,イオンリテールストア新浦安,千葉県京葉地域浦安市入船１－４－１　,開催なし,140.1231231689453,35.604278564453125
591,いちかわコルトンプラザ,千葉県市川市鬼高１－１－１　ダイエーいちかわコルトンプラザ玩具売場,開催なし,139.9326629638672,35.715030670166016
592,アピタ君津,千葉県君津市久保一丁目１番１号　玩具売場,開催なし,139.89781188964844,35.332149505615234
593,アピタ木更津,千葉県木更津市ほたる野四丁目２番４８　玩具売場,開催なし,139.96263122558594,35.375457763671875
594,ヨドバシカメラマルチメディア千葉,千葉県千葉市中央区富士見２－３－１　,開催なし,140.1166534423828,35.6116828918457
595,ビックカメラ柏,千葉県柏市柏１－１－２０スカイプラザ柏２Ｆ～７Ｆ　,開催なし,139.97230529785156,35.86225128173828
596,トイザらス野田,千葉県野田市中根新田字鹿島原57-1,開催なし,139.87527465820312,35.949031829833984
597,ゲームフィールド千城台店,千葉県千葉市若葉区千城台北3丁目21-1　イコアス千城台 3F,開催なし,140.18917846679688,35.62266540527344
598,宝島 幕張店,千葉県千葉市美浜区ひび野1-3　イオン幕張店２F,開催なし,140.04530334472656,35.65186309814453
599,ポケモンストア成田空港店,千葉県成田市成田国際空港内第２旅客ターミナルビル本館4階,開催なし,140.31922912597656,35.78626251220703
600,モーリーファンタジーソコラ南行徳,千葉県市川市南行徳2丁目20番25号　ソコラ南行徳店内,開催なし,139.9052276611328,35.668212890625
601,アミュージアムフルルガーデン八千代店,千葉県八千代市村上南1-3-1フルルガーデン八千代3F,開催なし,140.11767578125,35.72239303588867
602,アドアーズ千葉北店,千葉県千葉市稲毛区山王町310-1　ROUTE66PARK内,開催なし,140.13868713378906,35.660240173339844
603,タイトーステーション セブンパークアリオ柏店,千葉県柏市大島田1-6-1　セブンパークアリオ柏３F,開催なし,140.0129852294922,35.83298873901367
604,ゲームＵＮＯ本八幡店,千葉県市川市八幡2-16-6　八幡旗ビル B1F,開催なし,139.9268341064453,35.72150802612305
605,ハローズガーデン市原店,千葉県市原市青柳北1-1　MEGAﾄﾞﾝ・ｷﾎｰﾃ UNY市原店２F,開催なし,140.06617736816406,35.51435089111328
606,ｎａｍｃｏトンデミ幕張 イオンモール幕張新都心店,千葉県千葉市美浜区豊砂1-5　イオンモール幕張新都心 ファミリーモール3F,開催なし,140.02651977539062,35.656089782714844
607,ビックカメラ千葉駅前,千葉県千葉市中央区富士見2-1-1,開催なし,140.11553955078125,35.61174011230469
608,アドアーズサンシャイン店,東京都豊島区東池袋1-14-4ｼﾈﾏｻﾝｼｬｲﾝ 1~3階,開催なし,139.71490478515625,35.73001480102539
609,アドアーズ渋谷店,東京都渋谷区宇田川町13-11 KN渋谷1ﾋﾞﾙ1~3階,開催なし,139.6981201171875,35.66130065917969
610,アドアーズ新小岩店,東京都葛飾区新小岩1-44-4VORT新小岩 B1F～3F,開催なし,139.858154296875,35.71637725830078
611,アドアーズ中野店,東京都中野区中野5-52-15ﾌﾞﾛｰﾄﾞｳｪｲ 185,開催なし,139.66566467285156,35.709922790527344
612,アドアーズ町田店,東京都町田市原町田6-21-25大正堂第2ビル1～4F,開催なし,139.4480743408203,35.54269027709961
613,アドアーズ南砂町ＳＵＮＡＭＯ店,東京都江東区新砂3-4-31南砂町ｼｮｯﾋﾟﾝｸﾞｾﾝﾀｰSUNAMO 4階,開催なし,139.83448791503906,35.66548538208008
614,リヴィン光が丘キッズパーク店,東京都練馬区光が丘5-1-1リヴィン光が丘5階,開催なし,139.6283721923828,35.760009765625
615,西友新福生キッズパーク店,東京都福生市東町5-1西友福生5階,開催なし,139.32861328125,35.74304962158203
616,アミューズメントカフェプレビ稲城店,東京都稲城市矢野口2284-1アメリア稲城SC２F,開催なし,139.51495361328125,35.63568115234375
617,ユーズランド日の出店,東京都西多摩郡日の出町大字平井237-3イオンモール日の出3F,開催なし,139.27268981933594,35.734405517578125
618,キッズトレイン永山店,東京都多摩市永山1-4ｸﾞﾘﾅｰﾄﾞ永山3F,開催なし,139.44825744628906,35.629024505615234
619,アミュージアムOSC店,東京都練馬区東大泉2-34-1オズ・スタジオ・シティ2F,開催なし,139.59579467773438,35.753334045410156
620,アミュージアムモリタウン昭島店,東京都昭島市田中町562-1モリタウン東館2F,開催なし,139.364501953125,35.71370315551758
621,アミュージアム大泉店,東京都練馬区東大泉2-10-11LIVINオズ大泉5F,開催なし,139.59494018554688,35.752750396728516
622,アミュージアム豊洲店,東京都江東区豊洲2-4-9アーバンドックららぽーと豊洲3F,開催なし,139.7929229736328,35.65629959106445
623,ゲームグース武蔵小山店,東京都品川区小山3-22-19,開催なし,139.70518493652344,35.61894989013672
624,NICOPA＆nicogroundイーアス高尾店,東京都八王子市東浅川町550-1ｲｰｱｽ高尾2階,開催なし,139.28915405273438,35.64306640625
625,NICOPA仙川店,東京都調布市若葉町2-2島忠ﾎｰﾑｽﾞ仙川店2F,開催なし,139.58653259277344,35.658058166503906
626,プラサカプコン吉祥寺店,東京都武蔵野市吉祥寺本町1-10-1いなりやビルB1F,開催なし,139.5791015625,35.705108642578125
627,プラサカプコン池袋店,東京都豊島区東池袋一丁目30番3キュープラザ池袋3階　,開催なし,139.71620178222656,35.73076248168945
628,ゲオ鹿浜店,東京都足立区谷在家2-11-2,開催なし,139.7663116455078,35.78324508666992
629,ウェアハウス 入谷店,東京都足立区入谷7-8-11,開催なし,139.76072692871094,35.80150604248047
630,Amusement＆Game　MAGHREB,東京都多摩市落合1-41-1 マグレブウェスト1階・2階,開催なし,139.4234619140625,35.62392044067383
631,ゲームサファリ大山店,東京都板橋区大山東町60-10 2Ｆ,開催なし,139.7023162841797,35.7491569519043
632,GiGO自由が丘,東京都目黒区自由ヶ丘2-10-9,開催なし,139.66766357421875,35.60809326171875
633,GiGO 新宿西口,東京都新宿区西新宿1-12-5,開催なし,139.69735717773438,35.68941879272461
634,GiGO 立川,東京都立川市柴崎町3-2-1 サザンビル1F,開催なし,139.4141845703125,35.697296142578125
635,セガワールド葛西,東京都江戸川区東葛西9-3-3 イトーヨーカドー3F,開催なし,139.88397216796875,35.6556396484375
636,GiGO赤羽駅前,東京都北区赤羽1-2-4,開催なし,139.72146606445312,35.778221130371094
637,GiGO大森,東京都大田区山王2-1-5 大森駅ララビル2Ｆ,開催なし,139.72813415527344,35.590152740478516
638,GiGO府中,東京都府中市西原町1-6-2 フレスポ府中2F,開催なし,139.4602508544922,35.68246841430664
639,GiGO福生,東京都福生市大字福生1076-1,開催なし,139.32147216796875,35.7410774230957
640,GiGO秋葉原1号館,東京都千代田区外神田 1-10-9,開催なし,139.77088928222656,35.69840621948242
641,GiGO秋葉原3号館,東京都千代田区外神田1-11-11 外神田１丁目ビルディング,開催なし,139.77088928222656,35.69919204711914
642,GiGO神楽坂,東京都新宿区神楽坂2-11 第2カグラヒルズ1F,開催なし,139.74180603027344,35.70060729980469
643,GiGO船堀,東京都江戸川区船堀1-6-11,開催なし,139.8640899658203,35.68479919433594
644,GiGO竹の塚,東京都足立区竹の塚6丁目8番6号　ピーくんPlaza-B,開催なし,139.79226684570312,35.79473114013672
645,GiGO東京ドームシティ,東京都文京区後楽1－3－61,開催なし,139.7521514892578,35.70315170288086
646,GiGO南町田グランベリーパークキッズディスカバリー,東京都町田市鶴間三丁目4-1キッズディスカバリー2階E201区画,開催なし,139.47080993652344,35.51005172729492
647,GiGO渋谷宮益坂,東京都渋谷区渋谷1-14-14 EST 1F,開催なし,139.70277404785156,35.660011291503906
648,ソユーザウルスワールド 大森店,東京都大田区大森北二丁目13-1 イトーヨーカドー大森店3Ｆ,開催なし,139.7325439453125,35.587242126464844
649,ソユープレイランドソピア 南大沢店,東京都八王子市南大沢二丁目28-1　イトーヨーカドー南大沢店3F,開催なし,139.37937927246094,35.61317443847656
650,ソユープレイランドソピア 八王子店,東京都八王子市狭間町1462-1　イトーヨーカドー八王子店3F,開催なし,139.29296875,35.6375846862793
651,ドラマ瑞穂店,東京都西多摩郡瑞穂町武蔵382-1,開催なし,139.3562774658203,35.763179779052734
652,ドラマ八王子高倉店,東京都八王子市高倉町55-4,開催なし,139.36642456054688,35.66510772705078
653,アドベンチャーリーフ国領店,東京都調布市国領町8-2-64イトーヨーカドー国領店3階,開催なし,139.5650177001953,35.648189544677734
654,ｎａｍｃｏイオン練馬店,東京都練馬区光が丘５－１－１　イオン練馬店３Ｆ,開催なし,139.6283721923828,35.760009765625
655,ｎａｍｃｏイトーヨーカドー木場店,東京都江東区木場１－５－３０　イトーヨーカドー木場店２・３Ｆ,開催なし,139.8049774169922,35.666194915771484
656,ｎａｍｃｏららぽーと立川立飛１号店,東京都立川市泉町９３５番１　ららぽーと立川立飛店３Ｆ,開催なし,139.4114990234375,35.71405792236328
657,ｎａｍｃｏ王子サンスクエア店,東京都北区王子１－４－１　サンスクエア２階,開催なし,139.73919677734375,35.75252151489258
658,ｎａｍｃｏ中野店,東京都中野区中野５－５２－１５　中野ブロードウェイ別館,開催なし,139.66566467285156,35.709922790527344
659,ｎａｍｃｏ東急プラザ蒲田店,東京都大田区西蒲田７丁目６９番１号　東急プラザ蒲田７階,開催なし,139.71475219726562,35.561737060546875
660,ザ・ビッグ昭島アミューズパーク,東京都昭島市宮沢町５００－１　ザ・ビッグ昭島店３階,開催なし,139.3739013671875,35.7164192199707
661,シルクハット八王子,東京都八王子市旭町２－５八王子ツインタワービル 3F,開催なし,139.33848571777344,35.65658187866211
662,ラウンドワンスタジアム ダイバーシティ東京プラザ,東京都江東区青海(あおみ)1丁目1番10号ﾀﾞｲﾊﾞｰｼﾃｨ東京ﾌﾟﾗｻﾞ6階,開催なし,139.7787322998047,35.625057220458984
663,タイトーＦステーションオリナス錦糸町店,東京都墨田区太平4-1-2オリナスモール地下1F,開催なし,139.8148956298828,35.7001953125
664,アピナ荻窪店,東京都杉並区上荻 1-13-10,開催なし,139.61712646484375,35.70602035522461
665,アピナ八王子みなみ野店,東京都八王子市みなみ野1-2-1　アクロスモール内3F,開催なし,139.3297119140625,35.630149841308594
666,キッズスクエア東大島,東京都江東区大島7-38-30,開催なし,139.84283447265625,35.69062805175781
667,東京レジャーランドお台場店,東京都港区台場1丁目7番1号　アクアシティお台場4階409区,開催なし,139.77359008789062,35.627803802490234
668,東京レジャーランド亀有店,東京都葛飾区亀有3-21-2　,開催なし,139.84793090820312,35.76542663574219
669,東京レジャーランド秋葉原店,東京都千代田区外神田1丁目9-5　,開催なし,139.77008056640625,35.699031829833984
670,宝島瑞江店,東京都江戸川区瑞江2-1-2ドン・キホーテ　ラパーク瑞江店4階,開催なし,139.89683532714844,35.69279861450195
671,キャッツアイ西葛西店,東京都江戸川区西葛西4-2-28サニーモール西葛西店3階,開催なし,139.86131286621094,35.66813659667969
672,タイトーステーション 国分寺店,東京都国分寺市本町三丁目5番11号,開催なし,139.48013305664062,35.701900482177734
673,タイトーステーション 多摩センター店,東京都多摩市落合1-45-1丘の上パティオ内,開催なし,139.4262237548828,35.6231689453125
674,タイトーステーション 新宿東口店,東京都新宿区新宿3-22-7指田ビル,開催なし,139.70130920410156,35.69326400756836
675,タイトーステーション 新宿南口ゲームワールド店,東京都新宿区新宿3-35-8,開催なし,139.7021942138672,35.68988800048828
676,タイトーステーション 立川北口店　　　　　　,東京都立川市曙町2-4-5　クリサス立川　　　　　　　　　　　　　　,開催なし,139.412353515625,35.69865036010742
677,タイトーステーション 池袋西口店,東京都豊島区西池袋1-15-9,開催なし,139.70950317382812,35.730281829833984
678,タイトーステーション BIGBOX高田馬場店,東京都新宿区高田馬場1-35-3BIG BOX6F,開催なし,139.70387268066406,35.712493896484375
679,タイトーステーション 浅草店,東京都台東区浅草1-27-5ROX DOME 1F,開催なし,139.7937469482422,35.71269989013672
680,タイトーステーション 渋谷店,東京都渋谷区渋谷1-24-12渋谷東映プラザ,開催なし,139.70199584960938,35.6606559753418
681,タイトーステーション BIGFUN平和島店,東京都大田区平和島 1-1-1BIGFUN平和島3F,開催なし,139.7404022216797,35.585811614990234
682,タイトーステーション 町田店,東京都町田市原町田6-21-23松山ビル1階,開催なし,139.4483184814453,35.54249954223633
683,サンポップマチヤ,東京都荒川区荒川7-50-9　　　　　　　　　　,開催なし,139.78086853027344,35.74272155761719
684,タイトーFステーション ダイエー武蔵村山店,東京都武蔵村山市伊奈平3-36-1　ダイエー武蔵村山店2階　　　　　　　　　,開催なし,139.37892150878906,35.735877990722656
685,タイトーステーション府中くるる店,東京都府中市宮町1丁目50番地??府中くるるB1F,開催なし,139.48072814941406,35.67155456542969
686,モーリーファンタジー板橋,東京都板橋区徳丸２丁目６番地１イオン３階　,開催なし,139.66102600097656,35.7706413269043
687,モーリーファンタジー小平,東京都小平市小川東町２－１２－１ダイエー２階　,開催なし,139.46755981445312,35.74334716796875
688,モーリーファンタジーむさし村山,東京都武蔵村山市榎１丁目１番３号イオン３階　,開催なし,139.38516235351562,35.746551513671875
689,モーリーファンタジー日の出,東京都西多摩郡日の出町大字平井字三吉野桜木２３７番３イオン３階　,開催なし,139.26710510253906,35.74571228027344
690,"モーリーファンタジー東久留米★メザスタシティ★
",東京都東久留米市南沢５丁目１７－６２イオンモール３階　,開催なし,139.52806091308594,35.74616241455078
691,モーリーファンタジー多摩平の森,東京都日野市多摩平２丁目４番１イオンモール３階　,開催なし,139.38092041015625,35.662437438964844
692,モーリーファンタジークルネ,東京都東久留米市野火止１丁目３－３クルネ１Ｆ　,開催なし,139.51194763183594,35.75897979736328
693,ＰＡＬＯ聖蹟桜ヶ丘,東京都多摩市関戸４－７２聖蹟桜ヶ丘オーパ店６階　,開催なし,139.44705200195312,35.64963150024414
694,モーリーファンタジー南砂,東京都江東区南砂６－７－１５イオン３階　,開催なし,139.83595275878906,35.672672271728516
695,モーリーファンタジー品川シーサイド,東京都品川区東品川４丁目１２－５イオン２階　,開催なし,139.74832153320312,35.61134719848633
696,ＮＯＳＩＣＡ葛西,東京都江戸川区西葛西３－９－１９イオン３階　,開催なし,139.85842895507812,35.66986846923828
697,京王百貨聖蹟桜ヶ丘,東京都多摩市関戸１－１０－１　７階玩具売場,開催なし,139.447021484375,35.651527404785156
698,京王百貨新宿,東京都新宿区西新宿１－１－４　７階おもちゃプラザ,開催なし,139.69943237304688,35.68857955932617
699,イオンモールむさし村山ノジマ,東京都武蔵村山市榎１－１－３　イオンモールむさし村山３階,開催なし,139.38516235351562,35.746551513671875
700,ポケモンセンターメガトウキョー,東京都豊島区東池袋３－１－２　サンシャインシティ専門店街アルパ２階,開催なし,139.72012329101562,35.72777557373047
701,ポケモンセンタースカイツリータウン,東京都墨田区押上１－１－２　東京スカイツリータウン・ソラマチイーストヤード４F,開催なし,139.80860900878906,35.7100830078125
702,ポケモンセンタートウキョーDX,東京都中央区日本橋二丁目１１番２号　日本橋髙島屋Ｓ.Ｃ.東館５F,開催なし,139.7746124267578,35.68067932128906
703,イトーヨーカドーアリオ亀有,東京都葛飾区亀有３－４９－３　玩具売場,開催なし,139.8525390625,35.76434326171875
704,イトーヨーカドーアリオ西新井,東京都足立区西新井栄町１－２０－１　玩具売場,開催なし,139.78578186035156,35.774688720703125
705,イトーヨーカドーアリオ北砂,東京都江東区北砂２－１７　玩具売場,開催なし,139.8255615234375,35.68244934082031
706,イトーヨーカドー木場,東京都江東区木場１－５－３０　玩具売場,開催なし,139.8049774169922,35.666194915771484
707,イトーヨーカドー小岩,東京都江戸川区西小岩１－２４－１　玩具売場,開催なし,139.88121032714844,35.7334098815918
708,イトーヨーカドー四つ木,東京都葛飾区四つ木２－２１－１　玩具売場,開催なし,139.83872985839844,35.73731231689453
709,イトーヨーカドー曳舟,東京都墨田区京島１－２－１　玩具売場,開催なし,139.8171844482422,35.71732711791992
710,イトーヨーカドーアリオ葛西,東京都江戸川区東葛西９－３－３　玩具売場,開催なし,139.88397216796875,35.6556396484375
711,イトーヨーカドー高砂,東京都葛飾区高砂３－１２－５　玩具売場,開催なし,139.8679656982422,35.75076675415039
712,テックランド錦糸町,東京都墨田区太平４－１－５－２Ｆ　,開催なし,139.8148651123047,35.700599670410156
713,ドン・キホーテラパーク瑞江,東京都江戸川区瑞江２－１－２　玩具売場,開催なし,139.89683532714844,35.69279861450195
714,トイザらスお台場,東京都港区台場１－７－１　　アクアシティお台場１Ｆ,開催なし,139.77359008789062,35.627803802490234
715,博品館ＴＯＹＰＡＲＫ銀座本店,東京都　　　　　　中央区銀座８－８－１１　４階玩具売場,開催なし,139.6917724609375,35.68962860107422
716,イトーヨーカドー国領,東京都調布市国領町８－２－６４　玩具売場,開催なし,139.5650177001953,35.648189544677734
717,イトーヨーカドー武蔵境,東京都武蔵野市境南町２－２－２０　玩具売場,開催なし,139.54534912109375,35.70103454589844
718,イトーヨーカドー大井町,東京都品川区大井１－３－６　玩具売場,開催なし,139.73431396484375,35.60737228393555
719,イトーヨーカドー武蔵小金井,東京都小金井市本町６－１４－９　玩具売場,開催なし,139.5054473876953,35.7000846862793
720,イトーヨーカドー大森,東京都大田区大森北２－１３－１　玩具売場,開催なし,139.7325439453125,35.587242126464844
721,イトーヨーカドー八王子,東京都八王子市狭間町１４６２－１　玩具売場,開催なし,139.29296875,35.6375846862793
722,イトーヨーカドー南大沢,東京都八王子市南大沢２－２８－１　玩具売場,開催なし,139.37937927246094,35.61317443847656
723,イトーヨーカドー多摩センター,東京都多摩市落合１－４４　玩具売場,開催なし,139.42593383789062,35.62376403808594
724,ＬＡＢＩ品川大井町住まいる家電館,東京都品川区東大井５－２０－１　,開催なし,139.73512268066406,35.605926513671875
725,テックランドＮｅｗ八王子別所,東京都八王子市別所２－５６　,開催なし,139.3966064453125,35.6119499206543
726,テックランド稲城若葉台,東京都稲城市若葉台２－８　,開催なし,139.47174072265625,35.623802185058594
727,テックランド府中,東京都府中市西原町１－３－１　,開催なし,139.45982360839844,35.6808967590332
728,キデイランド原宿,東京都渋谷区神宮前６－１－９　,開催なし,139.7064971923828,35.66765213012695
729,キデイランド吉祥寺,東京都武蔵野市吉祥寺本町1-11-5 　コピス吉祥寺 6階/A館,開催なし,139.57933044433594,35.705013275146484
730,西友三軒茶屋,東京都世田谷区太子堂４－２４－８　,開催なし,139.66981506347656,35.64467239379883
731,ライフ経堂,東京都世田谷区経堂５－３２－６　,開催なし,139.63279724121094,35.64796829223633
732,キデイランド二子玉川,東京都世田谷区玉川２－２１－１二子玉川ライズ・ショッピングセンタータウンフロント６F　玩具売場,開催なし,139.62852478027344,35.611366271972656
733,イトーヨーカドー東大和,東京都東大和市桜が丘２－１４２－１　玩具売場,開催なし,139.42262268066406,35.7358512878418
734,イトーヨーカドー赤羽,東京都北区赤羽西１－７－１　玩具売場,開催なし,139.71994018554688,35.77681350708008
735,イトーヨーカドー東久留米,東京都東久留米市本町３－８－１　玩具売場,開催なし,139.52870178222656,35.76005935668945
736,イトーヨーカドー東村山,東京都東村山市本町２－２－１９　玩具売場,開催なし,139.46661376953125,35.758914947509766
737,イトーヨーカドー拝島,東京都昭島市松原町３－２－１２　玩具売場,開催なし,139.34779357910156,35.71482467651367
738,イトーヨーカドー上板橋,東京都板橋区常盤台４－２６－１　玩具売場,開催なし,139.67823791503906,35.76369094848633
739,イトーヨーカドー昭島,東京都昭島市田中町５６２－１　玩具売場,開催なし,139.364501953125,35.71370315551758
740,ヤマダデンキ LABI1 LIFE SELECT 池袋,東京都豊島区東池袋１－５－７　,開催なし,139.7133026123047,35.73106002807617
741,ＪＯＹＦＵＬ－２瑞穂,東京都西多摩郡瑞穂町殿ケ谷４４２　,開催なし,139.35772705078125,35.76055145263672
742,西友ＬＩＶＩＮ光が丘,東京都練馬区光が丘５－１－１　,開催なし,139.6283721923828,35.760009765625
743,西友練馬Ｐａｒｔ２,東京都練馬区練馬１－３－１０　,開催なし,139.65518188476562,35.73792266845703
744,西友阿佐ヶ谷,東京都杉並区阿佐谷北１－５－６　,開催なし,139.63668823242188,35.705474853515625
745,ライフ千川,東京都豊島区要町３－４５－４　,開催なし,139.68829345703125,35.7393684387207
746,ライフ平和台,東京都練馬区北町６－１０－１　,開催なし,139.6533660888672,35.75873565673828
747,イオンスタイル板橋前野町,東京都板橋区前野町４－２１－２２　,開催なし,139.6921844482422,35.770965576171875
748,ヨドバシカメラマルチメディアAkiba,東京都千代田区神田花岡町１－１　,開催なし,139.7746124267578,35.698638916015625
749,ヨドバシカメラマルチメディア上野,東京都台東区上野４丁目１０－１０　,開催なし,139.77450561523438,35.711360931396484
750,ヨドバシカメラマルチメディア錦糸町,東京都墨田区江東橋３丁目１４－５　　テルミナ　,開催なし,139.8144989013672,35.69624710083008
751,ヨドバシカメラマルチメディア吉祥寺,東京都武蔵野市吉祥寺本町１－１９－１　,開催なし,139.5811767578125,35.70460510253906
752,ヨドバシカメラ新宿西口本店,東京都新宿区西新宿１－１１－１　,開催なし,139.69801330566406,35.68996810913086
753,ヨドバシカメラマルチメディア新宿東口,東京都新宿区新宿３－２６－７　,開催なし,139.70169067382812,35.69172668457031
754,ヨドバシカメラマルチメディア町田,東京都町田市原町田１－１－１１　,開催なし,139.4449005126953,35.54220962524414
755,ビックカメラ有楽町,東京都千代田区有楽町１丁目１１－１　,開催なし,139.76287841796875,35.67538833618164
756,ビックカメラ池袋本店,東京都豊島区東池袋１－４１－５　,開催なし,139.71356201171875,35.73196792602539
757,ビックカメラ新宿西口,東京都新宿区西新宿１－５－１新宿西口ハルク　,開催なし,139.69911193847656,35.69260025024414
758,ビックカメラビックロ新宿東口,東京都新宿区新宿３－２９－１　,開催なし,139.70327758789062,35.6911506652832
759,ビックカメラ立川,東京都立川市曙町２－１２－２　,開催なし,139.41433715820312,35.69932174682617
760,ビックカメラＪＲ八王子,東京都八王子市旭町１－１７　セレオ八王子南館,開催なし,139.33621215820312,35.65579605102539
761,ビックカメラ赤坂見附,東京都港区赤坂３－１－６　,開催なし,139.73681640625,35.67710494995117
762,ヨドバシカメラ 八王子,東京都八王子市東町７－４,開催なし,139.3395233154297,35.6579475402832
763,タイトーステーション上野アメ横店,東京都台東区上野4-10-17,開催なし,139.77447509765625,35.71052169799805
764,プラサカプコン ミッテン府中店,東京都府中市宮町1-41-2　ミッテン府中７F 7-3区画,開催なし,139.479736328125,35.6707763671875
765,GiGOイオンモールむさし村山,東京都武蔵村山市榎1-1-3　イオンモールむさし村山2F,開催なし,139.38516235351562,35.746551513671875
766,ＬＡＢＩ渋谷,東京都渋谷区道玄坂2-29-20,開催なし,139.69818115234375,35.65996170043945
767,東京レジャーランド池袋店,東京都豊島区東池袋1-29-1　サントロペ池袋2F・3F,開催なし,139.71646118164062,35.73046875
768,GiGO高田馬場,東京都新宿区高田馬場4-7-5,開催なし,139.70376586914062,35.71372604370117
769,NICOPA＆nicogroundコピス吉祥寺店,東京都武蔵野市吉祥寺本町1-11-5　コピス吉祥寺５F,開催なし,139.57933044433594,35.705013275146484
770,ビックカメラ京王調布,東京都調布市小島町2-48-6　トリエ京王調布B館3F,開催なし,139.5427703857422,35.65180969238281
771,東京レジャーランド吉祥寺店,東京都武蔵野市吉祥寺本町1-3-7　YSビル　地下1F～4F,開催なし,139.5787353515625,35.703575134277344
772,モーリーファンタジー東雲,東京都江東区東雲1-9-10　イオン東雲店2F,開催なし,139.80215454101562,35.645931243896484
773,ヤマダデンキLABI  LIFE  SELECT 立川,東京都立川市曙橋2-2-25,開催なし,139.40902709960938,35.699440002441406
774,ｎａｍｃｏららぽーと立川立飛２号店,東京都立川市泉町９３５-１　ららぽーと立川立飛店３Ｆ3010区画,開催なし,139.4114990234375,35.71405792236328
775,シルクハット蒲田西口店,東京都大田区西蒲田7-2-3　第2醍醐ビルＢ1Ｆ～2Ｆ,開催なし,139.7160186767578,35.56307601928711
776,ヤマダデンキ　LABI 新宿西口,東京都新宿区西新宿1丁目-18-8,開催なし,139.69801330566406,35.68843460083008
777,アドアーズ橋本店,神奈川県相模原市緑区橋本3-3-1SING橋本 2階,開催なし,139.34930419921875,35.59406280517578
778,イトーヨーカドー能見台　キッズ・パーク店,神奈川県横浜市金沢区能見台東3-1イトーヨーカドー能見台3階,開催なし,139.62716674804688,35.35840606689453
779,リヴィンよこすかキッズ・パーク店,神奈川県横須賀市平成町3-21-4西友リヴィンよこすか2階,開催なし,139.6828155517578,35.27595138549805
780,こころっこアリオ橋本店,神奈川県相模原市緑区大山町1-22　アリオ橋本店2階(235区画)　エブリディFUNハウス,開催なし,139.34861755371094,35.59272766113281
781,ピカキッズ湘南台店,神奈川県藤沢市石川6-2-1ｲﾄｰﾖｰｶﾄﾞｰ湘南台3F,開催なし,139.44773864746094,35.39250946044922
782,キッズトレイン相模原,神奈川県相模原市南区松ヶ枝町17-1,開催なし,139.42543029785156,35.51586151123047
783,なっつべりぃ,神奈川県川崎市川崎区港町12－1 ｲﾄｰﾖｰｶﾄﾞｰ川崎港町店,開催なし,139.71849060058594,35.53385925292969
784,NICOPA横浜四季の森フォレオ店,神奈川県横浜市旭区上白根3丁目41番1号,開催なし,139.5411376953125,35.49858474731445
785,NICOPA相模原店,神奈川県相模原市南区大野台6-1-1ﾆﾄﾘﾓｰﾙ相模原3F,開催なし,139.40965270996094,35.55579376220703
786,プラサカプコン磯子店,神奈川県横浜市磯子区磯子1-1-1マリコム磯子ショッピングセンター2F,開催なし,139.62660217285156,35.414276123046875
787,プラサカプコン横須賀店,神奈川県横須賀市若松町2-30モアーズシティ4F,開催なし,139.66986083984375,35.27821350097656
788,小田原メトロポリス,神奈川県小田原市前川219-4,開催なし,139.1941375732422,35.27873611450195
789,サープラ横浜あそびタウン,神奈川県横浜市都筑区中川中央1丁目25番1号 ノースポート・モール6F,開催なし,139.5794677734375,35.55318069458008
790,アミューズメントパーク ジアス上大岡,神奈川県横浜市港南区上大岡西2丁目1-28 2F,開催なし,139.59605407714844,35.4069938659668
791,GiGO綱島,神奈川県横浜市港北区綱島西2-6-29 城田ビル3F,開催なし,139.6330108642578,35.53648376464844
792,GiGO新杉田,神奈川県横浜市磯子区杉田1-1-1 らびすた新杉田2F,開催なし,139.61917114257812,35.38572692871094
793,GiGOイトーヨーカドー古淵,神奈川県相模原市南区古淵3-13-33 イトーヨーカドー3F,開催なし,139.417724609375,35.55231857299805
794,GiGO海老名,神奈川県海老名市中央1-4-31 海老名プラザビル1F,開催なし,139.3923797607422,35.4514045715332
795,GiGOダイナシティ小田原,神奈川県小田原市中里296-1 ダイナシティイーストモール イトーヨーカ堂3F,開催なし,139.1885528564453,35.28172302246094
796,GiGO本厚木,神奈川県厚木市中町4-15-9,開催なし,139.36178588867188,35.43912887573242
797,ソユーゲームフィールド 湘南店,神奈川県藤沢市辻堂新町四丁目1番1号　湘南モールFILL2F,開催なし,139.46311950683594,35.337921142578125
798,プレイランド 川崎店,神奈川県川崎市川崎区小田栄二丁目2-1　イトーヨーカドー川崎店3F,開催なし,139.7078857421875,35.515193939208984
799,プレイランド 大和鶴間店,神奈川県大和市下鶴間一丁目3-1　イトーヨーカドー大和鶴間店3F,開催なし,139.45724487304688,35.49052429199219
800,ドラマ藤沢店,神奈川県藤沢市本藤沢5-6-8,開催なし,139.46775817871094,35.35786819458008
801,ハローズガーデン綾瀬店,神奈川県綾瀬市深谷3734-1綾瀬タウンヒルズＳＣ　２Ｆ,開催なし,139.4338836669922,35.45136260986328
802,ハローズガーデン厚木店　,神奈川県厚木市中町1-5-10厚木ガーデンシティビル5F ,開催なし,139.36660766601562,35.442161560058594
803,ハローズガーデン湘南店,神奈川県藤沢市遠藤698-10湘南とうきゅう 2F,開催なし,139.44155883789062,35.37173080444336
804,株式会社ハローズスーパーアルプス愛川店　,神奈川県愛甲郡愛川町角田580スーパーアルプス愛川店 ,開催なし,139.32933044433594,35.532649993896484
805,ｎａｍｃｏＯＳＣ湘南シティ店,神奈川県平塚市代官町３３番地１　ＯＳＣ湘南シティ内,開催なし,139.35824584960938,35.328495025634766
806,ｎａｍｃｏイオンモール座間店,神奈川県座間市広野台２丁目１０－４　イオンモール座間店３Ｆ,開催なし,139.4226837158203,35.498260498046875
807,ｎａｍｃｏコースカベイサイドストアーズ（横須賀）,神奈川県横須賀市本町２－１－１２　コースカベイサイドストアーズ５Ｆ,開催なし,139.66555786132812,35.28213119506836
808,ｎａｍｃｏトレッサ横浜店,神奈川県横浜市港北区師岡町７００番地　トレッサ横浜３Ｆ,開催なし,139.6454620361328,35.52419662475586
809,ｎａｍｃｏラゾーナ川崎店,神奈川県川崎市幸区堀川町７２－１　ＬＡＺＯＮＡ川崎プラザ４階,開催なし,139.69580078125,35.531394958496094
810,ｎａｍｃｏららぽーと横浜店,神奈川県横浜市都筑区池辺町４０３５－１－２階　23050,開催なし,139.56642150878906,35.51729965209961
811,ｎａｍｃｏ伊勢佐木町店,神奈川県横浜市中区伊勢佐木町３－９５,開催なし,139.6302947998047,35.44276428222656
812,ｎａｍｃｏ横浜ワールドポーターズ店,神奈川県横浜市中区新港二丁目２番１号　横浜ワールドポーターズ５Ｆ,開催なし,139.63885498046875,35.45398712158203
813,ｎａｍｃｏ港北ＴＯＫＹＵ　Ｓ．Ｃ．店,神奈川県横浜市都筑区茅ケ崎中央５－１港北ＴＯＫＹＵ　Ｓ．Ｃ．,開催なし,139.5725860595703,35.54420852661133
814,ｎａｍｃｏ都筑店,神奈川県横浜市都筑区川和町８４６－１,開催なし,139.55311584472656,35.519649505615234
815,あそびパークＰＬＵＳ／みなとみらい東急スクエア店,神奈川県横浜市西区みなとみらい２－３－２　みなとみらい東急スクエア４Ｆ,開催なし,139.63377380371094,35.456336975097656
816,イオン新百合ヶ丘ファミリーパーク,神奈川県川崎市麻生区上麻生１－１９　イオン新百合ヶ丘店４Ｆ,開催なし,139.50677490234375,35.6023063659668
817,シルクハット川崎ダイス,神奈川県川崎市川崎区駅前本町８番地ダイスビル　地下2階,開催なし,139.7001495361328,35.53135299682617
818,シルクハット川崎モアーズ,神奈川県川崎市川崎区駅前本町7番地岡田屋モアーズ内1・2階,開催なし,139.6998748779297,35.5306282043457
819,シルクハット大船,神奈川県鎌倉市大船1-24大船駅前ビル,開催なし,139.53323364257812,35.353206634521484
820,ラウンドワン　ららぽーと湘南平塚店,神奈川県平塚市天沼10-1ららぽｰと湘南平塚店3階,開催なし,139.35264587402344,35.336509704589844
821,楽市楽座湘南藤沢店,神奈川県藤沢市辻堂新町４丁目３番５号　ミスターマックス湘南藤沢ＳＣ　２階,開催なし,139.46507263183594,35.341548919677734
822,アピナ橋本店,神奈川県相模原市緑区西橋本5-1-1　ラ・フロール駐車場棟1階,開催なし,139.3375244140625,35.597232818603516
823,アピナ山下公園店,神奈川県横浜市中区新山下1-2-8港山下ナナイロビル2F,開催なし,139.65386962890625,35.44264602661133
824,タイトーFステーション川崎ルフロン店,神奈川県川崎市川崎区日進町1-11川崎ルフロン10階,開催なし,139.69509887695312,35.5280647277832
825,神奈川レジャーランド厚木店,神奈川県厚木市戸室5丁目31-1　,開催なし,139.3433380126953,35.448646545410156
826,タイトーステーション 溝の口店　　　　　,神奈川県川崎市高津区溝口1-11-8　　OKKA634ビル3階　　　　　　　　　,開催なし,139.61231994628906,35.59994888305664
827,タイトーステーション 横浜西口五番街店,神奈川県横浜市西区南幸1-12-9　7階,開催なし,139.6195831298828,35.46476745605469
828,タイトーステーション イトーヨーカドー横浜別所店,神奈川県横浜市南区別所1-14-1イトーヨーカドー横浜別所店 2F,開催なし,139.59471130371094,35.41596221923828
829,タイトーステーション 藤沢店,神奈川県藤沢市南藤沢21-10,開催なし,139.4875946044922,35.337013244628906
830,タイトーステーション 海老名ビナウォーク店,神奈川県海老名市中央1ー18-1ビナウォーク六番館 2F,開催なし,139.3951416015625,35.45310974121094
831,タイトーステーション 小田原シティーモール店,神奈川県小田原市前川120フレスポ小田原シティーモール2F,開催なし,139.19369506835938,35.281898498535156
832,プレイランド　ダイエー海老名店,神奈川県海老名市中央3-2-5ダイエー海老名店 3F,開催なし,139.39111328125,35.450538635253906
833,タイトーFステーション イオン伊勢原店,神奈川県伊勢原市白根630-1イオン伊勢原店3F,開催なし,139.29550170898438,35.397438049316406
834,モーリーファンタジー横浜新吉田,神奈川県横浜市港北区新吉田東八丁目４９番１号イオン２階　,開催なし,139.6129608154297,35.53255081176758
835,モーリーファンタジーイオン相模原,神奈川県相模原市南区古淵２－１０－１イオンＳＣ３階　,開催なし,139.4178466796875,35.5546760559082
836,モーリーファンタジー港北,神奈川県横浜市都筑区中川中央１－３１－１－５０８３モザイクモール５階　,開催なし,139.5779571533203,35.555015563964844
837,モーリーファンタジー相模原小山,神奈川県相模原市中央区小山３－３７－１相模原小山モール２階　,開催なし,139.357421875,35.5832405090332
838,モーリーファンタジー川崎小田栄,神奈川県川崎市川崎区小田栄２－３－１コーナン川崎小田栄２階　,開催なし,139.71009826660156,35.5139274597168
839,"モーリーファンタジー秦野★メザスタシティ★
",神奈川県秦野市入船町１２－１イオン２階　,開催なし,139.2281494140625,35.37782669067383
840,モーリーファンタジー茅ヶ崎中央,神奈川県茅ヶ崎市茅ケ崎３丁目５番１６号イオン３階　,開催なし,139.40377807617188,35.335670471191406
841,モーリーファンタジー久里浜,神奈川県横須賀市久里浜５丁目１３－１イオン２階　,開催なし,139.7041015625,35.22907638549805
842,モーリーファンタジー湘南茅ヶ崎,神奈川県茅ヶ崎市茅ヶ崎２－７－７１イオンスタイル３階　,開催なし,139.4083251953125,35.33400344848633
843,モーリーファンタジー金沢八景,神奈川県横浜市金沢区泥亀１－２７－１イオン２階　,開催なし,139.62245178222656,35.3338508605957
844,モーリーファンタジー港南台,神奈川県横浜市港南区港南台３－１－２ダイエー４階　,開催なし,139.57730102539062,35.37504196166992
845,モーリーファンタジー大和鶴間,神奈川県大和市下鶴間一丁目２番１号イオン３階　,開催なし,139.45762634277344,35.48884201049805
846,モーリーファンタジー大和,神奈川県大和市都市計画事業渋谷（南部地区）土地区画整理事業地内７４街区イオン３階　,開催なし,139.45794677734375,35.48751449584961
847,モーリーファンタジー座間,神奈川県座間市広野台２－１０－４イオンモール座間店３階　,開催なし,139.4226837158203,35.498260498046875
848,モーリーファンタジー本牧,神奈川県横浜市中区本牧原７－１イオン５階　,開催なし,139.66653442382812,35.42531204223633
849,モーリーファンタジー東戸塚,神奈川県横浜市戸塚区品濃町５３５－１イオン４階　,開催なし,139.56138610839844,35.430328369140625
850,モーリーファンタジー三ツ境,神奈川県横浜市瀬谷区三ツ境７－１ダイエー２階　,開催なし,139.50401306152344,35.46608352661133
851,モーリーファンタジーサクラス戸塚,神奈川県横浜市戸塚区戸塚町４２５３－１サクラス戸塚２Ｆ　,開催なし,139.53106689453125,35.401123046875
852,そごう横浜,神奈川県横浜市西区高島２－１８－１　８階玩具売場,開催なし,139.62509155273438,35.46551513671875
853,ららぽーと海老名ノジマ,神奈川県海老名市扇町１３－１　ららぽーと海老名４階ノジマ内玩具コーナー,開催なし,139.38986206054688,35.45699691772461
854,ポケモンセンターヨコハマ,神奈川県横浜市西区高島２－１９－１２　マルイシティ横浜８F,開催なし,139.625,35.464603424072266
855,サガミ堂,神奈川県相模原市中央区陽光台３丁目６－７　玩具売場,開催なし,139.37574768066406,35.554866790771484
856,京急百貨店,神奈川県横浜市港南区上大岡西1－6－1　５Ｆ玩具売場,開催なし,139.596435546875,35.40828323364258
857,ハーティーあさひや,神奈川県小田原市栄町1-2-1　小田原駅前ビル地下1階,開催なし,139.15643310546875,35.2552490234375
858,ホビーステーション溝口,神奈川県川崎市高津区溝口１－４－１　マルイファミリー溝口店8F,開催なし,139.61256408691406,35.59902572631836
859,イトーヨーカドーららぽーと横浜,神奈川県横浜市都筑区池辺町４０３５－１　玩具売場,開催なし,139.56642150878906,35.51729965209961
860,イトーヨーカドーグランツリー武蔵小杉,神奈川県川崎市中原区新丸子東３－１１３５　玩具売場,開催なし,139.66015625,35.573768615722656
861,イトーヨーカドーたまプラーザ,神奈川県横浜市青葉区美しが丘１－６－１　玩具売場,開催なし,139.55694580078125,35.57803726196289
862,イトーヨーカドーアリオ橋本,神奈川県相模原市緑区大山町１－２２　玩具売場,開催なし,139.34861755371094,35.59272766113281
863,イトーヨーカドー立場,神奈川県横浜市泉区中田西１－１－１５　玩具売場,開催なし,139.49993896484375,35.414615631103516
864,イトーヨーカドー湘南台,神奈川県藤沢市石川６－２－１　玩具売場,開催なし,139.44773864746094,35.39250946044922
865,イトーヨーカドー新百合ヶ丘,神奈川県川崎市麻生区上麻生１－４－１　玩具売場,開催なし,139.5085906982422,35.603206634521484
866,イトーヨーカドー川崎港町,神奈川県川崎市川崎区港町１２－１　玩具売場,開催なし,139.71849060058594,35.53385925292969
867,イトーヨーカドー能見台,神奈川県横浜市金沢区能見台東３－１　玩具売場,開催なし,139.62716674804688,35.35840606689453
868,イトーヨーカドー大和鶴間,神奈川県大和市下鶴間１－３－１　玩具売場,開催なし,139.45724487304688,35.49052429199219
869,イトーヨーカドー伊勢原,神奈川県伊勢原市桜台１－８－１　玩具売場,開催なし,139.3150177001953,35.394962310791016
870,イトーヨーカドー上永谷,神奈川県横浜市港南区丸山台１－１２　玩具売場,開催なし,139.57192993164062,35.400882720947266
871,イトーヨーカドー横浜別所,神奈川県横浜市南区別所１－１４－１　玩具売場,開催なし,139.59471130371094,35.41596221923828
872,イトーヨーカドー川崎,神奈川県川崎市川崎区小田栄２－２－１　玩具売場,開催なし,139.7078857421875,35.515193939208984
873,イトーヨーカドー大船,神奈川県鎌倉市大船６－１－１　玩具売場,開催なし,139.5384979248047,35.354251861572266
874,イトーヨーカドー藤沢,神奈川県藤沢市鵠沼石上１－１０－１　玩具売場,開催なし,139.4891357421875,35.334983825683594
875,イトーヨーカドー洋光台,神奈川県横浜市磯子区洋光台３－１０－３　玩具売場,開催なし,139.59384155273438,35.38090515136719
876,イトーヨーカドー綱島,神奈川県横浜市港北区綱島西２－８－１　玩具売場,開催なし,139.6318359375,35.53544998168945
877,イトーヨーカドー古淵,神奈川県相模原市南区古淵３－１３－３３　玩具売場,開催なし,139.417724609375,35.55231857299805
878,イトーヨーカドー桂台,神奈川県横浜市栄区桂台中１５－１　玩具売場,開催なし,139.5663604736328,35.35319519042969
879,ミスターマックス湘南藤沢,神奈川県藤沢市辻堂新町４－３－５　,開催なし,139.46507263183594,35.341548919677734
880,ノースポートモール,神奈川県横浜市都筑区中川中央１－２５－１　　ノースポートモール３Ｆ,開催なし,139.5794677734375,35.55318069458008
881,ＬＡＢＩ上大岡,神奈川県横浜市港南区上大岡西１－１８－５　,開催なし,139.59439086914062,35.406837463378906
882,テックランド青葉,神奈川県横浜市青葉区もえぎ野２－３　,開催なし,139.52285766601562,35.543861389160156
883,テックランド向ヶ丘,神奈川県川崎市宮前区平２－３－１０　,開催なし,139.57069396972656,35.59968185424805
884,テックランド上平塚,神奈川県平塚市上平塚１－６１　,開催なし,139.32638549804688,35.331932067871094
885,西友ＬＩＶＩＮよこすか,神奈川県横須賀市平成町３－２１－４　,開催なし,139.6828155517578,35.27595138549805
886,トイザらス厚木,神奈川県厚木市妻田東３－２５－２４　,開催なし,139.35995483398438,35.46073913574219
887,トイザらス港北ニュータウン,神奈川県横浜市都筑区茅ケ崎中央１４－１２　　キーサウス２Ｆ,開催なし,139.57322692871094,35.543121337890625
888,トイザらス小田原,神奈川県小田原市前川１２０　　フレスポ小田原シティーモール南館２Ｆ,開催なし,139.19369506835938,35.281898498535156
889,アピタ金沢文庫,神奈川県横浜市横浜市金沢区釜利谷東二丁目１番１号　玩具売場,開催なし,139.63795471191406,35.444034576416016
890,アピタ戸塚,神奈川県横浜市横浜市戸塚区上倉田町７６９番１　玩具売場,開催なし,139.63795471191406,35.444034576416016
891,アピタ長津田,神奈川県横浜市横浜市緑区長津田みなみ台四丁目７の１　玩具売場,開催なし,139.63795471191406,35.444034576416016
892,イオン新百合ヶ丘,神奈川県川崎市内川崎市麻生区上麻生１－１９　玩具売場,開催なし,139.70301818847656,35.53080749511719
893,MEGAドン・キホーテUNY横浜大口,神奈川県横浜市神奈川区神之木町２－３０　玩具売場,開催なし,139.64791870117188,35.49369430541992
894,ビックカメライトーヨーカドーたまプラーザ,神奈川県横浜市青葉区美しが丘１－６－１　イトーヨーカド―３Ｆ,開催なし,139.55694580078125,35.57803726196289
895,ビックカメララゾーナ川崎,神奈川県川崎市幸区堀川町７２－１　,開催なし,139.69580078125,35.531394958496094
896,ビックカメラ新横浜,神奈川県横浜市北区新横浜２－１００－４５　キュービックプラザ新横浜,開催なし,139.63795471191406,35.444034576416016
897,ビックカメラ藤沢,神奈川県藤沢市藤沢５５９　,開催なし,139.48828125,35.339698791503906
898,ヨドバシカメラマルチメディア横浜,神奈川県横浜市西区北幸１－２－７　,開催なし,139.6201934814453,35.467498779296875
899,ヨドバシカメラマルチメディア京急上大岡,神奈川県横浜市港南区上大岡西１－６－１　,開催なし,139.596435546875,35.40828323364258
900,ヨドバシカメラマルチメディア川崎ルフロン,神奈川県川崎市川崎区日進町１－１１　,開催なし,139.69509887695312,35.5280647277832
901,ソユーゲームフィールド上大岡店,神奈川県横浜市港南区上大岡西1-18-3　ミオカリスト館6階,開催なし,139.59439086914062,35.406837463378906
902,タイトーＦステーション向ヶ丘遊園店,神奈川県川崎市多摩区登戸2781-1,開催なし,139.5670928955078,35.61464309692383
903,モーリーファンタジーサクラス戸塚,神奈川県横浜市戸塚区戸塚町4253-1　サクラス戸塚2階,開催なし,139.53106689453125,35.401123046875
904,スコナランド金沢シーサイド店,神奈川県横浜市金沢区並木2-13-1　イオン金沢シーサイド店 3F,開催なし,139.6392822265625,35.36190414428711
905,モーリーファンタジークロスガーデン川崎,神奈川県川崎市幸区小倉5丁目19番23号　クロスガーデン川崎店内,開催なし,139.66653442382812,35.5355110168457
906,ホームズ川崎店,神奈川県川崎市川崎区中瀬3-20　ホームズ川崎店内２F プレビプレイランド,開催なし,139.7333526611328,35.5386848449707
907,LABI茅ケ崎,神奈川県茅ケ崎市新栄町12－3,開催なし,139.4054718017578,35.332088470458984
908,イオン相模原店ゲームコーナー,神奈川県相模原市南区古淵2丁目10番1　イオン相模原店３F,開催なし,139.4178466796875,35.5546760559082
909,モーリーファンタジー天王町,神奈川県横浜市保土ヶ谷区川辺町3-5,開催なし,139.5989990234375,35.45878982543945
910,Hapipi Landこどもの国店,神奈川県横浜市青葉区奈良町1-2-1　スーパー三和内3F,開催なし,139.48426818847656,35.557125091552734
911,タイトーステーション ラ チッタ デッラ川崎店,神奈川県川崎市川崎区小川町1-18　LA CITTA DELLA内 VIVACE棟,開催なし,139.69781494140625,35.52883529663086
912,あそびパークPLUS／小田原ダイナシティ店,神奈川県小田原市中里208　ダイナシティ小田原店WEST ３F,開催なし,139.1856231689453,35.28396987915039
913,GiGO相模原ラクーン店,神奈川県相模原市中央区小山1-1-14,開催なし,139.36244201660156,35.583499908447266
914,タカラ島新村上店　,新潟県村上市仲間町200番地 村上ﾌﾟﾗｻﾞ1F内,開催なし,139.4915771484375,38.221275329589844
915,カプコサーカス新潟東店,新潟県新潟市東区大形本町3-1-2イオン新潟東店,開催なし,139.11375427246094,37.92415237426758
916,ハローズガーデン長岡店,新潟県長岡市千秋2-278アピタﾀRIVERSIDE SENSHU長岡店2階,開催なし,138.8270263671875,37.460853576660156
917,ｎａｍｃｏ新潟店,新潟県新潟市中央区南笹口１－１－１　ひもろぎビル２Ｆ,開催なし,139.06341552734375,37.9088249206543
918,ｎａｍｃｏ MEGAドン･キホーテ柏崎店,新潟県柏崎市東長浜町４－１５,開催なし,138.57827758789062,37.368587493896484
919,ｎａｍｃｏイオン三条店,新潟県三条市西裏館２－１２－２０　イオン三条店内,開催なし,138.9557342529297,37.639442443847656
920,ナムコランドイオン長岡店,新潟県長岡市古正寺１丁目２４９番１　イオン長岡店内,開催なし,138.82337951660156,37.45423126220703
921,ビルボードプレイスゲームコーナー,新潟県新潟市中央区八千代二丁目５番７号,開催なし,139.05340576171875,37.91608810424805
922,DeKKY401 ファミリーパーク,新潟県新潟市中央区上近江4-12-20Dekky401 2階,開催なし,139.03062438964844,37.89787673950195
923,ラウンドワンスタジアム新潟店,新潟県新潟市中央区美咲町2丁目1番38号,開催なし,139.018310546875,37.88838195800781
924,タイトーＦステーション上越店,新潟県上越市富岡3524　Ｊ－ｍａｘシアター内１Ｆ,開催なし,138.25918579101562,37.14836883544922
925,アピナ上越インター店,新潟県上越市下門前1661,開催なし,138.25555419921875,37.154300689697266
926,アピナ長岡店,新潟県長岡市堺東町22,開催なし,138.8134765625,37.45827102661133
927,上越レジャーランボウル,新潟県上越市下門前薬島827-2　,開催なし,138.25506591796875,37.155372619628906
928,タイトーFステーション イオン新潟西店,新潟県新潟市西区小新南2丁目1番10号0,開催なし,138.9955291748047,37.86923599243164
929,タイトーFステーション 燕三条店,新潟県燕市井土巻3-150イオン県央店 アメニティ棟1F,開催なし,138.9363555908203,37.650638580322266
930,モーリーファンタジー新潟東,新潟県新潟市東区大形本町３－１－２イオン３階　,開催なし,139.11375427246094,37.92415237426758
931,モーリーファンタジー新発田,新潟県新発田市住吉町５丁目１１番５号イオン２階　,開催なし,139.30958557128906,37.94145584106445
932,"モーリーファンタジー新潟南★メザスタシティ★
",新潟県新潟市江南区下早通柳田１丁目１番１号イオンモール３階　,開催なし,139.0836639404297,37.87565231323242
933,モーリーファンタジー新潟青山,新潟県新潟市西区青山２－５－１イオン２階　,開催なし,139.00601196289062,37.896366119384766
934,モーリーファンタジーｆ新潟南,新潟県新潟市江南区下早通柳田１丁目１番１号イオンモール２階　,開催なし,139.0836639404297,37.87565231323242
935,モーリーファンタジー県央,新潟県燕市市井土巻３－６５イオン２階　,開催なし,138.8822479248047,37.67314910888672
936,モーリーファンタジー六日町,新潟県南魚沼市余川３１００イオン２階　,開催なし,138.87864685058594,37.08113098144531
937,モーリーファンタジー上越,新潟県上越市富岡３４５８番地アコーレ２階アコーレ２階　,開催なし,138.2578582763672,37.152671813964844
938,モーリーファンタジー小千谷,新潟県小千谷市大字平沢新田字荒田３３９イオン２階　,開催なし,138.79547119140625,37.31995391845703
939,モーリーファンタジー十日町,新潟県十日町市字川端丑７８４－１イオン１階　,開催なし,138.75570678710938,37.127586364746094
940,ＰＡＬＯ十日町,新潟県十日町市旭町１６１リオン・ドール十日町店１階　,開催なし,138.75733947753906,37.13574981689453
941,イトーヨーカドー丸大新潟,新潟県新潟市中央区本町通６－１１２２－１　玩具売場,開催なし,139.04673767089844,37.920257568359375
942,トイザらス長岡,新潟県長岡市川崎町１４３６－５　,開催なし,138.87680053710938,37.458377838134766
943,アピタ長岡,新潟県長岡市千秋二丁目２７８番地　玩具売場,開催なし,138.8270263671875,37.460853576660156
944,アピタ新潟亀田,新潟県新潟市江南区鵜ノ子四丁目４６６番地　玩具売場,開催なし,139.08990478515625,37.8718376159668
945,アピタ新潟西,新潟県新潟市西区小新五丁目７番２１号　玩具売場,開催なし,139.0035400390625,37.880550384521484
946,ヨドバシカメラマルチメディア新潟駅前,新潟県新潟市中央区弁天１－２－６　,開催なし,139.05958557128906,37.913021087646484
947,ユーズランド高岡店,富山県高岡市下伏間江383イオンモール高岡2F,開催なし,137.01686096191406,36.723873138427734
948,GiGOイオンモール高岡,富山県高岡市下伏間江383 イオンモール高岡西館2F,開催なし,137.01686096191406,36.723873138427734
949,MEGAドン・キホーテUNY砺波店ゲームコーナー,富山県砺波市太郎丸三丁目６９番地　MEGAドン・キホーテUNY砺波店2F,開催なし,136.95896911621094,36.62905502319336
950,ＭＥＧＡドン・キホーテUNY魚津店ゲームコーナー,富山県魚津市住吉６００番地　MEGAドン・キホーテUNY魚津店 2F,開催なし,137.40626525878906,36.806724548339844
951,ｎａｍｃｏアピタ富山店,富山県富山市上袋１００番地　アピタ富山店内２Ｆ,開催なし,137.21322631835938,36.66072082519531
952,アピタ富山東店ゲームコーナー,富山県富山市上冨居３－８－３８　アピタ富山東店２Ｆ,開催なし,137.24166870117188,36.70854568481445
953,キッズサーカス　五福,富山県富山市五福1143-1 ｼｮｯﾋﾟﾝｸﾞｾﾝﾀｰｱﾘｽ2F,開催なし,137.19259643554688,36.69583511352539
954,アピナ富山新庄店,富山県富山市荒川3-2-12,開催なし,137.2481689453125,36.696197509765625
955,アピナ富山南店,富山県富山市堀川町355-3ﾏｲﾌﾟﾗｻﾞ内,開催なし,137.21774291992188,36.66480255126953
956,アピナ富山豊田店,富山県富山市豊田町2-12-66,開催なし,137.23471069335938,36.7214241027832
957,トヤマレジャーランド呉羽店,富山県富山市高木字貝塚2054　,開催なし,137.16311645507812,36.72372055053711
958,タイトーステーション ファボーレ婦中店,富山県富山市婦中町下轡田165-1フューチャーシティ ファボーレ2F,開催なし,137.1713104248047,36.662628173828125
959,モーリーファンタジー小杉,富山県射水市三ヶ２６０２アル・プラザ小杉２階　,開催なし,137.09259033203125,36.719966888427734
960,モーリーファンタジー高岡南,富山県高岡市下伏間江３８３イオン２階　,開催なし,137.01686096191406,36.723873138427734
961,モーリーファンタジー高岡,富山県高岡市江尻３３１－１イオン１階　,開催なし,137.02951049804688,36.762176513671875
962,"モーリーファンタジーとなみ★メザスタシティ★
",富山県砺波市中神1丁目174番地　イオンモールとなみ２階　,開催なし,136.94644165039062,36.641357421875
963,おもちゃのベル氷見プラファ,富山県氷見市加納４８４番地　プラファ内,開催なし,136.97467041015625,36.86256790161133
964,おもちゃのバンビ本郷,富山県富山市本郷１６－８　玩具売場,開催なし,137.2364501953125,36.66435241699219
965,トイザらス高岡,富山県高岡市下伏間江３８３　　イオンモール高岡１Ｆ,開催なし,137.01686096191406,36.723873138427734
966,アピタ富山,富山県富山市上袋１００番６８　玩具売場,開催なし,137.21322631835938,36.66072082519531
967,アピタ富山東,富山県富山市上冨居三丁目８番３８号　玩具売場,開催なし,137.24166870117188,36.70854568481445
968,富山レジャーランド射水店,富山県射水市小島3724-1 大阪屋ショップアプリオ2F,開催なし,137.06097412109375,36.73651885986328
969,アミュージアム小松店,石川県小松市園町ハ23-1アル・プラザ小松店2F,開催なし,136.46055603027344,36.40616226196289
970,アミュージアム津幡店,石川県河北郡津幡町北中条1丁目1番地アル・プラザ津幡2F,開催なし,136.7259979248047,36.660884857177734
971,ゲームゾーン松任店,石川県白山市平松町102-1ｲｵﾝ松任ｼｮｯﾋﾟﾝｸﾞｾﾝﾀｰ,開催なし,136.56600952148438,36.50819778442383
972,コロナワールド金沢店,石川県金沢市無量寺4-121-1アピタタウン金沢ベイ内,開催なし,136.61495971679688,36.601043701171875
973,GiGOアルプラザ金沢,石川県金沢市諸江町30-1,開催なし,136.64190673828125,36.59052276611328
974,GiGOイオンタウン金沢示野,石川県金沢市戸板西2-1,開催なし,136.615966796875,36.57930374145508
975,ｎａｍｃｏアルプラザ鹿島店,石川県鹿島郡中能登町井田と１－１　アルプラザ鹿島店２Ｆ,開催なし,136.9151153564453,36.95798873901367
976,ｎａｍｃｏイオンモールかほく店,石川県かほく市内日角タ２５　イオンモールかほく内,開催なし,136.70220947265625,36.70899200439453
977,アピタ松任店ゲームコーナー,石川県白山市幸明町２８０番地　アピタ松任店２Ｆ,開催なし,136.576904296875,36.51596450805664
978,ｎａｍｃｏ輪島店,石川県輪島市宅田町４５－１　パワーシティ輪島ワイプラザ内,開催なし,136.9048309326172,37.386043548583984
979,楽市楽座イオンモール新小松店,石川県小松市清六町315番地　イオンモール新小松店2階,開催なし,136.4674530029297,36.39505386352539
980,アピナ野々市店,石川県野々市市白山町4-1ｲｵﾝﾀｳﾝ野々市内,開催なし,136.6131591796875,36.52680206298828
981,バイパスレジャーランド加賀店,石川県加賀市箱宮町ヲ1番-1　,開催なし,136.41062927246094,36.325462341308594
982,バイパスレジャーランド藤江新館1F,石川県金沢市藤江南2-105　,開催なし,136.620849609375,36.58352279663086
983,手取フィッシュランド,石川県能美市粟生町ツ58手取フィッシュランド内1Fゲームコーナー,開催なし,136.5095672607422,36.45867156982422
984,モーリーファンタジーかほく,石川県かほく市内日角地内タ２５番イオン２階　,開催なし,136.70053100585938,36.70602035522461
985,モーリーファンタジー杜の里,石川県金沢市もりの里１丁目７０番地イオン２階　,開催なし,136.68988037109375,36.551395416259766
986,モーリーファンタジー新小松,石川県小松市沖周辺土地区画整理事業地内仮換地２０街区イオンモール３階　,開催なし,136.46502685546875,36.39977264404297
987,平和堂アル・プラザ金沢,石川県金沢市諸江町３０－１　玩具売場,開催なし,136.64190673828125,36.59052276611328
988,アピタ松任,石川県白山市幸明町２８０番地　玩具売場,開催なし,136.576904296875,36.51596450805664
989,イオン松任,石川県白山市平松町１０２－１　玩具売場,開催なし,136.56600952148438,36.50819778442383
990,ポケモンセンターカナザワ,石川県金沢市堀川新町3-1金沢フォーラス5階,開催なし,136.64950561523438,36.57855987548828
991,MIRAINOイオンモール白山店,石川県白山市横江町5001番地 イオンモール白山３F,開催なし,136.58616638183594,36.543907165527344
992,"モーリーファンタジー白山★メザスタシティ★
",石川県白山市横江町土地区画整理事業施工地区内1街区,開催なし,136.58616638183594,36.543907165527344
993,ファンタジープラザ金沢店,石川県金沢市西泉4-11　MEGAﾄﾞﾝ･ｷﾎｰﾃ ﾗﾊﾟｰｸ金沢店1階,開催なし,136.6319122314453,36.550514221191406
994,GiGO武生,福井県越前市新町3-13-4,開催なし,136.153076171875,35.901222229003906
995,ｎａｍｃｏＭＥＧＡドン・キホーテＵＮＹ福井店,福井県福井市飯塚町１１－１１１　ＭＥＧＡドン・キホーテＵＮＹ福井店２Ｆ,開催なし,136.18333435058594,36.06558609008789
996,"ｎａｍｃｏＭＥＧＡドン・キホーテＵＮＹ敦賀店★メザスタシティ★
",福井県敦賀市中央町一丁目５番５号　ＭＥＧＡドン・キホーテＵＮＹ敦賀店２階,開催なし,136.05958557128906,35.64345932006836
997,ｎａｍｃｏフェアモール福井大和田店,福井県福井市大和田２－１２３０　アピタ福井大和田店２Ｆ,開催なし,136.2506561279297,36.09669876098633
998,キッズサーカス　シピィ,福井県越前市新町7-8 ｼﾋﾟｨ2F,開催なし,136.15234375,35.90421676635742
999,フクイレジャーランドワイプラザ店,福井県福井市　新保北一丁目303番地ﾔｽｻｷﾜｲﾌﾟﾗｻﾞB棟2F,開催なし,136.21945190429688,36.06412124633789
1000,福井レジャーランド板垣店,福井県福井市下馬3-112,開催なし,136.2335662841797,36.04179000854492
1001,レッツワクワク ジョイランド エルパ店,福井県福井市大和田2丁目1212番地ラブリーパートナーエルパ2F,開催なし,136.2506561279297,36.09669876098633
1002,レッツワクワク ジョイランド ベル店,福井県福井市花堂南2丁目16-1ショッピングシティベル2F,開催なし,136.21229553222656,36.0335807800293
1003,モーリーファンタジー鯖江,福井県鯖江市下河端１６字下町１６－１アル・プラザ鯖江２階　,開催なし,136.18955993652344,35.9688606262207
1004,ＰＡＬＯ武生,福井県越前市横市町２８－１４－１エスカモール武生楽市店２階　,開催なし,136.1932373046875,35.90696334838867
1005,モーリーファンタジー福井,福井県福井市松城町１２－７パリオＣＩＴＹ２階　,開催なし,136.24087524414062,36.06264114379883
1006,平和堂アル・プラザアミ,福井県坂井市春江町随応寺１６－１１　玩具売場,開催なし,136.21905517578125,36.134822845458984
1007,平和堂アル・プラザ鯖江,福井県鯖江市下河端町１６字下町１６－１　玩具売場,開催なし,136.18955993652344,35.9688606262207
1008,アピタ福井大和田,福井県福井市大和田二丁目１２３０番地　玩具売場,開催なし,136.2506561279297,36.09669876098633
1009,アミュージアム河口湖店,山梨県南都留郡富士河口湖町船津2986番地河口湖ショッピングセンターBELL 3F,開催なし,138.7639617919922,35.49016571044922
1010,アミュージアム南アルプス店,山梨県南アルプス市小笠原1423-1スーパーセンタートライアル南アルプス店1F ,開催なし,138.4672088623047,35.61820602416992
1011,プラサカプコン甲府店,山梨県中巨摩郡昭和町西条字北河原3717,開催なし,138.54180908203125,35.637542724609375
1012,楽市楽座イオンモール甲府店,山梨県中巨摩郡昭和町飯喰1505-1　イオンモール甲府昭和店2階,開催なし,138.52713012695312,35.62373733520508
1013,タイトーFステーション ラザウォーク甲斐双葉店,山梨県甲斐市志田字柿木616-10,開催なし,138.48377990722656,35.684539794921875
1014,"モーリーファンタジー甲府昭和★メザスタシティ★
",山梨県中巨摩郡昭和町飯喰１５０５－１イオン３階　,開催なし,138.52713012695312,35.62373733520508
1015,モーリーファンタジービバモール甲斐敷島,山梨県甲斐市中下条２０００番地１号　,開催なし,138.5347900390625,35.67949676513672
1016,モーリーファンタジー石和,山梨県笛吹市石和町駅前１６－１イオン３階　,開催なし,138.63449096679688,35.65658950805664
1017,富士急百貨店トイズＱ,山梨県富士吉田市上吉田2丁目５－１　,開催なし,138.7951202392578,35.48351287841797
1018,イトーヨーカドー甲府昭和,山梨県中巨摩郡昭和町西条１３－１　玩具売場,開催なし,138.53749084472656,35.63538360595703
1019,アピタ双葉,山梨県甲斐市志田字柿木６４５番地１　玩具売場,開催なし,138.48377990722656,35.684539794921875
1020,ヨドバシカメラマルチメディア甲府店,山梨県甲府市丸の内1-3-3,開催なし,138.5689239501953,35.66610336303711
1021,MEGAドン・キホーテＵＮＹ石和店,山梨県笛吹市石和町窪中島154番地,開催なし,138.63209533691406,35.64582061767578
1022,THE 3RD PLANET 長野大通り店,長野県長野市大字鶴賀権堂町1506-3 長電権堂第2ビル1F,開催なし,138.19253540039062,36.65359115600586
1023,セガワールド豊科,長野県安曇野市豊科南穂高1115,開催なし,137.92178344726562,36.3020133972168
1024,GiGO岡谷,長野県岡谷市塚間町2-1-21,開催なし,138.05271911621094,36.06526565551758
1025,GiGO松本,長野県松本市渚1-7-1 なぎさライフサイト内,開催なし,137.9561004638672,36.23176574707031
1026,GiGO上田,長野県上田市大字上田1847-1,開催なし,138.26148986816406,36.412803649902344
1027,ソユーゲームフィールド 長野三輪店,長野県長野市三輪九丁目43番24号　イオンタウン長野三輪2F,開催なし,138.20758056640625,36.67021942138672
1028,ｎａｍｃｏアリオ上田店,長野県上田市天神３－５－１　アリオ上田１Ｆ　店番１－２１,開催なし,138.244140625,36.399662017822266
1029,アピタ飯田店ゲームコーナー,長野県飯田市鼎名古熊２４６１　アピタ飯田店,開催なし,137.8297119140625,35.50002670288086
1030,"ｎａｍｃｏイオンモール佐久平★メザスタシティ★
",長野県佐久市佐久平駅南１１－１０　イオンモール佐久平２Ｆ,開催なし,138.46417236328125,36.27545928955078
1031,レイクウォーク岡谷店ゲームコーナー,長野県岡谷市銀座１－１－５　レイクウォーク岡谷２Ｆ,開催なし,138.05123901367188,36.065040588378906
1032,ラウンドワンスタジアム長野店,長野県長野市大字東和田８２７番地６,開催なし,138.22515869140625,36.651145935058594
1033,楽市楽座イオンモール松本店,長野県松本市松本中央4丁目9番51号　イオンモール松本店　風庭2階,開催なし,137.97198486328125,36.238094329833984
1034,アピナ伊那店,長野県伊那市西町5093,開催なし,137.9501953125,35.834007263183594
1035,アピナ塩尻店,長野県塩尻市広丘野村1794-1,開催なし,137.95770263671875,36.14483642578125
1036,アピナ佐久インター店,長野県佐久市岩村田北1-13-1,開催なし,138.48239135742188,36.284454345703125
1037,アピナ松本店,長野県松本市双葉19-10,開催なし,137.9608612060547,36.210514068603516
1038,アピナ上田店,長野県上田市秋和359-1,開催なし,138.22328186035156,36.41594696044922
1039,アピナ長野川中島店,長野県長野市川中島町御厨967-1,開催なし,138.157470703125,36.598175048828125
1040,アピナ長野村山店,長野県長野市村山502-1,開催なし,138.2634735107422,36.667694091796875
1041,アピナ長野大橋店,長野県長野市若里7-9-12,開催なし,138.20053100585938,36.626365661621094
1042,アピナ飯田店,長野県飯田市座光寺3728-1,開催なし,137.8596649169922,35.53001022338867
1043,ベイシア更埴店,長野県千曲市大字桜堂字西沖333-1,開催なし,138.12344360351562,36.52981948852539
1044,ファンタジープラザ長野店,長野県長野市高田1758MEGAドン・キホーテ長野店2階,開催なし,138.2158966064453,36.64247512817383
1045,タイトーステーション アイシティ21松本店,長野県東筑摩郡山形村7977アイシティ21内,開催なし,137.8911590576172,36.183189392089844
1046,タイトーステーション イトーヨーカドー南松本店,長野県松本市高宮中1-20イトーヨーカドー南松本店3F,開催なし,137.96133422851562,36.21329116821289
1047,モーリーファンタジー中野,長野県中野市大字一本木２５２－１イオン２階　,開催なし,138.3725128173828,36.75907897949219
1048,モーリーファンタジー上田,長野県上田市常田２－１２－１８イオン２階　,開催なし,138.2584228515625,36.39249038696289
1049,モーリーファンタジー南松本,長野県松本市双葉５－２０イオン２階　,開催なし,137.96603393554688,36.20734405517578
1050,モーリーファンタジー松本,長野県松本市中央４－９－５１イオンスタイル松本店内３階　,開催なし,137.97833251953125,36.23363494873047
1051,モーリーファンタジー飯田アップルロード,長野県飯田市鼎一色４５６イオン２階　,開催なし,137.81651306152344,35.50086975097656
1052,ＰＡＬＯ諏訪,長野県諏訪市沖田町５－１８ステーションパーク諏訪１・２階　,開催なし,138.1284637451172,36.00513458251953
1053,イトーヨーカドーアリオ上田,長野県上田市天神３－５１　玩具売場,開催なし,138.2412109375,36.40031814575195
1054,イトーヨーカドー南松本,長野県松本市高宮中１－２０　玩具売場,開催なし,137.96133422851562,36.21329116821289
1055,トイザらス長野,長野県長野市高田１１７４　　ヤングファラオ２Ｆ,開催なし,138.2119598388672,36.638057708740234
1056,アピタ岡谷,長野県岡谷市銀座一丁目１番５号　玩具売場,開催なし,138.05123901367188,36.065040588378906
1057,イオン飯田,長野県飯田市上郷飯沼１５７５　イオン玩具売場,開催なし,137.85107421875,35.52338790893555
1058,タカラ島 駒ケ根店,長野県駒ケ根市赤穂1568　ベルシャイン駒ケ根1F,開催なし,137.9267120361328,35.74217224121094
1059,Hapipi Land豊科店,長野県安曇野市豊科4272-10　イオン豊科店2F,開催なし,137.90802001953125,36.301025390625
1060,ファンタジープラザ伊那店,長野県伊那市西町5182-1　MEGAドン・キホーテUNY伊那店３F,開催なし,137.94964599609375,35.831668853759766
1061,アピタ飯田,長野県飯田市鼎名古熊2461番地,開催なし,137.8297119140625,35.50002670288086
1062,モーリーファンタジー佐久平,長野県佐久市佐久平駅南11-10,開催なし,138.46417236328125,36.27545928955078
1063,バローえなガーデン,岐阜県恵那市大井町180-1バロー恵那店２F,開催なし,137.41075134277344,35.452484130859375
1064,ファンタジックランド可児店,岐阜県可児市下恵土5750ﾊﾟﾃｨｵ3F,開催なし,137.0504913330078,35.41495132446289
1065,コロナ 大垣メトロポリス,岐阜県大垣市三塚町字西沼523-1,開催なし,136.63046264648438,35.36738586425781
1066,GiGOマーゴ関,岐阜県関市倉知516,開催なし,136.90005493164062,35.47779083251953
1067,GiGOアクアウォーク大垣,岐阜県大垣市林町6-80-21 アクアウォーク大垣2F,開催なし,136.6172332763672,35.3698844909668
1068,バローランド中津川店,岐阜県中津川市淀川町3-8ルビットタウン中津川店2F,開催なし,137.50692749023438,35.49730682373047
1069,ルビットランド高山店,岐阜県高山市岡本町3-18-2ルビットタウン2F,開催なし,137.24635314941406,36.148460388183594
1070,ｎａｍｃｏイオンモール各務原店,岐阜県各務原市那加萱場町３－８　イオンモール各務原店２Ｆ,開催なし,136.823974609375,35.392417907714844
1071,ｎａｍｃｏイオンモール大垣店,岐阜県大垣市外野２丁目１００番地　イオンモール大垣店２Ｆ,開催なし,136.61370849609375,35.33696746826172
1072,ｎａｍｃｏカラフルタウン岐阜店,岐阜県岐阜市柳津町丸野三丁目３番６　カラフルタウン岐阜内,開催なし,136.72860717773438,35.36396789550781
1073,ｎａｍｃｏモレラ岐阜店,岐阜県本巣市三橋１１００　モレラ岐阜店２Ｆ,開催なし,136.67532348632812,35.454280853271484
1074,ラウンドワンモレラ岐阜,岐阜県本巣市三橋1100,開催なし,136.67532348632812,35.454280853271484
1075,岐阜レジャーランド穂積店,岐阜県瑞穂市稲里630番地　,開催なし,136.68482971191406,35.38428497314453
1076,ファンタジープラザ恵那店,岐阜県恵那市長島町正家2-2-17MEGAドン・キホーテUNY恵那店,開催なし,137.41351318359375,35.44805145263672
1077,"モーリーファンタジーｆ岐阜★メザスタシティ★
",岐阜県岐阜市正木中１－２－１マーサ２１北館３Ｆイオン３階　,開催なし,136.74484252929688,35.44756317138672
1078,モーリーファンタジー関,岐阜県関市倉知５１６サンサンシティ・マーゴイオン１階　,開催なし,136.90005493164062,35.47779083251953
1079,モーリーファンタジー大垣,岐阜県大垣市外野２丁目１００番イオン２階　,開催なし,136.61370849609375,35.33696746826172
1080,モーリーファンタジー各務原,岐阜県各務原市那加萱場町３－８イオンモール３階　,開催なし,136.823974609375,35.392417907714844
1081,平和堂高富,岐阜県山県市高木１４７３　玩具売場,開催なし,136.78968811035156,35.50527572631836
1082,トイザらス・ベビーザらス各務原,岐阜県各務原市那加萱場町３－８　イオンモール各務原３Ｆ,開催なし,136.823974609375,35.392417907714844
1083,アピタ御嵩,岐阜県可児郡御嵩町上恵土１０５２番１　玩具売場,開催なし,137.0768280029297,35.43897247314453
1084,アピタ各務原,岐阜県各務原市鵜沼各務原町八丁目７番地　玩具売場,開催なし,136.9061279296875,35.39704513549805
1085,ピアゴ瑞浪,岐阜県瑞浪市薬師町二丁目７２番地　玩具売場,開催なし,137.23277282714844,35.3624382019043
1086,ピアゴ多治見,岐阜県多治見市住吉町三丁目１９番地の１　玩具売場,開催なし,137.12203979492188,35.34381103515625
1087,アピタ大垣,岐阜県大垣市林町六丁目８０番２１　玩具売場,開催なし,136.6172332763672,35.3698844909668
1088,アピタ北方,岐阜県本巣郡北方町平成二丁目３番地　玩具売場,開催なし,136.68145751953125,35.432586669921875
1089,MEGAドン・キホーテUNY美濃加茂,岐阜県美濃加茂市野笹町２－５－６５　玩具売場,開催なし,137.0408172607422,35.44234848022461
1090,アピナ各務原店,岐阜県各務原市蘇原花園町2-9-1,開催なし,136.84803771972656,35.4120979309082
1091,アピナ本巣店,岐阜県本巣市政田字西浦1986　イオンタウン本巣 内,開催なし,136.64688110351562,35.43650436401367
1092,平和堂アル・プラザ鶴見,岐阜県大垣市鶴見町字上渡瀬641-2,開催なし,136.6419677734375,35.359066009521484
1093,MIRAINOイオンモール土岐店,岐阜県土岐市土岐津町土岐口1372番地の1　イオンモール土岐２F,開催なし,137.15383911132812,35.3484992980957
1094,モーリーファンタジー土岐,岐阜県土岐市土岐津町土岐口1372番地の1,開催なし,137.15383911132812,35.3484992980957
1095,ハローズガーデン御嵩店,岐阜県可児郡御嵩町上恵土1052‐1　ﾗｽﾊﾟ御嵩店２F,開催なし,137.0768280029297,35.43897247314453
1096,ハローズガーデン各務原店,岐阜県各務原市鵜沼各務原町8-7　アピタ各務原店２F,開催なし,136.9061279296875,35.39704513549805
1097,タイトーＦステーション イオン富士宮店,静岡県 富士宮市 浅間町1-8 イオンモール富士宮3Ｆ,開催なし,138.38131713867188,34.97700119018555
1098,タイトーFステーション 静岡店,静岡県 静岡市 葵区 呉服町2丁目5-4,開催なし,138.38131713867188,34.97700119018555
1099,タイトーFステーション浜北,静岡県浜松市浜北区貴布祢1200プレ葉ウォーク浜北2階,開催なし,137.77928161621094,34.7972412109375
1100,アミュージアム清水店,静岡県静岡市清水区入船町13-15エスパルスドリームプラザ3F,開催なし,138.4925994873047,35.01041030883789
1101,カプコンマークイズ静岡店,静岡県静岡市葵区柚木1026MARK IS 静岡3階,開催なし,138.40945434570312,34.98423767089844
1102,プラサカプコン志都呂店,静岡県浜松市西区志都呂2-37-1イオンモール浜松志都呂3F,開催なし,137.65087890625,34.69694900512695
1103,コロナワールドららぽーと沼津店,静岡県沼津市東椎路字東荒301番地3ららぽーと沼津 3F,開催なし,138.83714294433594,35.12860870361328
1104,パレット藤枝店,静岡県藤枝市前島1-7-10 BiVi藤枝4F,開催なし,138.25247192382812,34.847537994384766
1105,THE 3RD PLANET BiVi沼津店,静岡県沼津市大手町1-1-5,開催なし,138.86134338378906,35.103424072265625
1106,THE 3RD PLANET OZ浜松店,静岡県浜松市東区宮竹町322-1,開催なし,137.76528930664062,34.72266387939453
1107,THE 3RD PLANET 焼津店,静岡県焼津市八楠3-18-5,開催なし,138.30824279785156,34.87862777709961
1108,THE 3RD PLANET 島田店,静岡県島田市中溝町2531,開催なし,138.16473388671875,34.83863830566406
1109,アップルグランリバー大井川店,静岡県焼津市下江留1327,開催なし,138.2729034423828,34.809898376464844
1110,アップル島田店,静岡県島田市宝来町8-5,開催なし,138.1859130859375,34.828914642333984
1111,ジョイランドアミューズ諏訪店,静岡県沼津市大諏訪20-2,開催なし,138.83189392089844,35.108924865722656
1112,GiGOサントムーン柿田川,静岡県駿東郡清水町玉川61-2 サントムーン柿田川2F,開催なし,138.9033966064453,35.10934829711914
1113,GiGOベイドリーム清水,静岡県静岡市清水区駒越北町8-1 ベイドリーム清水2F,開催なし,138.50192260742188,34.985313415527344
1114,GiGO掛川,静岡県掛川市細田248,開催なし,137.9843292236328,34.77337646484375
1115,ソユー竜宮タウン 静岡店,静岡県静岡市駿河区石田一丁目5番1号　アピタ静岡SC2F,開催なし,138.40106201171875,34.959232330322266
1116,ハローズガーデン島田店,静岡県島田市宝来町8-2アピタ島田店2F,開催なし,138.1859130859375,34.828914642333984
1117,ｎａｍｃｏアピタ磐田店,静岡県磐田市今之浦３－１－１１　アピタ磐田店２階,開催なし,137.85763549804688,34.717872619628906
1118,ｎａｍｃｏららぽーと磐田店,静岡県磐田市高見丘１２００番地　ららぽーと磐田店２Ｆ店番２１２１０,開催なし,137.84202575683594,34.75016403198242
1119,楽市楽座サンストリート浜北店,静岡県浜松市浜北区平口２８６１　サンストリート浜北店２階,開催なし,137.76124572753906,34.794586181640625
1120,アピナ浜松店,静岡県浜松市中区葵西2-27-10,開催なし,137.70855712890625,34.76725387573242
1121,アピナ磐田店,静岡県磐田市西貝塚横須賀道北3690ｲｵﾝﾀｳﾝ磐田内,開催なし,137.8732147216797,34.71772384643555
1122,アピナ大須賀店,静岡県掛川市西大渕3359,開催なし,137.9693603515625,34.678035736083984
1123,タイトーFステーションイオンモール浜松市野店,静岡県浜松市東区天王町字諏訪1981-3,開催なし,137.76373291015625,34.738643646240234
1124,わいわいランド三島店,静岡県三島市　　中田町9-30　　　　　イトーヨーカドー三島店3階,開催なし,138.9185028076172,35.11848449707031
1125,ファンタジープラザ掛川店,静岡県掛川市大池2826番地MEGAドン･キホーテUNY掛川店2階,開催なし,137.98947143554688,34.77315902709961
1126,ファンタジープラザ富士吉原店,静岡県富士市国久保2丁目１番10号MEGAドン・キホーテUNY富士吉原店2階,開催なし,138.68016052246094,35.16830825805664
1127,メルヘンランド　ウェルディ長泉店,静岡県駿東郡長泉町下長窪字城山1076-1ウェルディ長泉2F,開催なし,138.8869171142578,35.1473503112793
1128,タイトーステーション 新浜松ザザシティ店,静岡県浜松市中区鍛冶町15番地ザザシティ西館2F,開催なし,137.732421875,34.70355224609375
1129,モーリーファンタジー清水,静岡県静岡市清水区上原１－６－１６イオン２階　,開催なし,138.46017456054688,35.00908660888672
1130,モーリーファンタジー焼津,静岡県焼津市祢宜島５５５イオン２階　,開催なし,138.30935668945312,34.83928680419922
1131,モーリーファンタジー富士宮,静岡県富士宮市浅間町１－８イオンモール２階　,開催なし,138.61351013183594,35.220619201660156
1132,モーリーファンタジーｆ富士南,静岡県富士市鮫島１１８－１０イオンタウン２階　,開催なし,138.67715454101562,35.13909912109375
1133,モーリーファンタジー裾野,静岡県裾野市佐野１０３９マックスバリュベルシティ裾野店１階　,開催なし,138.90753173828125,35.175724029541016
1134,モーリーファンタジー御殿場,静岡県御殿場市萩原６３６番地サンサンプラザ３階　,開催なし,138.93441772460938,35.30520248413086
1135,モーリーファンタジー袋井,静岡県袋井市上山梨４丁目１番地の１イオン２階　,開催なし,137.90386962890625,34.78424072265625
1136,モーリーファンタジー浜松西,静岡県浜松市西区入野町６２４４－１イオン３階　,開催なし,137.6901092529297,34.69940185546875
1137,"モーリーファンタジー浜松志都呂★メザスタシティ★
",静岡県浜松市西区志都呂町二丁目３７番１号イオン３階　,開催なし,137.65087890625,34.69694900512695
1138,モーリーファンタジー浜松市野,静岡県浜松市東区天王町字諏訪１９８１－３イオン２階　,開催なし,137.76373291015625,34.738643646240234
1139,ポケモンストア御殿場,静岡県御殿場市深沢１３１２　御殿場プレミアム・アウトレット内２６３０区,開催なし,138.96310424804688,35.30750274658203
1140,ミシマトイス,静岡県三島市本町３番３５号　玩具売場,開催なし,138.9140167236328,35.119346618652344
1141,プラザピア静岡,静岡県静岡市駿河区中吉田１５－８　,開催なし,138.4341278076172,35.000823974609375
1142,イトーヨーカドー三島,静岡県三島市中田町９－３０　玩具売場,開催なし,138.91941833496094,35.114280700683594
1143,アピタ伊東,静岡県伊東市伊東市玖須美元和田７２０番地の１４３　玩具売場,開催なし,139.10205078125,34.96567916870117
1144,アピタ大仁,静岡県伊豆の国市伊豆の国市吉田字九十分１５３番の１　玩具売場,開催なし,138.9288787841797,35.027713775634766
1145,ピアゴ香貫,静岡県沼津市下香貫字汐入２２１６番地　玩具売場,開催なし,138.87803649902344,35.078704833984375
1146,トイザらス静岡,静岡県静岡市清水区鳥坂８６０　　クレッセ静岡２Ｆ,開催なし,138.43374633789062,35.01340866088867
1147,ピアゴ大覚寺,静岡県焼津市大覚寺二丁目２７番地の１５　玩具売場,開催なし,138.2987060546875,34.87583541870117
1148,アピタ島田,静岡県島田市宝来町８番２号　玩具売場,開催なし,138.1859130859375,34.828914642333984
1149,アピタ磐田,静岡県磐田市今之浦三丁目１番１１　玩具売場,開催なし,137.8577880859375,34.71773910522461
1150,アピタ浜北,静岡県浜松市浜北区貴布祢１２００番地　玩具売場,開催なし,137.77928161621094,34.7972412109375
1151,アピタ静岡,静岡県静岡市駿河区石田一丁目５番１号　玩具売場,開催なし,138.40106201171875,34.959232330322266
1152,MEGAドン・キホーテUNY浜松泉町,静岡県浜松市中区泉町１－６－１　玩具売場,開催なし,137.72357177734375,34.739933013916016
1153,スーパーウェーブ静岡店,静岡県静岡市清水区鳥坂860番地　フレスポ静岡2階西,開催なし,138.43374633789062,35.01340866088867
1154,アップル新北街道店,静岡県静岡市葵区沓谷5-13-4,開催なし,138.41348266601562,34.998233795166016
1155,キッズトレイン伊東店,静岡県伊東市玖須美元和田 722-143　伊東ショッピングプラザ　デュオ２F,開催なし,139.11056518554688,34.95247268676758
1156,GiGO静岡,静岡県静岡市葵区七間町4,開催なし,138.38157653808594,34.97418212890625
1157,GiGOサントムーンオアシス,静岡県駿東郡清水町伏見52-1　サントムーンオアシス３F,開催なし,138.90086364746094,35.10957717895508
1158,ピアゴ袋井,静岡県袋井市新池字原川田1158-1,開催なし,137.91012573242188,34.73423385620117
1159,サープラ富士あそびタウン店,静岡県富士市永田町2-94,開催なし,138.66973876953125,35.16331100463867
1160,ｎａｍｃｏプレ葉ウォーク浜北店,静岡県浜松市浜北区貴布祢1200番地　プレ葉ウォーク浜北２F,開催なし,137.77928161621094,34.7972412109375
1161,ユーズランド東浦店,愛知県知多郡東浦町大字緒川字旭13-2イオンモール東浦2F,開催なし,136.9745635986328,34.98039245605469
1162,アミュージアム津島店,愛知県津島市津島北新開351番地ヨシヅヤ津島本店 シネマ館2F,開催なし,136.74703979492188,35.17525100708008
1163,ラスパ太田川　アミューズメントパーク,愛知県東海市大田町下浜田102-1,開催なし,136.89344787597656,35.02275848388672
1164,ゲームファンタジアン岡崎,愛知県岡崎市錦町2-4,開催なし,137.15980529785156,34.9736442565918
1165,ファンタジックランド高浜,愛知県高浜市神明町8-20-1生活便利館Tぽｰと2F,開催なし,137.00144958496094,34.935997009277344
1166,ムー大陸　西尾店,愛知県西尾市下町御城下23-1ｼｬｵ2F,開催なし,137.04583740234375,34.86756896972656
1167,ポート２４幸田,愛知県額田郡幸田町大字相見字沖原1-3ｶﾒﾘｱｶﾞｰﾃﾞﾝ幸田内,開催なし,137.1635284423828,34.89016342163086
1168,NICOPA & nico ground 岡崎店,愛知県岡崎市上和田町南天白5-1岡崎ｴﾙｴﾙﾀｳﾝ２F,開催なし,137.14620971679688,34.933448791503906
1169,NICOPAアピタ新守山店,愛知県名古屋市守山区新守山2830アピタ新守山２F?,開催なし,136.948974609375,35.20476531982422
1170,NICOPAウイングタウン岡崎店,愛知県岡崎市羽根町小豆坂3番地,開催なし,137.17454528808594,34.92363739013672
1171,NICOPAなるぱーく店,愛知県名古屋市緑区浦里三丁目232　なるぱーく２Ｆ ,開催なし,136.9467010498047,35.08452606201172
1172,カラフルパーク & nico ground 千種店,愛知県名古屋市千種区千種2-16-13イオン千種SC2F,開催なし,136.923828125,35.160911560058594
1173,カラフルパークイオン有松,愛知県名古屋市緑区鳴海町字有松裏200番地イオンタウン有松１Ｆ,開催なし,136.97195434570312,35.06792068481445
1174,アミューズファクトリー常滑店,愛知県常滑市りんくう町2-20-3イオンモール常滑店2F ,開催なし,136.8267822265625,34.882442474365234
1175,ゲームランド岡崎店,愛知県岡崎市戸崎町字外山38-5イオンモール岡崎2F ,開催なし,137.16297912597656,34.9364013671875
1176,プラサカプコン稲沢店,愛知県稲沢市長野7-1-2リーフウォーク稲沢201区画　,開催なし,136.81907653808594,35.260841369628906
1177,プラサカプコン徳重店,愛知県名古屋市緑区鳴海町徳重18-44ヒルズウォーク徳重ガーデンズガーデンズ棟2F,開催なし,137.00238037109375,35.094783782958984
1178,コロナ　半田メトロポリス,愛知県半田市旭町３-１１-１,開催なし,136.9217529296875,34.87504959106445
1179,安城メトロポリス,愛知県安城市浜富町6-8,開催なし,137.09730529785156,34.95534896850586
1180,小牧メトロポリス,愛知県小牧市間々片山181,開催なし,136.90867614746094,35.297821044921875
1181,中川メトロポリス,愛知県名古屋市中川区江松3-110,開催なし,136.8236083984375,35.12512969970703
1182,豊川メトロポリス,愛知県豊川市下長山町上アライ14-1,開催なし,137.38427734375,34.80311965942383
1183,エムズパーク豊田店,愛知県豊田市寿町3丁目21,開催なし,137.14028930664062,35.05668258666992
1184,GiGO mozoワンダーシティ,愛知県名古屋市西区二方町40 mozo ワンダーシティ4F,開催なし,136.88330078125,35.22526550292969
1185,GiGO mozoワンダーシティシネマ棟,愛知県名古屋市西区二方町47 mozo ワンダーシティ シネマ棟,開催なし,136.88449096679688,35.22724914550781
1186,GiGOイオンタウン刈谷,愛知県刈谷市東境町京和１,開催なし,137.0274658203125,35.038368225097656
1187,GiGOイオンタウン名西,愛知県名古屋市西区香呑町6-49-1,開催なし,136.89248657226562,35.20404052734375
1188,GiGOイオンモール木曽川,愛知県一宮市木曽川町黒田八ヶ池25-1　イオンモール木曽川3F,開催なし,136.7855224609375,35.34312057495117
1189,GiGOプライムツリー赤池,愛知県日進市赤池町箕ノ手1番（311区画）,開催なし,137.02713012695312,35.11365509033203
1190,GiGOギャラリエアピタ知立,愛知県知立市長篠町大山18-1ギャラリエアピタ１F,開催なし,137.05165100097656,34.99787521362305
1191,GiGO安城,愛知県安城市百石町2-35-13,開催なし,137.0726318359375,34.94735336303711
1192,GiGO岡崎,愛知県岡崎市上地3-50-4,開催なし,137.1688690185547,34.91159439086914
1193,GiGO 金山,愛知県名古屋市熱田区金山1-19-2,開催なし,136.89956665039062,35.140987396240234
1194,GiGO春日井,愛知県春日井市岩野町4180,開催なし,136.9603271484375,35.26899337768555
1195,GiGO東名ボール,愛知県瀬戸市西原町2-114,開催なし,137.0632781982422,35.20899963378906
1196,GiGO豊橋飯村,愛知県豊橋市飯村町字西山25-121,開催なし,137.41375732421875,34.749900817871094
1197,GiGO尾西,愛知県一宮市篭屋3-9-7 アソビックスびさい1F,開催なし,136.7717742919922,35.30949783325195
1198,ソユープレイランドソピア 安城店,愛知県安城市住吉町三丁目1番8号　イトーヨーカドー安城店2F,開催なし,137.08419799804688,34.98489761352539
1199,ソユーブレーメンタウン 鳴海店,愛知県名古屋市緑区鳴海町字伝治山3番地9　アピタ鳴海店2F,開催なし,136.95925903320312,35.093196868896484
1200,ハローズガーデン安城南店,愛知県安城市桜井町貝戸尻60番地アピタ安城南店2F,開催なし,137.0873260498047,34.9202995300293
1201,ワンダーフォレスト江南西店,愛知県江南市松竹町上野205,開催なし,136.85501098632812,35.34316635131836
1202,ｎａｍｃｏららぽーと愛知東郷店,愛知県愛知郡東郷町東郷中央土地区画事業６２街区１、３　ららぽーと愛知東郷,開催なし,137.05262756347656,35.0967903137207
1203,ｎａｍｃｏアピタ稲沢店,愛知県稲沢市天池五反田町１番地　アピタ稲沢店,開催なし,136.771484375,35.25255584716797
1204,ｎａｍｃｏイオンモールナゴヤドーム前店,愛知県名古屋市東区矢田南４－１０２－３　イオンモールナゴヤドーム前３Ｆ,開催なし,136.9446258544922,35.18856430053711
1205,ｎａｍｃｏイオンモール大高店,愛知県名古屋市緑区南大高二丁目４５０　イオンモール大高３Ｆ,開催なし,136.94757080078125,35.052799224853516
1206,ｎａｍｃｏイオンモール熱田店,愛知県名古屋市熱田区六野１－２－１１　イオンモール熱田４Ｆ,開催なし,136.91139221191406,35.13731002807617
1207,ｎａｍｃｏエアポートウォーク名古屋店,愛知県西春日井郡豊山町大字豊場字林先１番地８,開催なし,136.92184448242188,35.24922561645508
1208,ｎａｍｃｏテラスウォーク一宮店,愛知県一宮市両郷町一丁目２番地テラスウォーク一宮２階,開催なし,136.81663513183594,35.3111686706543
1209,ｎａｍｃｏららぽーと名古屋みなとアクルス店,愛知県名古屋市港区港明２丁目３番２号　ららぽーと名古屋みなとアクルス店３Ｆ,開催なし,136.88502502441406,35.10923385620117
1210,ｎａｍｃｏリソラ大府店,愛知県大府市柊山町１丁目９８番地　リソラ大府ショッピングテラス２Ｆ,開催なし,136.95758056640625,35.01651382446289
1211,ｎａｍｃｏ名古屋駅前店,愛知県名古屋市中村区椿町６－６　ニッセイ名古屋駅西ビル別館Ｂ１,開催なし,136.87969970703125,35.170555114746094
1212,アズパークファミリータウン,愛知県名古屋市中川区新家１丁目２４２１番地　アズパークＳＣ２Ｆ,開催なし,136.80616760253906,35.157073974609375
1213,西友岡崎店ゲームコーナー,愛知県岡崎市戸崎町越舞２－１　西友岡崎店２Ｆ,開催なし,137.16421508789062,34.93206787109375
1214,Jamjamgarden津島店,愛知県津島市津島北新開351ヨシヅヤ津島本店3F,開催なし,136.74703979492188,35.17525100708008
1215,ファンタジックランド清州店,愛知県清須市西市場5-5-3 Fヨシヅヤ清洲店3,開催なし,136.8284454345703,35.21896743774414
1216,ファンタジックランド太平通店,愛知県名古屋市中川区宮脇町2-11ヨシヅヤ太平通り店3F,開催なし,136.86795043945312,35.13507080078125
1217,ラウンドワンスタジアム半田店,愛知県半田市瑞穂町6丁目7番地の8,開催なし,136.9415740966797,34.8854866027832
1218,ゲームパニック大高店,愛知県名古屋市緑区忠治山201番地　グランドボウル　B２F,開催なし,136.94918823242188,35.0484619140625
1219,楽市街道名古屋店,愛知県北名古屋市中之郷神明４５番１,開催なし,136.84854125976562,35.24018478393555
1220,楽市楽座イオンモール扶桑店,愛知県丹羽郡扶桑町南山名字高塚５番地　イオンモール扶桑店２階,開催なし,136.89801025390625,35.36235809326172
1221,楽市楽座イオンモール名古屋茶屋店,愛知県名古屋市港区西茶屋２丁目１１　イオンモール名古屋茶屋店３階,開催なし,136.82594299316406,35.10470962524414
1222,ファンタジープラザ港店,愛知県名古屋市港区当知2-1501ポートウォークみなと店2階,開催なし,136.84756469726562,35.10940933227539
1223,ファンタジープラザ高蔵寺店,愛知県春日井市中央台2-5アピタ高蔵寺店2階,開催なし,137.048828125,35.28277587890625
1224,ファンタジープラザ瀬戸店,愛知県瀬戸市幸町33番地アピタ瀬戸店2階,開催なし,137.09664916992188,35.22293472290039
1225,ファンタジープラザ千代田橋店,愛知県名古屋市千種区千代田橋2-1-1アピタ千代田橋3階,開催なし,136.9695587158203,35.18710708618164
1226,ファンタジープラザ大口店,愛知県丹羽郡大口町丸2-36MEGAドン・キホーテUNY大口店2階,開催なし,136.90530395507812,35.33074188232422
1227,ファンタジープラザ桃花台店,愛知県小牧市古雅1-1MEGAドン・キホーテUNY桃花台3階,開催なし,136.98297119140625,35.30107498168945
1228,ファンタジープラザ豊田元町店,愛知県豊田市土橋町2丁目65番地MEGAドン･キホーテUNY豊田元町店2階,開催なし,137.13186645507812,35.062843322753906
1229,ファンタジープラザ名古屋店,愛知県名古屋市北区幻馬町234-1MEGAドン・キホーテ名古屋本店クロスタウン2階,開催なし,136.91156005859375,35.19416809082031
1230,ファミリーランド ドリーム,愛知県田原市田原町南新地76-10,開催なし,137.2750701904297,34.6728401184082
1231,タイトーステーション豊田GAZA店,愛知県豊田市喜多町1丁目140番地,開催なし,137.1573944091797,35.08824157714844
1232,タイトーステーションフェドラ大須店,愛知県名古屋市中区大須3-30-31萬松寺駐車場ビル1階・2階,開催なし,136.90440368652344,35.16041564941406
1233,イオン春日井店 3Fキッズインタイトー,愛知県春日井市柏井町4丁目17番地イオン春日井店 3F ゲームコーナー,開催なし,136.9622039794922,35.236759185791016
1234,タイトーステーション 弥富店,愛知県弥富市五明蒲原1371-40,開催なし,136.7159423828125,35.1146354675293
1235,タイトーステーション 大須店,愛知県名古屋市中区大須3-20-70,開催なし,136.90438842773438,35.16070556640625
1236,モーリーファンタジー豊橋南,愛知県豊橋市野依町字落合１－１２イオン２階　,開催なし,137.38775634765625,34.70977783203125
1237,モーリーファンタジー豊川,愛知県豊川市開運通り２－３１イオン２階　,開催なし,137.38458251953125,34.828495025634766
1238,モーリーファンタジー岡崎南,愛知県岡崎市戸崎町字ばら山１－１イオン３階　,開催なし,137.16481018066406,34.938682556152344
1239,モーリーファンタジー三好,愛知県みよし市三好町青木９１番地イオン２階　,開催なし,137.0787353515625,35.09292221069336
1240,モーリーファンタジー瀬戸みずの,愛知県瀬戸市みずの坂２丁目２５３番地イオン２階　,開催なし,137.0675506591797,35.243072509765625
1241,"モーリーファンタジー豊田★メザスタシティ★
",愛知県豊田市広路１－１イオンスタイル豊田内３階　,開催なし,137.16006469726562,35.07838439941406
1242,モーリーファンタジー岡崎,愛知県岡崎市上六名町字宮前１ショッピングセンターコムタウン１階　,開催なし,137.1559600830078,34.95104217529297
1243,モーリーファンタジー守山,愛知県名古屋市守山区笹ヶ根３－１２２８イオン２階　,開催なし,137.00392150878906,35.2351188659668
1244,モーリーファンタジー木曽川,愛知県一宮市木曽川町黒田字南八ツヶ池２５－１イオン２階　,開催なし,136.7736053466797,35.349159240722656
1245,モーリーファンタジーワンダーシティ,愛知県名古屋市西区二方町４０イオン３階　,開催なし,136.88330078125,35.22526550292969
1246,モーリーファンタジー春日井,愛知県春日井市柏井町４－１７イオン４階　,開催なし,136.9622039794922,35.236759185791016
1247,モーリーファンタジーメガドンキ大和,愛知県一宮市大和町毛受字一本松１９番地メガドンキ大和店２階　,開催なし,136.78302001953125,35.29665756225586
1248,モーリーファンタジー半田,愛知県半田市有楽町８－７イオン２階　,開催なし,136.91790771484375,34.86928939819336
1249,モーリーファンタジー名古屋みなと,愛知県名古屋市港区品川町２－１－６イオン３階　,開催なし,136.8603973388672,35.10279846191406
1250,モーリーファンタジー東浦,愛知県知多郡東浦町大字緒川字旭１３－２イオン１階　,開催なし,136.9745635986328,34.98039245605469
1251,モーリーファンタジー大高,愛知県名古屋市緑区南大高２丁目４５０番地イオン３階　,開催なし,136.94757080078125,35.052799224853516
1252,モーリーファンタジー名古屋茶屋,愛知県名古屋市港区西茶屋２丁目１１イオン３階　,開催なし,136.82594299316406,35.10470962524414
1253,モーリーファンタジー常滑,愛知県常滑市りんくう町２丁目２０番３イオンスタイル２階　,開催なし,136.8267822265625,34.882442474365234
1254,モーリーファンタジー熱田,愛知県名古屋市熱田区六野一丁目２番１１号イオン２階　,開催なし,136.91139221191406,35.13731002807617
1255,モーリーファンタジーナゴヤドーム前,愛知県名古屋市東区矢田南４丁目１０２番地の３イオン３階　,開催なし,136.9446258544922,35.18856430053711
1256,モーリーファンタジーｆ新瑞橋,愛知県名古屋市南区菊住１丁目７－１０イオンモール３階　,開催なし,136.9368896484375,35.11467742919922
1257,モーリーファンタジー長久手,愛知県長久手市長久手中央土地区画整理事業地５、１０、１１街区イオンモール３階　,開催なし,137.0486297607422,35.184120178222656
1258,モーリーファンタジー名古屋東,愛知県名古屋市名東区猪子石原２－１７０１イオン１階　,開催なし,136.99378967285156,35.19533920288086
1259,モーリーファンタジー扶桑,愛知県丹羽郡扶桑町大字南山名字高塚５－１イオン２階　,開催なし,136.89801025390625,35.36235809326172
1260,松坂屋名古屋,愛知県名古屋市中区栄３－１６－１　本館５階玩具売場,開催なし,136.90744018554688,35.16565704345703
1261,ポケモンセンターナゴヤ,愛知県名古屋市中区栄３－１６－１　松坂屋名古屋店本館５F,開催なし,136.90744018554688,35.16565704345703
1262,ビックカメラ名古屋ＪＲゲートタワー,愛知県名古屋市中村区名駅１－１－３　９階、１０階　,開催なし,136.88307189941406,35.17155838012695
1263,イトーヨーカドー尾張旭,愛知県尾張旭市南原山町石原１１６－４　玩具売場,開催なし,137.04989624023438,35.212982177734375
1264,イトーヨーカドー安城,愛知県安城市住吉町３－１－８　玩具売場,開催なし,137.08419799804688,34.98489761352539
1265,イトーヨーカドー知多,愛知県知多市新知東町１－１０－１　玩具売場,開催なし,136.8668212890625,34.98134994506836
1266,イトーヨーカドー刈谷,愛知県刈谷市高倉町２６０１　玩具売場,開催なし,136.99781799316406,35.00082015991211
1267,ＬＡＢＩ名古屋,愛知県名古屋市中村区名駅１－２－５　,開催なし,136.8848876953125,35.16817855834961
1268,MEGAドン・キホーテ豊橋店,愛知県豊橋市藤沢町１４１　玩具売場,開催なし,137.3717498779297,34.74367141723633
1269,トイザらス岡崎,愛知県岡崎市大平町字石丸３８　,開催なし,137.1875,34.94601821899414
1270,トイザらス名古屋中川,愛知県名古屋市中川区新家１－２４２１　　アズパーク２Ｆ,開催なし,136.80616760253906,35.157073974609375
1271,トイザらス東浦,愛知県知多郡東浦町大字緒川字申新田弐区６７－８　　イオンモール東浦２Ｆ,開催なし,136.9716033935547,34.97956466674805
1272,トイザらス木曽川,愛知県一宮市木曽川町黒田字南八ツケ池２５－１　　イオンモール木曽川１Ｆ,開催なし,136.7736053466797,35.349159240722656
1273,アピタ安城南,愛知県安城市桜井町貝戸尻６０番地　玩具売場,開催なし,137.0873260498047,34.9202995300293
1274,ピアゴ尾西,愛知県一宮市小信中島東鵯平５９番地　玩具売場,開催なし,136.7522430419922,35.312381744384766
1275,アピタ一宮,愛知県一宮市両郷町一丁目２番地　玩具売場,開催なし,136.81663513183594,35.3111686706543
1276,アピタ稲沢,愛知県稲沢市天池五反田町１番地　玩具売場,開催なし,136.771484375,35.25255584716797
1277,アピタ岡崎北,愛知県岡崎市日名北町４番地４６　玩具売場,開催なし,137.1527099609375,34.97674560546875
1278,アピタ蒲郡,愛知県蒲郡市港町１７番１０号　玩具売場,開催なし,137.22604370117188,34.820884704589844
1279,アピタ刈谷,愛知県刈谷市南桜町二丁目５６番地１　玩具売場,開催なし,137.0047149658203,34.99123001098633
1280,アピタ岩倉,愛知県岩倉市旭町一丁目２５番地　玩具売場,開催なし,136.87208557128906,35.27674865722656
1281,アピタ江南西,愛知県江南市松竹町上野２０５番地　玩具売場,開催なし,136.85501098632812,35.34316635131836
1282,アピタ高蔵寺,愛知県春日井市中央台二丁目５番地　玩具売場,開催なし,137.048828125,35.28277587890625
1283,ピアゴ新城,愛知県新城市字宮ノ後６８番地３　玩具売場,開催なし,137.4949188232422,34.90392303466797
1284,アピタ名古屋空港,愛知県西春日井郡豊山町大字豊場字林先１番８　玩具売場,開催なし,136.923583984375,35.248695373535156
1285,アピタ西尾,愛知県西尾市高畠町三丁目２３－９　玩具売場,開催なし,137.05966186523438,34.86338806152344
1286,アピタ大府,愛知県大府市明成町四丁目１３３番地　玩具売場,開催なし,136.95140075683594,35.021175384521484
1287,アピタ阿久比,愛知県知多郡阿久比町大字椋岡字徳吉１番地１２　玩具売場,開催なし,136.92091369628906,34.92085647583008
1288,アピタ知立,愛知県知立市長篠町大山１８番地の１　玩具売場,開催なし,137.05165100097656,34.99787521362305
1289,アピタ長久手,愛知県長久手市戸田谷９０１番地１　玩具売場,開催なし,137.03834533691406,35.172454833984375
1290,アピタ東海荒尾,愛知県東海市荒尾町山王前６０番地　玩具売場,開催なし,136.90493774414062,35.03951644897461
1291,ピアゴ碧南東,愛知県碧南市東浦町六丁目１７番地　玩具売場,開催なし,136.99920654296875,34.87593460083008
1292,アピタ向山,愛知県豊橋市向山町字中畑１番地１　玩具売場,開催なし,137.40147399902344,34.75525665283203
1293,アピタ千代田橋,愛知県名古屋市千種区千代田橋二丁目１番１号　玩具売場,開催なし,136.9695587158203,35.18710708618164
1294,ピアゴ中村,愛知県名古屋市中村区大門町２７番地　玩具売場,開催なし,136.86550903320312,35.17072296142578
1295,ピアゴ植田,愛知県名古屋市天白区元植田一丁目３０２番地　玩具売場,開催なし,136.9918975830078,35.13991165161133
1296,アピタ名古屋南,愛知県名古屋市南区豊田四丁目９番４７号　玩具売場,開催なし,136.91331481933594,35.102272033691406
1297,アピタ名古屋北,愛知県名古屋市北区辻町九丁目１番地　玩具売場,開催なし,136.92269897460938,35.209598541259766
1298,ヨドバシカメラマルチメディア名古屋松坂屋,愛知県名古屋市中区栄３丁目１６－１ 松坂屋名古屋店 南館4・5・6F　,開催なし,136.90744018554688,35.16565704345703
1299,ピアゴ西城,愛知県名古屋市守山区村合町175　玩具売場,開催なし,136.96380615234375,35.20777130126953
1300,ｎａｍｃｏ則武新町店,愛知県名古屋市西区則武新町3-1-17　イオンモール名古屋ノリタケガーデン内,開催なし,136.8818359375,35.179420471191406
1301,ｎａｍｃｏリーフウォーク稲沢店,愛知県稲沢市下津穂所1-1-1　リーフウォーク稲沢ツリー棟2Ｆ,開催なし,136.81964111328125,35.25864028930664
1302,アピナ豊橋店,愛知県豊橋市藤沢町141　ホリデイ・スクエア内アミューズメントビル1階,開催なし,137.3717498779297,34.74367141723633
1303,VIVID蟹江店,愛知県海部郡蟹江町桜一丁目212番地　ヨシズヤJR蟹江駅前店2F,開催なし,136.79745483398438,35.14350128173828
1304,トイザらス西春日井,愛知県西春日井郡豊山町大字豊場字大山139-17,開催なし,136.9064483642578,35.24986267089844
1305,タイトーステーション　パールシティ稲沢店,愛知県稲沢市井之口大坪町80-1　パールシティ２Ｆ,開催なし,136.81906127929688,35.236793518066406
1306,モーリーファンタジービバホーム一宮,愛知県一宮市羽衣2丁目5番2号　ビバホーム一宮店内,開催なし,136.80953979492188,35.30464553833008
1307,トイザらス高蔵寺ニュータウン,愛知県春日井市中央台1丁目1-2　高蔵寺センター内,開催なし,137.04835510253906,35.27951431274414
1308,モーリーファンタジーｔ-FACE,愛知県豊田市西町六丁目85番地1号　A館8階,開催なし,137.15499877929688,35.08676528930664
1309,アピナ蒲郡店,愛知県蒲郡市鹿島町浅井新田1-26　クラスポ蒲郡２F,開催なし,137.1950225830078,34.8116455078125
1310,ビックカメラ名古屋駅西,愛知県名古屋市中村区椿町6-9,開催なし,136.8798370361328,35.17030715942383
1311,バローガーデン戸田店,愛知県名古屋市中川区戸田明正2-110　ルビットタウン戸田店　２F,開催なし,136.80674743652344,35.14640808105469
1312,モーリーファンタジー新豊川,愛知県豊川市白鳥町兎足1-16,開催なし,137.35409545898438,34.82550048828125
1313,アピタ鳴海,愛知県名古屋市緑区鳴海町伝治山3-9,開催なし,136.95925903320312,35.093196868896484
1314,MIRAINOイオンモール豊川店,愛知県豊川市白鳥町兎足1-16　イオンモール豊川 3F,開催なし,137.35409545898438,34.82550048828125
1315,ｎａｍｃｏイオンモール長久手２号店,愛知県長久手市勝入塚５０１　イオンモール長久手４Ｆ,開催なし,137.04978942871094,35.1740837097168
1316,アミパラ鈴鹿,三重県鈴鹿市西條町430-1,開催なし,136.56443786621094,34.872222900390625
1317,NICOPA & nico ground イオン津店,三重県津市桜橋3-446ｲｵﾝ津店2F,開催なし,136.51644897460938,34.736000061035156
1318,NICOPAイオン伊勢店,三重県伊勢市楠部町乙160 ｲｵﾝ伊勢店2F,開催なし,136.731201171875,34.47822952270508
1319,NICOPA四日市北,三重県四日市市富州原町2-40 イオン四日市北店,開催なし,136.6554412841797,35.00886917114258
1320,GiGOアドバンスモール松阪,三重県松阪市田村町235-1,開催なし,136.51229858398438,34.555118560791016
1321,GiGO名張,三重県名張市希央台3番町15,開催なし,136.1041259765625,34.623260498046875
1322,GiGO久居,三重県津市久居明神町字風早2534-1,開催なし,136.46287536621094,34.684696197509766
1323,GiGO桑名,三重県桑名市大仲新田宮前158,開催なし,136.6101531982422,35.078880310058594
1324,GiGO伊勢,三重県伊勢市中須町666,開催なし,136.678466796875,34.492408752441406
1325,GiGO生桑,三重県四日市市生桑町299-1,開催なし,136.6023406982422,34.98676300048828
1326,カヨーアミューズパーク,三重県四日市市日永４－２－４１,開催なし,136.60394287109375,34.9477653503418
1327,ｎａｍｃｏイオンモール鈴鹿店,三重県鈴鹿市庄野羽山４－１－２　イオンモール鈴鹿２Ｆ,開催なし,136.53314208984375,34.87376022338867
1328,楽市楽座イオンモール東員店,三重県員弁郡東員町大字長深字築田５１０-１　イオンモール東員店３階,開催なし,136.5799102783203,35.06181716918945
1329,アピナ鈴鹿店,三重県鈴鹿市庄野羽山4-20-1ｲｵﾝﾀｳﾝ鈴鹿2F,開催なし,136.5290985107422,34.873783111572266
1330,ファンタジープラザ名張店,三重県名張市下比奈知字黒田3100-1MEGAドン・キホーテUNY名張店2階,開催なし,136.12513732910156,34.629058837890625
1331,タイトーステーション イオンモール明和店,三重県多気郡明和町中村1223イオンモール明和2F,開催なし,136.61245727539062,34.581546783447266
1332,モーリーファンタジー四日市尾平,三重県四日市市尾平町字天王川原１８０５イオン３階　,開催なし,136.59100341796875,34.97709655761719
1333,モーリーファンタジー四日市北,三重県四日市市富州原町２－４０イオン２階　,開催なし,136.6554412841797,35.00886917114258
1334,モーリーファンタジー東員,三重県員弁郡東員町長深字築田５１０番地１イオン３階　,開催なし,136.5799102783203,35.06181716918945
1335,モーリーファンタジー桑名,三重県桑名市新西方１丁目２２番地イオン３階　,開催なし,136.6625518798828,35.07221221923828
1336,ＰＡＬＯ桑名,三重県桑名市新西方１丁目２２番地イオン２階　,開催なし,136.6625518798828,35.07221221923828
1337,モーリーファンタジー四日市泊,三重県四日市市泊小柳町４番５－１号イオンタウン四日市泊店２Ｆ　,開催なし,136.60275268554688,34.940277099609375
1338,モーリーファンタジーイオン鈴鹿,三重県鈴鹿市庄野羽山４－１－２イオン２階　,開催なし,136.53314208984375,34.87376022338867
1339,モーリーファンタジー津城山,三重県津市久居小野辺町１１３０－７イオンタウン２階　,開催なし,136.50074768066406,34.678768157958984
1340,"モーリーファンタジー津南★メザスタシティ★
",三重県津市高茶屋小森町１４５イオンモール津南３Ｆ　,開催なし,136.5177459716797,34.67026901245117
1341,モーリーファンタジー伊賀上野,三重県伊賀市上野茅町２５１９イオン２階　,開催なし,136.13644409179688,34.76067352294922
1342,モーリーファンタジー阿児,三重県志摩市阿児町鵜方３２１５イオン２階　,開催なし,136.8287353515625,34.32381820678711
1343,モーリーファンタジー明和,三重県多気郡明和町中村長波賀１２２３番地イオン２階　,開催なし,136.61538696289062,34.5843620300293
1344,モーリーファンタジー伊勢ララパーク,三重県伊勢市小木町曽祢５３８イオンタウン２階　,開催なし,136.72254943847656,34.50602722167969
1345,アピタ桑名,三重県桑名市中央町三丁目２１番地　玩具売場,開催なし,136.68751525878906,35.06422805786133
1346,アピタ松阪三雲,三重県松阪市市場庄町１２６６番地の１　玩具売場,開催なし,136.51962280273438,34.60432052612305
1347,アピタ伊賀上野,三重県伊賀市服部町１７８８番地　玩具売場,開催なし,136.13528442382812,34.77927017211914
1348,ゲオ志摩店,三重県志摩市阿児町鵜方4935,開催なし,136.81399536132812,34.32707595825195
1349,ファンタジープラザ松阪三雲店,三重県松阪市市場庄町1266-1　アピタ松阪三雲店2F,開催なし,136.51962280273438,34.60432052612305
1350,アピタ四日市,三重県四日市市安島1-3-31,開催なし,136.61671447753906,34.9688835144043
1351,アミパラ草津店,滋賀県草津市木川町72,開催なし,135.9427032470703,35.019493103027344
1352,イオンタウン湖南ゲームコーナー,滋賀県湖南市岩根4580 ｲｵﾝﾀｳﾝ湖南,開催なし,136.10809326171875,34.99341583251953
1353,プラザパルＡＰ栗東,滋賀県栗東市綣2-3-22,開催なし,135.9810791015625,35.0369987487793
1354,ゲームランド草津店,滋賀県草津市新浜町300番地イオンモール草津店3F,開催なし,135.91212463378906,34.9981803894043
1355,THE 3RD PLANET 大津店,滋賀県大津市打出浜14-30 Oh!Me大津テラス6F,開催なし,135.8799591064453,35.004417419433594
1356,GiGOエイスクエア草津,滋賀県草津市西渋川1-23-23 ?A/SQUARE ?SARA南館2F,開催なし,135.96009826660156,35.02418899536133
1357,GiGO甲西,滋賀県湖南市夏見二ツ橋356-1,開催なし,136.0948944091797,34.99088668823242
1358,ゲームフィールド ピエリ守山店,滋賀県守山市今浜町2620-5　ピエリ守山店1F,開催なし,135.9456787109375,35.12283706665039
1359,"ｎａｍｃｏアルプラザ水口店★メザスタシティ★
",滋賀県甲賀市水口町名坂４１９－１　アルプラザ水口店新館２Ｆ,開催なし,136.17054748535156,34.982295989990234
1360,ｎａｍｃｏビバシティ彦根店,滋賀県彦根市竹ヶ鼻町４３－１　ビバシティ彦根２Ｆ,開催なし,136.25010681152344,35.24410629272461
1361,ラウンドワンスタジアム浜大津アーカス店,滋賀県大津市浜町2番1号 浜大津ｱｰｶｽ4階,開催なし,135.86553955078125,35.011085510253906
1362,滋賀レジャーランド大津店,滋賀県大津市におの浜3-1-43　イオンタウンアヤハプラザ内,開催なし,135.88356018066406,35.00385284423828
1363,アピナキッズパーク大津京　,滋賀県大津市二本松1-1,開催なし,135.86471557617188,35.029720306396484
1364,タイトーＦステーションイオン近江八幡店,滋賀県近江八幡市鷹飼町南3-7 イオン近江ハ幡店1Ｆ,開催なし,136.1031036376953,35.12181091308594
1365,モーリーファンタジー草津,滋賀県草津市新浜町３００イオン３階　,開催なし,135.91212463378906,34.9981803894043
1366,モーリーファンタジーイオン近江八幡,滋賀県近江八幡市鷹飼町南３丁目７番イオン３階　,開催なし,136.1031036376953,35.12181091308594
1367,モーリーファンタジー大津京,滋賀県大津市皇子が丘３－１１－１イオン４階　,開催なし,135.86012268066406,35.024505615234375
1368,モーリーファンタジー長浜,滋賀県長浜市山階町２７１－１イオン２階　,開催なし,136.28993225097656,35.39337921142578
1369,モーリーファンタジーベイシア彦根,滋賀県彦根市馬場２－１－１ベイシア彦根店１Ｆ　,開催なし,136.24356079101562,35.2779426574707
1370,モーリーファンタジー大津一里山,滋賀県大津市一里山７－１－１フォレオ大津一里山２階　,開催なし,135.9336395263672,34.97409439086914
1371,平和堂アル・プラザ水口,滋賀県甲賀市水口町本綾野５６６－１　玩具売場,開催なし,136.1701202392578,34.97675323486328
1372,平和堂アル・プラザ守山,滋賀県守山市播磨田町１８５－１　玩具売場,開催なし,135.99517822265625,35.06606674194336
1373,平和堂アル・プラザ八日市,滋賀県東近江市八日市浜野町３－１　玩具売場,開催なし,136.19627380371094,35.11445617675781
1374,アミューズメントパークさくら 八日市店,滋賀県東近江市八日市浜野町３?１　ショッピングプラザアピア４F,開催なし,136.1970977783203,35.11470413208008
1375,平和堂アル・プラザ堅田,滋賀県大津市本堅田5-20-10　２F,開催なし,135.91522216796875,35.119876861572266
1376,キッズワールド バザールタウン舞鶴店,京都府舞鶴市伊佐津200-5バザールタウン舞鶴,開催なし,135.33203125,35.43947982788086
1377,ジョイパーク精華台,京都府相楽郡精華町精華台9-2-4アピタタウンけいはんな西館2階,開催なし,135.77093505859375,34.74599075317383
1378,アミパラ久御山,京都府久世郡久御山町森大内337イオンタウン久御山内,開催なし,135.74636840820312,34.89536666870117
1379,アミュージアム木津川店,京都府木津川市州見台1丁目1-1ガーデンモール木津川2F,開催なし,135.81832885742188,34.72121047973633
1380,タカラ島亀岡,京都府亀岡市篠町野条上又11-1ｱﾙﾌﾟﾗｻﾞ亀岡店3F,開催なし,135.60202026367188,35.00157165527344
1381,プラサカプコン京都店,京都府京都市右京区西院追分町25-1イオンモール京都五条3F  ,開催なし,135.7269744873047,34.996707916259766
1382,サープラ京都あそびタウン,京都府京都市中京区西ノ京栂尾町1-6,開催なし,135.74124145507812,35.0107421875
1383,GiGOMOMOテラス京都伏見,京都府京都市伏見区桃山町山ﾉ下32 MOMOテラス 別館 2F,開催なし,135.76132202148438,34.935546875
1384,プレイランド 京都店,京都府京都市右京区山ノ内池尻町1-1　京都ファミリー3Ｆ,開催なし,135.72047424316406,35.004737854003906
1385,ｎａｍｃｏアルプラザ宇治東店,京都府宇治市莵道平町２８番地の１　アルプラザ宇治東３Ｆ,開催なし,135.80303955078125,34.9021110534668
1386,ｎａｍｃｏアルプラザ城陽店,京都府城陽市富野荒見田１１２番地　アル・プラザ城陽４階,開催なし,135.78533935546875,34.843406677246094
1387,ｎａｍｃｏイオンモールＫＹＯＴＯ１号店,京都府京都市南区西九条鳥居口町１番地　イオンモールＫＹＯＴＯ１４０６０,開催なし,135.75460815429688,34.98268127441406
1388,ｎａｍｃｏミップル店,京都府宮津市字浜町３０１２番　宮津シーサイドマートＭｉｐｐｌｅ５Ｆ,開催なし,135.19390869140625,35.53908920288086
1389,ｎａｍｃｏらぽーる店,京都府舞鶴市南浜町２７－５　らぽーる３Ｆ,開催なし,135.39549255371094,35.466644287109375
1390,ＮＩＣＯＰＡ八幡店,京都府八幡市八幡一ﾉ坪23-1 ｲｽﾞﾐﾔ1F,開催なし,135.71649169921875,34.87136459350586
1391,NICOPA長岡店,京都府長岡京市開田4丁目7番1号ｲｽﾞﾐﾔ2F,開催なし,135.6918182373047,34.92243576049805
1392,楽市楽座イオンモール京都桂川店,京都府京都市南区久世高田町３７６番１　イオンモール京都桂川店３階,開催なし,135.70767211914062,34.963523864746094
1393,北大路ビブレ（キッズカード）　　　　　　,京都府京都市北区小山北上総町49-1北大路ビブレ4階ビブレコーゼ,開催なし,135.75808715820312,35.044803619384766
1394,モーリーファンタジー高の原,京都府木津川市相楽台１－１－１イオンＳＣ４階　,開催なし,135.79063415527344,34.7255859375
1395,モーリーファンタジー洛南,京都府京都市南区吉祥院御池町３１イオン２階　,開催なし,135.73492431640625,34.97587966918945
1396,"モーリーファンタジー久御山★メザスタシティ★
",京都府久世郡久御山町森南大内１５６－１イオン２階　,開催なし,135.74586486816406,34.893516540527344
1397,モーリーファンタジー京都五条,京都府京都市右京区西院追分町２５－１イオン２階　,開催なし,135.7269744873047,34.996707916259766
1398,モーリーファンタジー京都桂川,京都府京都市南区久世高田町３７６番１イオン３階　,開催なし,135.70767211914062,34.963523864746094
1399,モーリーファンタジー洛北阪急スクエア,京都府京都市左京区高野西開町３５番地阪急カナート洛北２Ｆ　,開催なし,135.77862548828125,35.0401496887207
1400,モーリーファンタジー桂南,京都府京都市南区久世上久世町４８５ダイエー２階　,開催なし,135.71722412109375,34.967132568359375
1401,モーリーファンタジー福知山,京都府福知山市岩井７９－８イオン２階　,開催なし,135.10313415527344,35.315914154052734
1402,モーリーファンタジー綾部,京都府綾部市綾中町花ノ木３０バザールタウン綾部２階　,開催なし,135.2577667236328,35.302268981933594
1403,ポケモンセンターキョウト,京都府京都市下京区四条通室町東入函谷鉾町７８番　京都経済センターSUINA室町２F,開催なし,135.75872802734375,35.003509521484375
1404,平和堂アル・プラザ城陽,京都府城陽市富野荒見田１１２　玩具売場,開催なし,135.78533935546875,34.843406677246094
1405,平和堂アル・プラザ京田辺,京都府京田辺市田辺中央５－２－１　玩具売場,開催なし,135.76930236816406,34.822418212890625
1406,平和堂アル・プラザ醍醐,京都府京都市伏見区醍醐高畑町１－３７　玩具売場,開催なし,135.810546875,34.95179748535156
1407,ライフ太秦,京都府京都市右京区太秦安井池田町６　,開催なし,135.7169647216797,35.014888763427734
1408,西友山科,京都府京都市山科区音羽野田町１　,開催なし,135.81639099121094,34.98429489135742
1409,ヨドバシカメラマルチメディア京都,京都府京都市下京区 京都駅前 京都タワー横　,開催なし,135.75546264648438,34.9875602722168
1410,エール東舞鶴,京都府舞鶴市南浜町27-5,開催なし,135.39549255371094,35.466644287109375
1411,タイトーＦステーションりんくうシークル店,大阪府泉佐野市りんくう往来3りんくうPTシークル,開催なし,135.32733154296875,34.406837463378906
1412,タイトーFステーション住道,大阪府大東市赤井1-4-3ポップタウン住道オペラパーク東館3階319号,開催なし,135.6199951171875,34.708919525146484
1413,天王寺パスカ,大阪府大阪市阿倍野区阿倍野筋2-4-51,開催なし,135.51254272460938,34.64400100708008
1414,アミパラ大東店,大阪府大東市南新田2-3-5,開催なし,135.6381072998047,34.70038604736328
1415,アミュージアム岸和田店,大阪府岸和田市下松町1-3-1ウィンディ岸和田,開催なし,135.39332580566406,34.45948791503906
1416,フタバボウル　泉大津,大阪府泉大津市松之浜町1丁目2番53号,開催なし,135.41567993164062,34.51066589355469
1417,ピカキッズ八尾,大阪府八尾市光町2-3ｲﾄｰﾖｰｶﾄﾞｰ3階,開催なし,135.60581970214844,34.63238525390625
1418,NICOPAアクロスモール泉北店,大阪府堺市南区原山台５－９－８,開催なし,135.4994659423828,34.47969436645508
1419,NICOPAベルファ都島店,大阪府大阪市都島区友渕町2-13-34,開催なし,135.53036499023438,34.71569061279297
1420,プラサカプコン藤井寺店,大阪府藤井寺市岡2丁目10番11号イオン藤井寺ショッピングセンター2F ,開催なし,135.59378051757812,34.57347869873047
1421,GiGOあべのキューズモール,大阪府大阪市阿倍野区阿倍野筋1-6-1 あべのマーケットパーク キューズモール3F,開催なし,135.5127716064453,34.646053314208984
1422,GiGOビバモール寝屋川,大阪府寝屋川市寝屋南2-22-2 ビバモール寝屋川 モール棟2F,開催なし,135.65167236328125,34.76648712158203
1423,GiGOあべのアポロ,大阪府大阪市阿倍野区阿倍野筋1-5-31 アポロビル3F,開催なし,135.51136779785156,34.64669418334961
1424,GiGO布施,大阪府東大阪市長堂1-1-1 ロンモール布施内,開催なし,135.5619659423828,34.66404342651367
1425,GiGO枚方,大阪府枚方市須山町83-1 サンシャインプラザ枚方内,開催なし,135.67514038085938,34.819549560546875
1426,GiGO今福,大阪府大阪市城東区今福東1-9-34,開催なし,135.5574951171875,34.70068359375
1427,GiGO新三国アルゴ7,大阪府豊中市神州町1-15,開催なし,135.47848510742188,34.73902130126953
1428,GiGOフレスポ東大阪,大阪府東大阪市稲田新町3-9-64,開催なし,135.59140014648438,34.692264556884766
1429,GiGO大阪第4ビル,大阪府大阪市北区梅田1-11-4 駅前第4ビルB1F,開催なし,135.49929809570312,34.699581146240234
1430,ＥＮＴＥＲＴＡＩＮＭＥＮＴ　ＦＩＥＬＤ　ららぽーとＥＸＰＯＣＩＴＹ店,大阪府吹田市千里万博公園2-1　ららぽーとEXPOCITY　3F,開催なし,135.53392028808594,34.805484771728516
1431,ソユーゲームフィールド　堺鉄砲町店,大阪府堺市堺区鉄砲町１番地　イオンモール堺鉄砲町3F,開催なし,135.4811248779297,34.59485626220703
1432,ソユーゲームフィールド 泉南店,大阪府泉南市りんくう南浜3番12　イオンモールりんくう泉南2F,開催なし,135.26719665527344,34.382991790771484
1433,ソユーゲームフィールドみのおキューズモール店,大阪府箕面市西宿一丁目15番30号　みのおキューズモールCENTER棟2階,開催なし,135.4899444580078,34.83268356323242
1434,ハローズガーデン泉佐野店,大阪府泉佐野市下瓦屋2-2-77いこらもーる泉佐野店1Ｆ,開催なし,135.3287811279297,34.421775817871094
1435,ｎａｍｃｏイオンモール大日店,大阪府守口市大日東町１－１８　イオンモール大日４Ｆ,開催なし,135.5793914794922,34.74919509887695
1436,ｎａｍｃｏイオンモール鶴見緑地店,大阪府大阪市鶴見区鶴見４－１７－１－４２１　イオンモール鶴見緑地４Ｆ,開催なし,135.5654296875,34.703033447265625
1437,ｎａｍｃｏくずはモール店,大阪府枚方市楠葉花園町１０―８５　ＫＵＺＵＨＡＭＡＬＬ南館２Ｆ,開催なし,135.6768798828125,34.859893798828125
1438,ｎａｍｃｏなんばパークス店,大阪府大阪市浪速区難波中２丁目１０番７０号　なんばパークス６Ｆ,開催なし,135.50125122070312,34.662410736083984
1439,ｎａｍｃｏマグスミノエ店,大阪府大阪市住之江区泉１丁目１番８２号マグスミノエ１Ｆ,開催なし,135.4696807861328,34.60957336425781
1440,ｎａｍｃｏ大阪日本橋店,大阪府大阪市浪速区難波中２－１－１７　コスモビル１～３Ｆ,開催なし,135.50442504882812,34.663082122802734
1441,ｎａｍｃｏ梅田店,大阪府大阪市北区小松原町３番３号　ＯＳビル２Ｆ,開催なし,135.50022888183594,34.702640533447266
1442,かみしんプラザ AMUSE PARK（アミューズパーク）,大阪府大阪市東淀川区大隅１－６－１２　かみしんプラザ２Ｆ,開催なし,135.54107666015625,34.7484130859375
1443,ｎａｍｃｏアリオ鳳店,大阪府堺市西区鳳南町３－１９９－１２　アリオ鳳アリオモール３Ｆ３２８０,開催なし,135.45689392089844,34.526145935058594
1444,NICOPA和泉府中店,大阪府泉大津市東豊中町1-5-10 カナートモール和泉府中2F,開催なし,135.4231719970703,34.49195098876953
1445,NICOPA金岡店,大阪府堺市北区蔵前町１丁７－１５ レインボー金岡 2F,開催なし,135.50997924804688,34.57467269897461
1446,NICOPA千里丘店,大阪府吹田市山田南1番1号ｲｽﾞﾐﾔ2F,開催なし,135.53872680664062,34.788814544677734
1447,NICOPAイズミヤ泉北店,大阪府堺市中区小阪270番地 ｲｽﾞﾐﾔ2F,開催なし,135.49252319335938,34.52179718017578
1448,NICOPA八尾店,大阪府八尾市沼1丁目1番地ｲｽﾞﾐﾔ1F,開催なし,135.6029815673828,34.58859634399414
1449,キッズサーカスべスピア堺インター店,大阪府堺市西区太平寺711-1,開催なし,135.484619140625,34.51267623901367
1450,きゃらんど和泉店,大阪府和泉市あゆみ野4-4-7ららぽーと和泉 2階,開催なし,135.44940185546875,34.435935974121094
1451,ラウンドワンスタジアム　堺中央環状,大阪府堺市東区石原町2-241,開催なし,135.53749084472656,34.556549072265625
1452,ラウンドワンスタジアム　千日前店,大阪府大阪市中央区難波1丁目3番1号,開催なし,135.5030975341797,34.66767120361328
1453,ラウンドワンららぽーと和泉,大阪府和泉市あゆみ野4-4-7 4階,開催なし,135.44940185546875,34.435935974121094
1454,ラウンドワン高槻店,大阪府高槻市辻子3丁目6番4号,開催なし,135.6283416748047,34.832130432128906
1455,ラウンドワン守口店,大阪府守口市佐太東町2-6-14ｼﾞｬｶﾞｰｸﾞﾘｰﾝ2階,開催なし,135.5879669189453,34.75727081298828
1456,ふぇすたらんど東大阪,大阪府東大阪市西岩田3-2-3  ﾏﾙﾅｶ東大阪店 2F,開催なし,135.5975341796875,34.669010162353516
1457,ゲームパニック堺店,大阪府堺市堺区築港八幡町1番地堺浜シーサイドステージ内 堺浜えんため館,開催なし,135.436279296875,34.599674224853516
1458,楽市楽座イオンモール四條畷店,大阪府四條畷市砂四丁目３番２号　イオンモール四條畷店３階　3028,開催なし,135.6312255859375,34.744937896728516
1459,楽市楽座イオンモール大阪ドーム店,大阪府大阪市西区千代崎３丁目１３番１　イオンモール大阪ドームシティ店４階,開催なし,135.4773406982422,34.66948699951172
1460,ＹＡＺ寝屋川店,大阪府寝屋川市石津中町25-26,開催なし,135.618896484375,34.78038024902344
1461,宝島日根野店,大阪府泉佐野市日根野2496-1イオンモール日根野店2階,開催なし,135.33399963378906,34.39341354370117
1462,タイトーステーション 難波店,大阪府大阪市中央区難波千日前15-120,開催なし,135.50289916992188,34.663917541503906
1463,タイトーステーション アリオ八尾店,大阪府八尾市光町2-3イトーヨーカドーアリオ八尾3F,開催なし,135.60581970214844,34.63238525390625
1464,タイトーステーション 摂津富田店,大阪府高槻市大畑町13-1イオンフードスタイル摂津富田店2階,開催なし,135.58941650390625,34.83755874633789
1465,モーリーファンタジー高槻,大阪府高槻市萩之庄３－４７－２イオン３階　,開催なし,135.64495849609375,34.85953140258789
1466,モーリーファンタジー金剛東,大阪府富田林市向陽台３－１－１イオン４階　,開催なし,135.5797119140625,34.50139236450195
1467,"モーリーファンタジー堺北花田★メザスタシティ★
",大阪府堺市北区東浅香山町４－１－１２イオン２階　,開催なし,135.5137176513672,34.584617614746094
1468,モーリーファンタジー堺鉄砲町,大阪府堺市堺区鉄砲町１番地イオンスタイル３階　,開催なし,135.4811248779297,34.59485626220703
1469,モーリーファンタジー和泉府中,大阪府和泉市肥子町２－２－１イオン４階　,開催なし,135.4222869873047,34.486366271972656
1470,モーリーファンタジーりんくう泉南,大阪府泉南市りんくう南浜３－１イオン２階　,開催なし,135.26742553710938,34.37820816040039
1471,モーリーファンタジー貝塚,大阪府貝塚市地蔵堂７４－２イオン２階　,開催なし,135.35409545898438,34.42502975463867
1472,モーリーファンタジーLINKSUMEDA,大阪府大阪市北区大深町４－８ＬＩＮＫＳＵＭＥＤＡ５Ｆ　,開催なし,135.49623107910156,34.704383850097656
1473,モーリーファンタジー茨木,大阪府茨木市松ヶ本町８－３０－５イオンＳＣ３階　,開催なし,135.55783081054688,34.811397552490234
1474,モーリーファンタジーｆ茨木,大阪府茨木市松ヶ本町８－３０－５イオンＳＣ４階　,開催なし,135.55783081054688,34.811397552490234
1475,モーリーファンタジー吹田,大阪府吹田市朝日町２－１０１イオン４階　,開催なし,135.5254364013672,34.76305389404297
1476,モーリーファンタジー野田阪神,大阪府大阪市福島区海老江１－１－２３イオン４階　,開催なし,135.47494506835938,34.6949462890625
1477,モーリーファンタジー喜連瓜破駅前,大阪府大阪市平野区瓜破２－１－１３イオン３階　,開催なし,135.55166625976562,34.60909652709961
1478,モーリーファンタジー大日,大阪府守口市大日東町１番１８号イオン２階　,開催なし,135.5793914794922,34.74919509887695
1479,モーリーファンタジー鶴見緑地,大阪府大阪市鶴見区鶴見４丁目１７－１イオン３階　,開催なし,135.5654296875,34.703033447265625
1480,モーリーファンタジー大阪ドームシティ,大阪府大阪市西区千代崎３丁目１３番１イオン３階　,開催なし,135.4773406982422,34.66948699951172
1481,モーリーファンタジー四條畷,大阪府四條畷市砂四丁目３番２号イオンスタイル３階　,開催なし,135.6312255859375,34.744937896728516
1482,近鉄百貨本店,大阪府大阪市阿倍野区阿倍野筋１－１－４３　あべのハルカス近鉄本店ウイング館８階Ｆｏｒｋｉｄｓ’ｂｙこぐま,開催なし,135.51327514648438,34.64645004272461
1483,ポケモンセンターオーサカ,大阪府大阪市北区梅田３－１－１　大丸梅田店１３F,開催なし,135.496337890625,34.701881408691406
1484,ポケモンセンターオーサカDX,大阪府大阪市中央区心斎橋筋１－７－１　大丸心斎橋店本館９F,開催なし,135.50128173828125,34.67342758178711
1485,ビックカメラなんば,大阪府大阪市中央区千日前２－１０－１　玩具売場,開催なし,135.503173828125,34.66666793823242
1486,イトーヨーカドーあべの,大阪府大阪市阿倍野区阿倍野筋１－６－１　玩具売場,開催なし,135.5127716064453,34.646053314208984
1487,イトーヨーカドーアリオ鳳,大阪府堺市西区鳳南町３－１９９－１２　玩具売場,開催なし,135.45689392089844,34.526145935058594
1488,イトーヨーカドー津久野,大阪府堺市西区下田町２０－１　玩具売場,開催なし,135.46450805664062,34.54179000854492
1489,イトーヨーカドーアリオ八尾,大阪府八尾市光町２－３　玩具売場,開催なし,135.60581970214844,34.63238525390625
1490,ＬＡＢＩ１なんば,大阪府大阪市浪速区難波中２－１１－３５　,開催なし,135.50076293945312,34.660160064697266
1491,ＬＡＢＩＬＩＦＥＳＥＬＥＣＴ千里,大阪府豊中市新千里東町１－２－２０　,開催なし,135.4942169189453,34.811241149902344
1492,平和堂アル・プラザ茨木,大阪府茨木市上郡２－１２－８　玩具売場,開催なし,135.5558319091797,34.838287353515625
1493,平和堂アル・プラザ高槻,大阪府高槻市芥川町１－２Ｃ－２０１　玩具売場,開催なし,135.6162567138672,34.851783752441406
1494,平和堂アル・プラザ香里園,大阪府寝屋川市日新町５－５　玩具売場,開催なし,135.62240600585938,34.78330993652344
1495,平和堂アル・プラザ枚方,大阪府枚方市津田元町１－４－１　玩具売場,開催なし,135.70204162597656,34.808414459228516
1496,ライフ関目,大阪府大阪市城東区関目１－５－３　,開催なし,135.5465545654297,34.7086067199707
1497,ライフ西宮原,大阪府大阪市淀川区西宮原２－２－２２　,開催なし,135.4921417236328,34.735408782958984
1498,ライフ南津守,大阪府大阪市西成区南津守６－１－７５　,開催なし,135.48101806640625,34.628135681152344
1499,エディオン豊中,大阪府豊中市日出町２－２－１８　,開催なし,135.47911071777344,34.7414665222168
1500,イズミヤ泉北,大阪府堺市中区小阪２７０　玩具売場,開催なし,135.49252319335938,34.52179718017578
1501,イズミヤ八尾,大阪府八尾市沼１－１　玩具売場,開催なし,135.6029815673828,34.58859634399414
1502,ジョーシン新大阪,大阪府大阪市淀川区西宮原２－２－１７　　新大阪センイシティー３号館２Ｆ,開催なし,135.4923553466797,34.73504638671875
1503,トイザらス阪急山田,大阪府吹田市山田西４－１－２　,開催なし,135.51388549804688,34.79991149902344
1504,トイザらス・ベビーザらスくずは,大阪府枚方市楠葉花園町１０－８５　ＫＵＺＵＨＡ　ＭＡＬＬ南館２Ｆ,開催なし,135.6768798828125,34.859893798828125
1505,トイザらス貝塚,大阪府貝塚市石才２１７　,開催なし,135.3606719970703,34.43376922607422
1506,ヨドバシカメラマルチメディア梅田,大阪府大阪市北区大深町１－１　,開催なし,135.4972686767578,34.70417022705078
1507,宝島　泉が丘店,大阪府堺市南区三原台１丁１?３　ジョイパーク泉ヶ丘1F,開催なし,135.5139923095703,34.4987678527832
1508,エディオン　なんば本店,大阪府大阪市中央区難波3-2,開催なし,135.50181579589844,34.665794372558594
1509,ビックトイズアリオ八尾店,大阪府八尾市光町2-3　アリオ八尾3F,開催なし,135.60581970214844,34.63238525390625
1510,トイコンプ岸和田店,大阪府岸和田市春木若松町21-1 ラパーク岸和田店2Ｆ,開催なし,135.39215087890625,34.47829055786133
1511,楽市楽座ビバモール美原南店,大阪府堺市美原区黒山468　ビバモール美原南店２F,開催なし,135.5552520751953,34.54055404663086
1512,ｎａｍｃｏセブンパーク天美店,大阪府松原市天美東3-500　セブンパーク天美３F,開催なし,135.54379272460938,34.5914192199707
1513,NICOPA南千里店,大阪府吹田市千里山西6丁目56-1　トナリエ南千里 アネックス３F,開催なし,135.50563049316406,34.78594970703125
1514,アミパラ光明池店,大阪府和泉市室堂町824－36　コムボックス光明池,開催なし,135.47401428222656,34.46845626831055
1515,モーリーファンタジーニトリモール枚方,大阪府枚方市北山1丁目2-1　ニトリモール枚方,開催なし,135.69459533691406,34.83695983886719
1516,モーリーファンタジーエコール・いずみ,大阪府和泉市いぶき野5丁目1-11　エコール・いずみ3階,開催なし,135.45582580566406,34.45957946777344
1517,アミュージアム枚方店,大阪府枚方市岡本町7-1　枚方ビオルネ3F,開催なし,135.64654541015625,34.81568908691406
1518,ｎａｍｃｏららぽーと堺店,大阪府堺市美原区黒山22-1　ららぽーと堺　1F・2F,開催なし,135.55838012695312,34.54201889038086
1519,トイザらス・ベビーザらス泉北ニュータウン店,大阪府堺市南区三原台１-１-３　JOYPARK泉ヶ丘３F,開催なし,135.5139923095703,34.4987678527832
1520,京阪百貨店　守口店,大阪府守口市河原町8-3,開催なし,135.5675506591797,34.73653030395508
1521,ｎａｍｃｏららぽーと門真店,大阪府門真市松生町1-11　ららぽーと門真３F30400区画,開催なし,135.58262634277344,34.733516693115234
1522,ファミリーアミューズメント 中もず店,大阪府堺市北区中百舌鳥町3-428-2　コーナン中もず店,開催なし,135.5091094970703,34.55434036254883
1523,ビックカメラあべのキューズモール,大阪府大阪市阿倍野区阿倍野筋1-6-1,開催なし,135.5127716064453,34.646053314208984
1524,アイティ豊岡キッズ・パーク店,兵庫県豊岡市大手町４－５アイティ豊岡,開催なし,134.81515502929688,35.54412841796875
1525,ゲームパーク 西友川西店,兵庫県川西市栄町16-8西友川西店5階,開催なし,135.41241455078125,34.828125
1526,タイトーFステーション三宮西館店,兵庫県神戸市中央区三宮町2-11-1神戸センタープラザ３Ｆ,開催なし,135.19061279296875,34.69086456298828
1527,タイトーFステーション姫路店,兵庫県姫路市駅前町270,開催なし,134.69171142578125,34.828609466552734
1528,ゆめパーク ゆめタウン姫路店,兵庫県姫路市神子岡前3丁目12‐17ゆめタウン姫路店 4階,開催なし,134.66978454589844,34.841373443603516
1529,タイトーFステーションHAT神戸,兵庫県神戸市中央区脇浜海岸通2-2-2　ブルメールHAT神戸2階,開催なし,135.2153778076172,34.699886322021484
1530,アミパラ加古川,兵庫県加古川市尾上町今福71-2,開催なし,134.8283233642578,34.75159454345703
1531,アミパラ垂水,兵庫県神戸市垂水区名谷町室山1400-18,開催なし,135.0657196044922,34.66077423095703
1532,ホムスタ加古川,兵庫県加古川市尾上町安田351ﾒｶﾞｺｰﾄ2F,開催なし,134.83673095703125,34.74581527709961
1533,ホムスタ玉津,兵庫県神戸市西区丸塚2丁目9-18ﾒｶﾞﾊﾟﾚｽ2F,開催なし,134.9829864501953,34.67955780029297
1534,プラザパル三田,兵庫県三田市けやき台1-6-2ｲｵﾝ三田ｳｯﾃﾞｨﾀｳﾝ3F,開催なし,135.1874542236328,34.908538818359375
1535,NICOPAイオンモール伊丹昆陽店,兵庫県伊丹市池尻４丁目1-1　イオンモール伊丹昆陽4F,開催なし,135.38180541992188,34.78498840332031
1536,GiGO姫路駅前,兵庫県姫路市駅前町254 姫路駅前ビルB1F,開催なし,134.69110107421875,34.828773498535156
1537,GiGOあまがさきキューズモール,兵庫県尼崎市潮江1-3-1ココエあまがさき内4F,開催なし,135.4317626953125,34.73311233520508
1538,GiGOつかしん,兵庫県尼崎市塚口本町4-8-1 つかしん内,開催なし,135.41793823242188,34.76158142089844
1539,GiGOフェニックスプラザ摩耶,兵庫県神戸市灘区味泥町6-1,開催なし,135.22821044921875,34.7041015625
1540,GiGOららぽーと甲子園,兵庫県西宮市甲子園八番町1-100 ららぽーと甲子園2F,開催なし,135.36260986328125,34.71706771850586
1541,GiGO神戸umieサウスモール,兵庫県神戸市中央区東川崎町1-7-2,開催なし,135.17901611328125,34.68085861206055
1542,GiGO明石,兵庫県明石市魚住町清水2464-1 ドライブインながさわ,開催なし,134.8966064453125,34.719940185546875
1543,ｎａｍｃｏイオンモール神戸南店,兵庫県神戸市兵庫区中之島２－１－１　イオンモール神戸南３Ｆ,開催なし,135.1744384765625,34.665367126464844
1544,ｎａｍｃｏイオンモール姫路リバーシティー,兵庫県姫路市飾磨区細江２５６０番地　イオンモール姫路リバーシティ２Ｆ,開催なし,134.66842651367188,34.79825973510742
1545,ｎａｍｃｏイオン赤穂店,兵庫県赤穂市中広字別所５５－３　イオン赤穂店２Ｆ,開催なし,134.39007568359375,34.74277877807617
1546,ｎａｍｃｏニッケパークタウン加古川店,兵庫県加古川市加古川町寺家町１７３－１,開催なし,134.835693359375,34.769508361816406
1547,ｎａｍｃｏ豊岡店,兵庫県豊岡市中陰町字大工６１７　３Ｆ,開催なし,134.81173706054688,35.55391311645508
1548,姫路セントラルパークサイバーステーション,兵庫県姫路市豊富町神谷１４３６－１　姫路セントラルパーク,開催なし,134.75746154785156,34.86880874633789
1549,NICOPAイズミヤ昆陽店,兵庫県伊丹市池尻1丁目1番地　イズミヤ昆陽店３F,開催なし,135.38327026367188,34.77408981323242
1550,NICOPA神戸玉津店,兵庫県神戸市西区森友3丁目7-3 ｲｽﾞﾐﾔ2F,開催なし,134.98313903808594,34.66404724121094
1551,NICOPA西神戸店,兵庫県神戸市西区竜が岡1丁目21番地1ｲｽﾞﾐﾔ2F,開催なし,134.94032287597656,34.71080780029297
1552,ＶＩＶＯ氷上店,兵庫県丹波市氷上町本郷300番地ゆめﾀｳﾝ丹波2F,開催なし,135.0459442138672,35.158817291259766
1553,ふぇすたらんど広畑,兵庫県姫路市広畑区吾妻町3丁目29-2 山陽ﾏﾙﾅｶ広畑店 2F,開催なし,134.6197052001953,34.796592712402344
1554,ふぇすたらんど小野,兵庫県小野市王子町868-1  ｲｵﾝ小野店2F,開催なし,134.9352264404297,34.856529235839844
1555,楽市楽座イオンモール神戸北店,兵庫県神戸市北区上津台８－１－１　イオンモール神戸北店３階,開催なし,135.19615173339844,34.860145568847656
1556,アピナ姫路店,兵庫県姫路市東御町4787-3姫路ﾘｵｽ2階,開催なし,134.68545532226562,34.815494537353516
1557,タイトーステーション 尼崎つかしん店,兵庫県尼崎市塚口本町4-8-1SCつかしん内東町北館3階,開催なし,135.41793823242188,34.76158142089844
1558,キッズパーク西宮,兵庫県西宮市浜松原町21-1マルナカ西宮店2F,開催なし,135.34608459472656,34.72734832763672
1559,"モーリーファンタジー伊丹★メザスタシティ★
",兵庫県伊丹市藤ノ木１－１－１イオン３階　,開催なし,135.42369079589844,34.781768798828125
1560,モーリーファンタジー尼崎,兵庫県尼崎市次屋３－１３－１８イオン２階　,開催なし,135.44155883789062,34.74314498901367
1561,モーリーファンタジー猪名川,兵庫県川辺郡猪名川町白金２－１イオン３階　,開催なし,135.36483764648438,34.901763916015625
1562,モーリーファンタジー神戸北,兵庫県神戸市北区上津台８－１－１イオン３階　,開催なし,135.19615173339844,34.860145568847656
1563,モーリーファンタジー伊丹昆陽,兵庫県伊丹市池尻４－１－１イオン３階　,開催なし,135.38180541992188,34.78498840332031
1564,モーリーファンタジー西宮,兵庫県西宮市林田町２－２４イオン２階　,開催なし,135.36294555664062,34.756195068359375
1565,モーリーファンタジー宝塚中山,兵庫県宝塚市売布東の町２１－２２ダイエー２階　,開催なし,135.3670654296875,34.81745529174805
1566,モーリーファンタジー藤原台,兵庫県神戸市北区藤原台中町１－２－２イオン４階　,開催なし,135.22044372558594,34.821800231933594
1567,モーリーファンタジー南淡路,兵庫県南あわじ市賀集八幡北字東内３７８－１イオン１階　,開催なし,134.74256896972656,34.28250503540039
1568,モーリーファンタジー洲本,兵庫県洲本市塩屋１－１－８イオン２階　,開催なし,134.8948211669922,34.34392547607422
1569,モーリーファンタジージェームス山,兵庫県神戸市垂水区青山台７－７－１イオン１階　,開催なし,135.0772247314453,34.64595413208008
1570,モーリーファンタジー板宿,兵庫県神戸市須磨区前池町３－２－１ダイエー４階　,開催なし,135.13250732421875,34.661251068115234
1571,モーリーファンタジー西神中央,兵庫県神戸市西区糀台５－３－４ダイエー３階　,開催なし,135.0193634033203,34.72011184692383
1572,モーリーファンタジー名谷,兵庫県神戸市須磨区中落合２丁目２－２ダイエー名谷２階　,開催なし,135.0946502685547,34.67841339111328
1573,モーリーファンタジー長田南,兵庫県神戸市長田区東尻池新町１番２０号イオンＳＣ２階　,開催なし,135.1586151123047,34.6553840637207
1574,モーリーファンタジー和田山,兵庫県朝来市和田山町枚田岡７７４イオン２階　,開催なし,134.8616180419922,35.327239990234375
1575,モーリーファンタジーｆ加西北条,兵庫県加西市北条町北条３０８－１イオン２階　,開催なし,134.82821655273438,34.93051528930664
1576,モーリーファンタジー山崎,兵庫県宍粟市山崎町中井字城下１０イオン３階　,開催なし,134.5435333251953,35.00227737426758
1577,モーリーファンタジー社,兵庫県加東市社１１２６－１イオン２階　,開催なし,134.96080017089844,34.91502380371094
1578,モーリーファンタジー三木青山,兵庫県三木市志染町青山３－９イオン２階　,開催なし,135.03631591796875,34.7792854309082
1579,モーリーファンタジー姫路大津,兵庫県姫路市大津区大津町２丁目５番イオンモール２階　,開催なし,134.60653686523438,34.8067741394043
1580,モーリーファンタジー明石,兵庫県明石市大久保町ゆりのき通り３－３－１イオン明石３番街３階　,開催なし,134.9348602294922,34.678775787353516
1581,モーリーファンタジー姫路リバーシティ,兵庫県姫路市飾磨区細江２５６０番地イオン２階　,開催なし,134.66842651367188,34.79825973510742
1582,モーリーファンタジー三木,兵庫県三木市大村字砂１６３イオン３階　,開催なし,134.9692840576172,34.8142204284668
1583,モーリーファンタジー高砂,兵庫県高砂市緑丘２丁目１－４０イオン２階　,開催なし,134.80203247070312,34.76865005493164
1584,モーリーファンタジー舞子,兵庫県神戸市垂水区舞子台６－２０－１７ダイエー２階　,開催なし,135.031005859375,34.639488220214844
1585,ニシダヤ中央,兵庫県尼崎市神田中通３－４１　玩具売場,開催なし,135.41294860839844,34.720001220703125
1586,ニシダヤ丹波ゆめタウン,兵庫県丹波市氷上町本郷３００　ゆめタウン１Ｆ玩具売場,開催なし,135.0459442138672,35.158817291259766
1587,イトーヨーカドー明石,兵庫県明石市二見町西二見駅前１－１８　玩具売場,開催なし,134.87835693359375,34.705257415771484
1588,イトーヨーカドー甲子園,兵庫県西宮市甲子園八番町１－１００　玩具売場,開催なし,135.36260986328125,34.71706771850586
1589,イトーヨーカドー加古川,兵庫県加古川市別府町緑町２　玩具売場,開催なし,134.84967041015625,34.728248596191406
1590,ＳＤＬＡＢＩ三宮,兵庫県神戸市中央区三宮町１－５－８　,開催なし,135.19403076171875,34.69172668457031
1591,平和堂アル・プラザつかしん,兵庫県尼崎市塚口本町４－８－１　玩具売場,開催なし,135.41793823242188,34.76158142089844
1592,エディオン垂水,兵庫県神戸市垂水区舞多聞東２－１－４５　,開催なし,135.0539093017578,34.66472244262695
1593,エディオン神戸北町,兵庫県神戸市北区日の峰２－３－３　,開催なし,135.14501953125,34.756317138671875
1594,ペリカン姫路,兵庫県姫路市神子岡前３－１２－１７　　ゆめタウン４階,開催なし,134.66978454589844,34.841373443603516
1595,イオン赤穂,兵庫県赤穂市中広字別所５５－３　玩具売場,開催なし,134.39007568359375,34.74277877807617
1596,ハローズガーデン加古川店,兵庫県加古川市別府町緑町２　イトーヨーカドー加古川店３F,開催なし,134.84967041015625,34.728248596191406
1597,イズミヤ神戸玉津,兵庫県神戸市西区森友3-7-3　玩具売場,開催なし,134.98313903808594,34.66404724121094
1598,ハローズガーデン姫路店,兵庫県姫路市増位本町2-12-10　イオン姫路店２F,開催なし,134.70639038085938,34.857242584228516
1599,タイトーFステーション　アスピア明石店,兵庫県明石市東仲ノ町６－１　アスピア明石店　南館３F,開催なし,134.9950714111328,34.64809036254883
1600,ペリカンたつの,兵庫県たつの市龍野町富永577-1,開催なし,134.54653930664062,34.85845947265625
1601,TeccLIFESELECT尼崎,兵庫県尼崎市次屋3-13-18,開催なし,135.44155883789062,34.74314498901367
1602,アミパラ伊川谷店,兵庫県神戸市西区池上3-2-3,開催なし,135.0248260498047,34.6705322265625
1603,アミパラ橿原,奈良県橿原市十市町1222-1ﾂｲﾝｹﾞｰﾄ橿原1F,開催なし,135.79653930664062,34.52927780151367
1604,ソユーゲームフィールド 奈良橿原店,奈良県橿原市曲川町七丁目20番1　イオンモール橿原3F,開催なし,135.76483154296875,34.50555419921875
1605,ハローズガーデン大和郡山店,奈良県大和郡山市田中町517アピタ大和郡山店2F,開催なし,135.7693634033203,34.64147186279297
1606,ｎａｍｃｏトナリエ大和高田店,奈良県大和高田市幸町３－１８　トナリエ大和高田店３Ｆ,開催なし,135.74380493164062,34.517765045166016
1607,ラスパ西大和店ゲームコーナー,奈良県北葛城郡上牧町ささゆり台一丁目１番１号　ラスパ西大和店２階,開催なし,135.72105407714844,34.56636047363281
1608,NICOPA広陵店,奈良県北葛城郡広陵町大字安部450番地1 ｲｽﾞﾐﾔ1F,開催なし,135.7449188232422,34.533897399902344
1609,ラウンドワンスタジアム　奈良ミ・ナーラ店,奈良県奈良市二条大路南1-3-1ﾐ･ﾅｰﾗ5階,開催なし,135.8029022216797,34.68450164794922
1610,アミューズメントパークｲｵﾝﾓｰﾙ奈良登美ヶ丘店,奈良県生駒市鹿畑町３０２７番地　イオンモール奈良登美ヶ丘店専門店街３階,開催なし,135.75074768066406,34.72580337524414
1611,楽市楽座イオンモール大和郡山店,奈良県大和郡山市下三橋町７４１　イオンモール大和郡山店３階,開催なし,135.80213928222656,34.650848388671875
1612,モーリーファンタジー桜井,奈良県桜井市上之庄２７８－１イオン２階　,開催なし,135.83676147460938,34.521728515625
1613,"モーリーファンタジー橿原★メザスタシティ★
",奈良県橿原市曲川町７－２０－１イオン２階　,開催なし,135.76483154296875,34.50555419921875
1614,モーリーファンタジー登美ヶ丘,奈良県生駒市鹿畑町３０２７番地イオンモール２階　,開催なし,135.75074768066406,34.72580337524414
1615,モーリーファンタジー天理,奈良県天理市東井戸堂町３８１ザ・ビッグエクストラ１階　,開催なし,135.82533264160156,34.59046936035156
1616,モーリーファンタジー大和郡山,奈良県大和郡山市下三橋町７４１イオン３階　,開催なし,135.80213928222656,34.650848388671875
1617,西友王寺,奈良県北葛城郡王寺町久度２－２－１　,開催なし,135.70533752441406,34.5977668762207
1618,トイザらス奈良橿原,奈良県橿原市曲川町７－２０－１－２０１　　イオンモール橿原２Ｆ,開催なし,135.76483154296875,34.50555419921875
1619,アピタ大和郡山,奈良県大和郡山市田中町５１７番　玩具売場,開催なし,135.7693634033203,34.64147186279297
1620,ユーズランド和歌山店,和歌山県和歌山市中字楠谷573イオンモール和歌山2F,開催なし,135.1484832763672,34.27110290527344
1621,ジョイパーク海南,和歌山県海南市築地1番1シーサイド海南　スーパーセンターオークワ海南店内,開催なし,135.2064208984375,34.15190887451172
1622,タイトーFステーション セントラルシティ和歌山,和歌山県和歌山市小雑賀805-1セントラルシティ和歌山店1F,開催なし,135.1836395263672,34.195682525634766
1623,タイトーFステーションオークワロマンシティ御坊,和歌山県御坊市湯川町財部181オークワロマンシティ3階,開催なし,135.14877319335938,33.89762878417969
1624,NICOPAガーデンパーク和歌山店,和歌山県和歌山市松江字向鵜の島1469-1ｶﾞｰﾃﾞﾝﾊﾟｰｸ和歌山2F,開催なし,135.13063049316406,34.241172790527344
1625,ｎａｍｃｏオークワパビリオンシティ田辺店,和歌山県田辺市稲成町新江原３１６５　パビリオンシティ田辺店Ｃ館２Ｆ,開催なし,135.3758544921875,33.74409484863281
1626,"ｎａｍｃｏパームシティ和歌山店★メザスタシティ★
",和歌山県和歌山市中野３１－１　パームシティ和歌山店２Ｆ,開催なし,135.1407012939453,34.255279541015625
1627,ＮＩＣＯＰＡ和歌山店,和歌山県和歌山市新生町7番20号ｲｽﾞﾐﾔ2F,開催なし,135.1883544921875,34.22211837768555
1628,モーリーファンタジー新宮,和歌山県新宮市橋本２丁目１４番２３号イオン２階　,開催なし,135.9905242919922,33.71384048461914
1629,ＰＡＬＯ橋本彩の台,和歌山県橋本市あやの台１－５０－２オー・ストリート彩の台内階　,開催なし,135.65126037597656,34.33631134033203
1630,モーリーファンタジー和歌山,和歌山県和歌山市山中字楠谷５７３番地イオン３階　,開催なし,135.17080688476562,34.23051452636719
1631,ＰＡＬＯ田辺,和歌山県田辺市宝来町２４番２６号グルメシティ田辺店３階　,開催なし,135.38800048828125,33.73460388183594
1632,近鉄百貨和歌山,和歌山県和歌山市友田町５－１８　４階トイランド,開催なし,135.19073486328125,34.233272552490234
1633,ペリカン和歌山,和歌山県和歌山市新生町７－２０　　イズミヤ内２Ｆ,開催なし,135.1883544921875,34.22211837768555
1634,アミパラ鳥取,鳥取県鳥取市晩稲348ｲｵﾝﾓｰﾙ鳥取北2F,開催なし,134.2016143798828,35.523963928222656
1635,アミパラ日吉津,鳥取県西伯郡日吉津村日吉津1160-1ｲｵﾝﾓｰﾙ日吉津西館,開催なし,133.3859100341797,35.44493865966797
1636,GiGO米子,鳥取県米子市両三柳2778-2,開催なし,133.3211669921875,35.45945739746094
1637,GiGO鳥取,鳥取県鳥取市安長416,開催なし,134.2096710205078,35.5117301940918
1638,ＰＡＬＯ鳥取,鳥取県鳥取市天神町１イオン２階　,開催なし,134.22140502929688,35.493438720703125
1639,モーリーファンタジー鳥取北,鳥取県鳥取市晩稲３４８番地イオン２階　,開催なし,134.2016143798828,35.523963928222656
1640,モーリーファンタジー米子駅前,鳥取県米子市末広町３１１イオン３階　,開催なし,133.33306884765625,35.422794342041016
1641,"モーリーファンタジー日吉津★メザスタシティ★
",鳥取県西伯郡日吉津村日吉津１１６０－１イオン２階　,開催なし,133.3859100341797,35.44493865966797
1642,ＰＡＬＯ境港,鳥取県境港市竹内団地８１番地３階　,開催なし,133.25245666503906,35.522151947021484
1643,ゆめパーク ゆめタウン斐川店,島根県出雲市斐川町上直江1301-1ゆめタウン斐川店内,開催なし,132.8085479736328,35.38758850097656
1644,アミパラ松江,島根県松江市東朝日町203-1,開催なし,133.07421875,35.46367645263672
1645,you me CIRCUS店（出雲店）,島根県出雲市大塚町650-1ゆめタウン出雲店東館3F,開催なし,132.7548065185547,35.37720489501953
1646,GiGO松江,島根県松江市嫁島町12-15,開催なし,133.0477294921875,35.44989776611328
1647,ピノッキースパティオ益田,島根県益田市高津7丁目21－12 ゆめﾀｳﾝ益田店,開催なし,131.8170623779297,34.69091796875
1648,ピノッキースパティオ浜田,島根県浜田市港町227-1ゆめﾀｳﾝ浜田3F,開催なし,132.07164001464844,34.8998908996582
1649,モーリーファンタジー江津,島根県江津市嘉久志町２３０６番地３０ショッピングタウングリーンモール２階　,開催なし,132.218505859375,35.007965087890625
1650,ＰＡＬＯ松江,島根県松江市東朝日町１５１イオンＳＣ３階　,開催なし,133.0692901611328,35.46495056152344
1651,"モーリーファンタジー出雲★メザスタシティ★
",島根県出雲市渡橋町１０６６イオンモール３階　,開催なし,132.73934936523438,35.36720275878906
1652,モーリーファンタジー松江,島根県松江市東朝日町１５１イオンＳＣ３階　,開催なし,133.0692901611328,35.46495056152344
1653,ABCパレード出雲,島根県出雲市大塚町６５０－１　ゆめタウン店内,開催なし,132.7548065185547,35.37720489501953
1654,こころっこ岡南店,岡山県岡山市南区築港新町1-18-5　天満屋ハピータウン岡南店3階,開催なし,133.94142150878906,34.604644775390625
1655,ユーズランド倉敷店,岡山県倉敷市水江一番地イオンモール倉敷2F,開催なし,133.744384765625,34.60165786743164
1656,アミパラ岡山,岡山県岡山市北区青江1丁目13-8,開催なし,133.92054748535156,34.63623809814453
1657,アミパラ倉敷,岡山県倉敷市西中新田624-1,開催なし,133.77169799804688,34.583709716796875
1658,アミパラ津山,岡山県津山市河辺1000-1 ｲｵﾝﾓｰﾙ津山2F,開催なし,134.04547119140625,35.06467819213867
1659,GiGO岡山藤崎,岡山県岡山市中区藤崎599-12,開催なし,133.97702026367188,34.60896682739258
1660,GiGOイオンモール岡山,岡山県岡山市北区下石井1-2-1 イオンモール岡山内6F 6024-1区画,開催なし,133.9188995361328,34.66271209716797
1661,GiGO倉敷,岡山県倉敷市西中新田535-2,開催なし,133.7696990966797,34.58368682861328
1662,ゆめタウン平島店ゲームコーナー,岡山県岡山市東区東平島１６３番地　ゆめタウン平島店,開催なし,134.05429077148438,34.7066535949707
1663,キッズプラザきゃらんど倉敷店,岡山県倉敷市寿町12-2アリオ倉敷2階　きゃらんど倉敷,開催なし,133.76124572753906,34.60395050048828
1664,ピノッキースパティオ倉敷,岡山県倉敷市笹沖1274-1ゆめﾀｳﾝ倉敷3F,開催なし,133.77032470703125,34.57908248901367
1665,ピノッキーランド井原,岡山県井原市下出部町2-11-2ゆめﾀｳﾝ井原 3F,開催なし,133.43927001953125,34.58330535888672
1666,ふぇすたらんど高屋,岡山県岡山市中区高屋36-1 山陽ﾏﾙﾅｶ高屋店 2F,開催なし,133.96080017089844,34.674156188964844
1667,ふぇすたらんど倉敷マスカット,岡山県倉敷市松島1163番地2 山陽ﾏﾙﾅｶﾏｽｶｯﾄ店 別館3F,開催なし,133.80140686035156,34.62723159790039
1668,ふぇすたらんど築港,岡山県岡山市南区築港元町14-1 山陽ﾏﾙﾅｶ築港店 1F,開催なし,133.94833374023438,34.606719970703125
1669,ふぇすたらんど中島,岡山県倉敷市中島2780-1 山陽ﾏﾙﾅｶ中島店 1F,開催なし,133.74171447753906,34.57588195800781
1670,ふぇすたらんど平島,岡山県岡山市東区東平島1609  山陽ﾏﾙﾅｶ平島店 1F,開催なし,134.05050659179688,34.7080078125
1671,タイトーFステーション マルナカ新倉敷店,岡山県倉敷市玉島爪先981-10,開催なし,133.68479919433594,34.55278778076172
1672,モーリーファンタジーｆ岡山,岡山県岡山市北区下石井１丁目２番１号イオンモール４階　,開催なし,133.9188995361328,34.66271209716797
1673,モーリーファンタジー津山,岡山県津山市河辺１０００－１イオン２階　,開催なし,134.04547119140625,35.06467819213867
1674,"モーリーファンタジー倉敷★メザスタシティ★
",岡山県倉敷市水江１番地イオン１階　,開催なし,133.744384765625,34.60165786743164
1675,モーリーファンタジー水島,岡山県倉敷市水島高砂町３番１１号マックスバリュ１階　,開催なし,133.7374725341797,34.53135681152344
1676,こどもやリブ総社,岡山県総社市門田１８７　　リブ総社２１店内三階,開催なし,133.74147033691406,34.676639556884766
1677,こどもや西大寺,岡山県岡山市東区西大寺南１－２－１　　天満屋ハピータウン西大寺店２Ｆ,開催なし,134.028564453125,34.65028762817383
1678,トイザらス岡山,岡山県岡山市北区岡南町２－６－５２　,開催なし,133.9252471923828,34.640541076660156
1679,アミパラフォレオ広島東店,広島県広島市東区温品1-3-2 ﾌｫﾚｵ広島東1階,開催なし,132.50392150878906,34.405540466308594
1680,あみぱらんど福山,広島県福山市三吉町南2丁目8-24,開催なし,133.37835693359375,34.487876892089844
1681,アミパラ広島,広島県広島市西区西観音町3-17,開催なし,132.43614196777344,34.393680572509766
1682,アミパラ神辺,広島県福山市神辺町大字新道上字1丁目2-1,開催なし,133.35855102539062,34.54396057128906
1683,プラサカプコン広島店,広島県広島市佐伯区石内東4丁目1番1号ジ アウトレット広島1F  ,開催なし,132.3976287841797,34.41009521484375
1684,コロナ 福山メトロポリス,広島県福山市一文字町24-1,開催なし,133.4080047607422,34.466224670410156
1685,GiGO LECT広島,広島県広島市西区扇2丁目1-45　LECT　2F,開催なし,132.4071807861328,34.37150955200195
1686,GiGO福山,広島県福山市瀬戸町大字山北300,開催なし,133.31658935546875,34.47512435913086
1687,GiGO海田,広島県安芸郡海田町南大正町3-35,開催なし,132.53334045410156,34.36748504638672
1688,GiGO尾道,広島県尾道市新浜1-2-13,開催なし,133.1864471435547,34.40248489379883
1689,ｎａｍｃｏイオンモール広島府中店,広島県安芸郡府中町大須２－１－１　イオンモール広島府中３Ｆ,開催なし,132.49952697753906,34.39456558227539
1690,ｎａｍｃｏフジグランナタリー店,広島県廿日市市阿品３－１－１　フジグランナタリー２Ｆ,開催なし,132.31834411621094,34.32373809814453
1691,ｎａｍｃｏフジグラン広島店,広島県広島市中区宝町２－１　フジグラン広島　３Ｆ,開催なし,132.4650115966797,34.386375427246094
1692,ｎａｍｃｏフジグラン高陽店,広島県広島市安佐北区亀崎１－１－６　フジグラン高陽本館３階,開催なし,132.5240936279297,34.48239517211914
1693,ｎａｍｃｏフジグラン三原店,広島県三原市円一町１－１－７　フジグラン三原店内,開催なし,133.07823181152344,34.393699645996094
1694,ｎａｍｃｏフジグラン尾道店,広島県尾道市東尾道１９－７,開催なし,133.24049377441406,34.4265251159668
1695,"ｎａｍｃｏゆめタウン広島店★メザスタシティ★
",広島県広島市南区皆実町２丁目８番１７号　ゆめタウン広島店３４２,開催なし,132.46493530273438,34.375362396240234
1696,ｎａｍｃｏゆめタウン廿日市店,広島県廿日市市下平良二丁目２番１号３Ｆ,開催なし,132.3356170654297,34.34575653076172
1697,ｎａｍｃｏ広島紙屋町店,広島県広島市中区大手町２丁目３－３　大手町ナルミヤビル１Ｆ,開催なし,132.45558166503906,34.39326477050781
1698,ｎａｍｃｏフジグラン東広島店,広島県東広島市西条町御薗宇４４０５番地,開催なし,132.74952697753906,34.40795135498047
1699,フジグラン安芸店子供の国,広島県安芸郡坂町北新地ニ丁目３番３０号,開催なし,132.51528930664062,34.34780502319336
1700,アルティランド,広島県広島市西区草津南4-7-1ｱﾙﾊﾟｰｸ北棟2F,開催なし,132.39276123046875,34.37566375732422
1701,ピノッキースパティオ吉田,広島県安芸高田市吉田町吉田594-1 ゆめﾀｳﾝ吉田2F,開催なし,132.70123291015625,34.66965103149414
1702,ピノッキースパティオ呉店,広島県呉市宝町5-10　3F,開催なし,132.55609130859375,34.242977142333984
1703,ピノッキースパティオ大竹,広島県大竹市晴海1丁目6-1ゆめﾀｳﾝ大竹2F,開催なし,132.2238006591797,34.24143600463867
1704,ピノッキーズパティオ福山店,広島県福山市入船町3-1-60 ゆめﾀｳﾝ福山2階,開催なし,133.3790283203125,34.48576354980469
1705,ピノッキーランド黒瀬,広島県東広島市黒瀬町大字楢原100-1ゆめﾀｳﾝ黒瀬2F,開催なし,132.66590881347656,34.32438278198242
1706,ブラックジャック東広島店,広島県東広島市西条町御薗宇6120賀茂ボール 1Ｆ,開催なし,132.7537384033203,34.414649963378906
1707,ふぇすたらんど可部,広島県広島市安佐北区可部7丁目4-13 山陽ﾏﾙﾅｶ可部店 2F,開催なし,132.51271057128906,34.522640228271484
1708,ふぇすたらんど五日市,広島県広島市佐伯区八幡1-24-17 ｻﾝﾘﾌﾞ五日市店 2F,開催なし,132.3591766357422,34.38623809814453
1709,ふぇすたらんど広,広島県呉市広本町2-17-1 ｲｵﾝ広店4F,開催なし,132.62294006347656,34.23332214355469
1710,楽市楽座広島店,広島県広島市南区段原南１－３－５２　広島段原ショッピングセンター７階,開催なし,132.47579956054688,34.38589859008789
1711,タイトーステーション フジグラン神辺店,広島県福山市神辺町大字新道上字2-10-26 フジグラン神辺店 3F,開催なし,133.35855102539062,34.54396057128906
1712,タイトーステーション フジグラン緑井店,広島県広島市安佐南区緑井1-5-2フジグラン緑井3F,開催なし,132.4747772216797,34.465782165527344
1713,タイトーステーション 広島本通店,広島県広島市中区本通3-5せらかぐ本通ビル,開催なし,132.46058654785156,34.392738342285156
1714,タイトーステーション 広島紙屋町店,広島県広島市中区紙屋町2-2-210,開催なし,132.4566650390625,34.394351959228516
1715,タイトーFステーション ゆめタウンみゆき店,広島県広島市南区宇品西6丁目7番14号ゆめタウンみゆき2F,開催なし,132.4575653076172,34.3582649230957
1716,タイトーFステーション ゆめタウン東広島店,広島県東広島市西条町土与丸1丁目5-70,開催なし,132.7498016357422,34.42666244506836
1717,モーリーファンタジー三原,広島県三原市城町２－１３－１イオン２階　,開催なし,133.0878143310547,34.399879455566406
1718,モーリーファンタジー宇品,広島県広島市南区宇品東６－１－１５イオン２階　,開催なし,132.4695281982422,34.36258316040039
1719,モーリーファンタジー広島府中,広島県安芸郡府中町大須２－１－１イオン２階　,開催なし,132.49952697753906,34.39456558227539
1720,モーリーファンタジー広島祗園,広島県広島市安佐南区祇園３丁目２－１イオン３階　,開催なし,132.46157836914062,34.443782806396484
1721,モーリーファンタジーｆ広島祇園 ,広島県広島市安佐南区祇園３丁目２－１イオンＳＣ３階　,開催なし,132.46157836914062,34.443782806396484
1722,ポケモンセンターヒロシマ,広島県広島市中区基町６－２７　そごう広島店本館６F,開催なし,132.45718383789062,34.39556884765625
1723,おもちゃのあおき広島,広島県広島市南区皆実町2丁目8-17　ゆめタウン広島店3F,開催なし,132.46493530273438,34.375362396240234
1724,おもちゃのあおき廿日市,広島県廿日市市下平良2丁目2-1　ゆめタウン廿日市店3Ｆ,開催なし,132.3356170654297,34.34575653076172
1725,ペリカン大竹,広島県大竹市晴海１－６－１　　ゆめタウン大竹２Ｆ,開催なし,132.2238006591797,34.24143600463867
1726,フジグラン安芸,広島県安芸郡坂町北新地２－３－３０　玩具売場,開催なし,132.5181121826172,34.34921646118164
1727,フジグラン神辺,広島県福山市神辺町大字新道上字２－１０－２６　玩具売場,開催なし,133.35855102539062,34.54396057128906
1728,フジグラン東広島,広島県東広島市西条町御薗宇４４０５　玩具売場,開催なし,132.74952697753906,34.40795135498047
1729,フジグラン尾道,広島県尾道市東尾道１９－７　玩具売場,開催なし,133.24049377441406,34.4265251159668
1730,フジグラン緑井,広島県広島市安佐南区緑井１－５－２　玩具売場,開催なし,132.4747772216797,34.465782165527344
1731,フジグラン高陽,広島県広島市安佐北区亀崎１－１－６　玩具売場,開催なし,132.5240936279297,34.48239517211914
1732,トイザらス福山,広島県福山市東深津町３－２１－４　,開催なし,133.39834594726562,34.495361328125
1733,フジグラン三原,広島県三原市円一町1-1-7,開催なし,133.07823181152344,34.393699645996094
1734,ファンタジープラザ松永店,広島県福山市柳津町1-5-7　MEGAドン・キホーテ松永店２F,開催なし,133.2600555419922,34.44175338745117
1735,アミューズメントパークＭＧ府中天満屋店,広島県府中市府川町186-1　府中天満屋 2階,開催なし,133.2366943359375,34.569732666015625
1736,モーリーファンタジーアルパーク,広島県広島市西区草津新町2丁目26-1　アルパーク内,開催なし,132.39451599121094,34.37372970581055
1737,トイザらス・ベビーザらス広島府中,広島県安芸郡府中町大須2-1-1　イオンモール広島府中3F,開催なし,132.49952697753906,34.39456558227539
1738,アピナ東広島店,広島県東広島市西条町助実1129　ゆめモール西条１F,開催なし,132.7709503173828,34.41584777832031
1739,GiGO広店,広島県呉市広中町1-9　２F,開催なし,132.62933349609375,34.228912353515625
1740,ゆめシティゆめパーク店,山口県下関市伊倉新町３丁目１－１ゆめシティ内,開催なし,130.9353485107422,34.00717544555664
1741,アミパラ下関,山口県下関市長府才川1丁目42-48,開催なし,131.00709533691406,34.025413513183594
1742,アミパラ周南久米,山口県周南市久米中央五丁目6-1　ｲｵﾝﾀｳﾝ周南久米,開催なし,131.85610961914062,34.05185317993164
1743,アミパラ新南陽,山口県周南市古市1丁目4-1ｲｵﾝﾀｳﾝ周南内,開催なし,131.75985717773438,34.0693244934082
1744,アミュージアム周南店,山口県下松市中央町21-3ゆめタウン下松3F,開催なし,131.8623809814453,34.0159797668457
1745,てくもぴあ阿知須店,山口県山口市阿知須4825-1サンパークあじす2F,開催なし,131.35292053222656,34.00960159301758
1746,てくもぴあ柳井店,山口県柳井市駅南1-14ミスターマックス柳井ショッピングセンターA棟,開催なし,132.10086059570312,33.96672821044922
1747,THE 3RD PLANET 山口店,山口県山口市湯田温泉6丁目8番3号,開催なし,131.45233154296875,34.16497802734375
1748,THE 3RD PLANET ゆめタウン下関長府店,山口県下関市ゆめタウン2-7,開催なし,131.01393127441406,34.02973937988281
1749,GiGOイオンタウン小郡,山口県山口市小郡前田町3-6　イオンタウン小郡,開催なし,131.39865112304688,34.086910247802734
1750,ソユーファミリーゲームフィールド 防府店,山口県防府市鐘紡町7番1号　イオンタウン防府1F,開催なし,131.58758544921875,34.04869079589844
1751,"ｎａｍｃｏおのだサンパーク店★メザスタシティ★
",山口県山陽小野田市中川６丁目４番１号　おのだサンパークショッピングセンタ２Ｆ,開催なし,131.17054748535156,33.985801696777344
1752,ｎａｍｃｏフジグラン宇部店,山口県宇部市明神町三丁目１番１号　フジグラン宇部店２Ｆ,開催なし,131.25762939453125,33.931705474853516
1753,フジグラン岩国店アミューズメントパーク,山口県岩国市麻里布町２－９－８　フジグラン岩国店５Ｆ,開催なし,132.2237548828125,34.168701171875
1754,ピノッキースパティオ宇部,山口県宇部市黒石北3-4-1ゆめﾀｳﾝ宇部店2F,開催なし,131.2073211669922,33.98524475097656
1755,ピノッキースパティオ山口,山口県山口市大内千坊6-9-1ゆめﾀｳﾝ山口店2F,開催なし,131.4908447265625,34.159305572509766
1756,ピノッキースパティオ南岩国,山口県岩国市南岩国1-20-30ゆめﾀｳﾝ南岩国店2F,開催なし,132.20211791992188,34.13480758666992
1757,ピノッキースパティオ防府,山口県防府市八王子2-8-8 ゆめﾀｳﾝ防府3階,開催なし,131.56800842285156,34.057621002197266
1758,ピノッキーズパティオ柳井,山口県柳井市南町4-5-3ゆめﾀｳﾝ柳井2階,開催なし,132.1054229736328,33.962459564208984
1759,ふぇすたらんど下松,山口県下松市南花岡六丁目8番1号 ｻﾝﾘﾌﾞ下松店 2F,開催なし,131.86477661132812,34.02909851074219
1760,ふぇすたらんど萩,山口県萩市大字唐樋町2-4 ｻﾝﾘﾌﾞ萩店 2F,開催なし,131.4031219482422,34.41031265258789
1761,ＰＡＬＯ防府,山口県防府市中央町１－３イオン３階　,開催なし,131.56903076171875,34.05219650268555
1762,モーリーファンタジー光,山口県光市浅江字木園１７５６－１イオン２階　,開催なし,131.92776489257812,33.97933578491211
1763,モーリーファンタジー下関,山口県下関市竹崎町４－４－７シーモールエスト４階　,開催なし,130.9236297607422,33.94910430908203
1764,ペリカン宇部,山口県宇部市妻崎開作４１１　　ゆめタウン宇部内１Ｆ,開催なし,131.20985412597656,33.97275924682617
1765,フジグラン山口,山口県山口市黒川３７３６　玩具売場,開催なし,131.45079040527344,34.12947082519531
1766,フジグラン宇部,山口県宇部市明神町３－１－１　玩具売場,開催なし,131.25762939453125,33.931705474853516
1767,トイザらス山口,山口県山口市大内長野５８１　　ザ・ビッグ大内２Ｆ,開催なし,131.51620483398438,34.155120849609375
1768,パスカランド新南陽店,山口県周南市清水２丁目２－１　ゆめタウン新南陽店３階,開催なし,131.77227783203125,34.0703010559082
1769,トイザらス下関,山口県下関市ゆめタウン1-1　ゆめタウン長府内,開催なし,131.0126190185547,34.029869079589844
1770,アピナ徳山店,山口県周南市青山町1-18　ゆめタウン徳山２F,開催なし,131.81651306152344,34.04261779785156
1771,タイトーFステーション 山口メルクス店,山口県山口市大字黒川82-1　ハイパーモールメルクス山口内,開催なし,131.4332733154297,34.13669204711914
1772,アミューズメントパークＭＧ徳島店,徳島県徳島市西新浜町1丁目 6-1 マルナカ徳島店 2階,開催なし,134.56190490722656,34.04599380493164
1773,GiGOスエヒロボウル徳島,徳島県徳島市南末広町4-95-2　スエヒロボウル1F,開催なし,134.57302856445312,34.060142517089844
1774,ｎａｍｃｏフジグラン石井店,徳島県名西郡石井町高川原字天神５４４番地１　フジグラン石井店内２Ｆ,開催なし,134.442138671875,34.08427810668945
1775,"ｎａｍｃｏゆめタウン徳島店★メザスタシティ★
",徳島県板野郡藍住町奥野字東中須８８番地の１　ゆめタウン徳島２階,開催なし,134.5009765625,34.119117736816406
1776,ナムコランド鳴門店,徳島県鳴門市撫養町大桑島字濘岩浜４―１　パワーシティ鳴門店別棟,開催なし,134.6122589111328,34.18669509887695
1777,ふぇすたらんど脇町,徳島県美馬市脇町字拝原1711番地1 ﾏﾙﾅｶ脇町店 2F,開催なし,134.16529846191406,34.06367874145508
1778,タイトーステーション フジグラン北島店,徳島県板野郡北島町鯛浜字西ノ須1740,開催なし,134.5496368408203,34.11125946044922
1779,モーリーファンタジー徳島,徳島県徳島市南末広４番１号イオンモール４階　,開催なし,134.57313537597656,34.06304931640625
1780,ＰＡＬＯ小松島,徳島県小松島市小松島町字領田２０番地小松島ショッピングプラザルピア１階　,開催なし,134.5716552734375,34.00552749633789
1781,テックランド徳島本店,徳島県徳島市中吉野町４－１－１　,開催なし,134.55023193359375,34.0870246887207
1782,フジグラン石井,徳島県名西郡石井町高川原字天神５４４－１　玩具売場,開催なし,134.442138671875,34.08427810668945
1783,フジグラン北島,徳島県板野郡北島町鯛浜字西ノ須１７４　玩具売場,開催なし,134.54705810546875,34.112281799316406
1784,フジグラン阿南,徳島県阿南市領家町土倉10番地,開催なし,134.6660919189453,33.92059326171875
1785,パレパレ田宮店,徳島県徳島市南田宮2-2-46,開催なし,134.54238891601562,34.08659744262695
1786,ゆめタウン丸亀BIGWAVE店,香川県丸亀市新田町１５０ゆめタウン丸亀３階,開催なし,133.78573608398438,34.27312088012695
1787,ゆめタウン三豊BIGWAVE店,香川県三豊市豊中町本山甲２２番地ゆめタウン三豊２階,開催なし,133.69908142089844,34.1452522277832
1788,アミパラ丸亀,香川県丸亀市飯野町西分584-1,開催なし,133.8294677734375,34.282100677490234
1789,アミュージアム高松店,香川県高松市伏石町2144-9１Ｆ,開催なし,134.060302734375,34.30797576904297
1790,GiGO丸亀,香川県丸亀市蓬莱町56-1,開催なし,133.7801971435547,34.29650115966797
1791,GiGO高松,香川県高松市勅使町535,開催なし,134.01898193359375,34.30870819091797
1792,ｎａｍｃｏフジグラン十川店,香川県高松市十川西町６５１－１　フジグラン十川別棟,開催なし,134.10829162597656,34.27177810668945
1793,"ゆめタウン高松店ゆめランド★メザスタシティ★
",香川県高松市三条町中所６０８－１　ゆめタウン高松店２Ｆゆめランド,開催なし,134.04153442382812,34.317054748535156
1794,タイトーステーション丸亀,香川県丸亀市川西町南1280番地1フジグラン丸亀 バッハ棟2F,開催なし,133.83612060546875,34.243106842041016
1795,モーリーファンタジー高松東,香川県高松市福岡町３－８－５イオン３階　,開催なし,134.07144165039062,34.34619903564453
1796,モーリーファンタジー高松,香川県高松市香西本町１－１イオン３階　,開催なし,134.00502014160156,34.353057861328125
1797,モーリーファンタジー綾川,香川県綾歌郡綾川町萱原８２２－１イオン３階　,開催なし,133.9316864013672,34.25049591064453
1798,モーリーファンタジーｆ綾川,香川県綾歌郡綾川町萱原８２２－１イオンＳＣ３階　,開催なし,133.9316864013672,34.25049591064453
1799,ペリカン高松,香川県高松市三条町字中所６０８－１　　ゆめタウン高松内２Ｆ,開催なし,134.04153442382812,34.317054748535156
1800,ペリカン三豊,香川県三豊市豊中町本山甲２２　,開催なし,133.69908142089844,34.1452522277832
1801,トイザらス高松,香川県高松市屋島西町百石１９１２－１　　パワーシティ尾島２Ｆ,開催なし,134.10263061523438,34.339717864990234
1802,トイザらス丸亀,香川県丸亀市蓬莱町５６－１　　パブリックプラザ丸亀内,開催なし,133.7801971435547,34.29650115966797
1803,ふぇすたらんど栗林南店,香川県高松市西ハゼ町字清水１８　マルナカ栗林南店２F,開催なし,134.03810119628906,34.320865631103516
1804,GiGOイオンモール高松店,香川県高松市香西本町1-1 イオンモール高松2F　227-2,開催なし,134.00502014160156,34.353057861328125
1805,アミパラ高松店,香川県高松市伏石町2168-2,開催なし,134.05921936035156,34.307090759277344
1806,アミパラ松山,愛媛県松山市生石町655-1,開催なし,132.7423095703125,33.83306884765625
1807,プラサカプコン新居浜店,愛媛県新居浜市前田町8-8イオンモール新居浜2F ,開催なし,133.27023315429688,33.9543571472168
1808,GiGO松山,愛媛県松山市枝松5-7-32,開催なし,132.78651428222656,33.82868194580078
1809,ソユーフォレストハンター 松前店,愛媛県伊予郡松前町筒井850番地　エミフルMASAKI AM棟1F,開催なし,132.71559143066406,33.78963851928711
1810,ｎａｍｃｏアクトピア大洲店,愛媛県大洲市中村字宮の前２４６－１　アクトピア大洲店４階,開催なし,132.5423126220703,33.51470184326172
1811,ｎａｍｃｏパルティ・フジ西条玉津店,愛媛県西条市玉津５６４番１,開催なし,133.20071411132812,33.93014144897461
1812,ｎａｍｃｏフジグラン今治店,愛媛県今治市東門町５－１３－１　フジグラン今治２階,開催なし,133.01368713378906,34.06094741821289
1813,ｎａｍｃｏフジグラン重信店,愛媛県東温市野田３－１－１３　フジグラン重信店２Ｆ,開催なし,132.83358764648438,33.79568862915039
1814,ｎａｍｃｏフジグラン松山店,愛媛県松山市宮西１－２－１　フジグラン松山店４Ｆ,開催なし,132.75303649902344,33.84431076049805
1815,ｎａｍｃｏフジグラン川之江店,愛媛県四国中央市妻鳥町１１３６－１　フジグラン川之江店内２Ｆ,開催なし,133.5752410888672,33.992820739746094
1816,ｎａｍｃｏフジグラン北宇和島店,愛媛県宇和島市伊吹町甲９１２番地２　フジグラン北宇和島店別棟,開催なし,132.56985473632812,33.23567199707031
1817,ｎａｍｃｏフジグラン北浜店,愛媛県八幡浜市北浜一丁目４番３３号　フジグラン北浜店２Ｆ,開催なし,132.42117309570312,33.46143341064453
1818,ｎａｍｃｏフジ砥部店,愛媛県伊予郡砥部町重光２３９　フジ砥部２Ｆ,開催なし,132.78553771972656,33.7849006652832
1819,フジグラン新居浜店子供の国,愛媛県新居浜市新須賀町２－１０－７　フジグラン新居浜店３Ｆ（株）ナムコ,開催なし,133.28282165527344,33.967491149902344
1820,ふぇすたらんど今治,愛媛県今治市馬越町4-8-1 ｲｵﾝ今治店 3F,開催なし,132.98052978515625,34.056434631347656
1821,ふぇすたらんど新居浜,愛媛県新居浜市上泉町12番1号 ﾏﾙﾅｶ新居浜本店2F,開催なし,133.30978393554688,33.9371452331543
1822,楽市楽座イオンモール今治店,愛媛県今治市にぎわい広場１ー１　イオンモール今治新都市店２階　2023,開催なし,132.96316528320312,34.044742584228516
1823,タイトーステーション 衣山店,愛媛県松山市衣山1丁目188パルティ・フジ衣山内,開催なし,132.74636840820312,33.853050231933594
1824,モーリーファンタジー松山,愛媛県松山市天山１丁目１３番５号イオン３階　,開催なし,132.7767791748047,33.82283401489258
1825,"モーリーファンタジー新居浜★メザスタシティ★
",愛媛県新居浜市前田町８番８号イオン２階　,開催なし,133.27023315429688,33.9543571472168
1826,モーリーファンタジー今治新都市,愛媛県今治市にぎわい広場１番地１イオンモール２階　,開催なし,132.96316528320312,34.044742584228516
1827,モーリーファンタジー南松山,愛媛県松山市朝生田町５丁目１番２５号ジョー・プラ２階　,開催なし,132.77249145507812,33.82154846191406
1828,ポケモンストアエミフルＭＡＳＡＫＩ,愛媛県伊予郡松前町筒井８５０番　エミフルMASAKIエミモール２F,開催なし,132.71559143066406,33.78963851928711
1829,エミフルMASAKI,愛媛県伊予郡松前町筒井８５０　玩具売場,開催なし,132.71559143066406,33.78963851928711
1830,フジグラン今治,愛媛県今治市東門町５－１３－１　玩具売場,開催なし,133.01368713378906,34.06094741821289
1831,フジグラン重信,愛媛県東温市野田３－１－１３　玩具売場,開催なし,132.83358764648438,33.79568862915039
1832,フジグラン松山,愛媛県松山市宮西１－２－１　玩具売場,開催なし,132.75303649902344,33.84431076049805
1833,フジグラン西条,愛媛県西条市新田字北新田２３５　玩具売場,開催なし,133.1827850341797,33.92485427856445
1834,フジグラン川之江,愛媛県四国中央市妻鳥町１１３６－１　玩具売場,開催なし,133.5752410888672,33.992820739746094
1835,フジグラン北宇和島,愛媛県宇和島市伊吹町甲９１２－２　玩具売場,開催なし,132.56985473632812,33.23567199707031
1836,ペリカン新居浜,愛媛県新居浜市星原町15-38,開催なし,133.30267333984375,33.936614990234375
1837,アミュージアム高知店,高知県高知市介良字長丁乙317-1,開催なし,133.60516357421875,33.55923080444336
1838,チッキッズ,高知県吾川郡いの町205番地ｻﾆｰｱｸｼｽいの店2F,開催なし,133.443115234375,33.551025390625
1839,チッキッズ　イオン高知旭町店,高知県高知市旭町3-94ｲｵﾝ高知旭町店2F,開催なし,133.5050048828125,33.555850982666016
1840,プラサカプコン高知店,高知県高知市秦南町1-4-8　イオンモール高知東館3F,開催なし,133.54147338867188,33.575347900390625
1841,GiGOフジグラン高知,高知県高知市朝倉東町52-15 フジグラン高知3F,開催なし,133.49844360351562,33.542659759521484
1842,ｎａｍｃｏフジグラン葛島店,高知県高知市小倉町３－３０　フジグラン葛島店内,開催なし,133.5674591064453,33.55866241455078
1843,ｎａｍｃｏフジグラン四万十店,高知県四万十市具同字東五反田２２２２番地　フジグラン四万十店内,開催なし,132.9083251953125,32.982688903808594
1844,サニーアクシス南国アクシスキッズ,高知県南国市大そね乙１００９　サニーアクシス南国店,開催なし,133.64146423339844,33.5756721496582
1845,タイトーFステーション 野市店,高知県香南市野市町西野2007-1フジグラン野市店内,開催なし,133.69644165039062,33.56123733520508
1846,"モーリーファンタジー高知★メザスタシティ★
",高知県高知市秦南町１丁目４－８イオン２階　,開催なし,133.54147338867188,33.575347900390625
1847,フジグラン葛島,高知県高知市小倉町３－３０　玩具売場,開催なし,133.5674591064453,33.55866241455078
1848,フジグラン高知,高知県高知市朝倉東町５２－１５　玩具売場,開催なし,133.49844360351562,33.542659759521484
1849,フジグラン四万十,高知県四万十市具同２２２２　玩具売場,開催なし,132.9206085205078,32.98052215576172
1850,フジグラン野市,高知県香南市野市町西野２００７－１　玩具売場,開催なし,133.69644165039062,33.56123733520508
1851,アミューズメントパークMG須崎神田店,高知県須崎市神田字下切2500-1 マルナカ須崎店内,開催なし,133.29702758789062,33.40870666503906
1852,ゆうゆうパーク,福岡県糟屋郡志免町別府北2丁目14番1号ｲｵﾝ東福岡店2F,開催なし,130.45196533203125,33.60836410522461
1853,プラサカプコン直方店,福岡県直方市湯野原2-1-1イオンモール直方2F,開催なし,130.75059509277344,33.767784118652344
1854,パスカランド黒崎店,福岡県北九州市八幡西区西曲町3-1ｲｵﾝﾀｳﾝ黒崎店1F,開催なし,130.76516723632812,33.86650466918945
1855,パスカランド大川店,福岡県大川市大字上巻字野口430-1ゆめﾀｳﾝ大川店 2F,開催なし,130.38803100585938,33.202880859375
1856,パスカランド大牟田店,福岡県大牟田市旭町2丁目28-1ゆめﾀｳﾝ大牟田店2F,開催なし,130.4522247314453,33.036033630371094
1857,パスカランド福重店,福岡県福岡市西区拾六町1丁目7番1号MEGAﾄﾞﾝ･ｷﾎｰﾃ福福重店3F,開催なし,130.31527709960938,33.56791305541992
1858,ピノキオランド宇美店,福岡県糟屋郡宇美町宇美4-8-1ﾗｲﾌﾌﾟﾗｻﾞﾕｰﾋﾞｵｽ 3F,開催なし,130.5125732421875,33.56930160522461
1859,コロナ 小倉メトロポリス,福岡県北九州市小倉北区西港町27-5,開催なし,130.8562774658203,33.89749526977539
1860,サープラ新宮あそびタウン,福岡県糟屋郡新宮町美咲3-1-40,開催なし,130.44094848632812,33.706275939941406
1861,GiGO中間,福岡県中間市上蓮花寺3-1-1,開催なし,130.72189331054688,33.8231315612793
1862,G-pala小倉店,福岡県北九州市小倉南区上葛原1-14-1,開催なし,130.91050720214844,33.839717864990234
1863,G-pala博多店,福岡県福岡市博多区東光寺町2-6-40コマーシャルモール博多2階,開催なし,130.43560791015625,33.576847076416016
1864,Ｇ－ｓｔａｇｅ飯塚,福岡県飯塚市技国680-2,開催なし,130.69142150878906,33.64608383178711
1865,ｎａｍｃｏマークイズ福岡ももち店,福岡県福岡市中央区地行浜２－２－１　マークイズ福岡ももち店４Ｆ,開催なし,130.36241149902344,33.59434127807617
1866,ｎａｍｃｏゆめタウン筑紫野店,福岡県筑紫野市針摺東３－３－１,開催なし,130.5384979248047,33.484249114990234
1867,ｎａｍｃｏゆめモール柳川店,福岡県柳川市三橋町蒲船津１４０８番地６　ゆめモール柳川内,開催なし,130.42413330078125,33.16200637817383
1868,ｎａｍｃｏ博多バスターミナル店,福岡県福岡市博多区博多駅中央街２－１　博多バスターミナル７Ｆ,開催なし,130.41908264160156,33.591270446777344
1869,バンダイナムコCrossStore博多店,福岡県福岡市博多区住吉１丁目２－２２　キャナルシティ博多　ＯＰＡ内サウスビルＢ１Ｆ,開催なし,130.41160583496094,33.5899658203125
1870,ｎａｍｃｏゆめタウン久留米店,福岡県久留米市新合川１丁目２番１号　ゆめタウン久留米２階,開催なし,130.5367431640625,33.32109451293945
1871,ゆめタウン八女店ゆめキッズ,福岡県八女市大字蒲原９８８－２８,開催なし,130.54733276367188,33.21552276611328
1872,ＧＩＧＡ春日,福岡県春日市昇町8-1-1,開催なし,130.45155334472656,33.519527435302734
1873,ピノッキースパティオ行橋,福岡県行橋市西宮市3丁目8-1ゆめﾀｳﾝ行橋店,開催なし,130.9669647216797,33.71871566772461
1874,ラウンドワンスタジアム博多・半道橋,福岡県福岡市博多区半道橋2丁目2番8号,開催なし,130.43765258789062,33.58414840698242
1875,イオン乙金ＳＣゲームランド　,福岡県大野城市乙金3丁目23番1号北街区B ｲｵﾝ乙金ｼｮｯﾋﾟﾝｸﾞｾﾝﾀｰ内,開催なし,130.49624633789062,33.546321868896484
1876,ふぇすたらんど苅田,福岡県京都郡苅田町殿川町1-7 ｻﾝﾘﾌﾞ苅田店 1F,開催なし,130.984130859375,33.77213668823242
1877,ふぇすたらんど久留米,福岡県久留米市野中町1411-1 ｻﾝﾘﾌﾞ久留米店 2F,開催なし,130.53004455566406,33.30332565307617
1878,ふぇすたらんど古賀,福岡県古賀市天神2丁目5-1 ｻﾝﾘﾌﾞ古賀店 2F,開催なし,130.46624755859375,33.73451614379883
1879,ふぇすたらんど高須,福岡県北九州市若松区高須南2-2-1ｻﾝﾘﾌﾞ高須店2F,開催なし,130.6893768310547,33.8901481628418
1880,ふぇすたらんど三ヶ森,福岡県北九州市八幡西区三ヶ森3-9-1 ｻﾝﾘﾌﾞ三ヶ森店 2F,開催なし,130.7362518310547,33.83420181274414
1881,ふぇすたらんど田川,福岡県田川市大字川宮1693-1 ｻﾝﾘﾌﾞ田川店 2F,開催なし,130.7937774658203,33.642696380615234
1882,スペースタイム25イオン甘木店,福岡県朝倉市甘木岩入３８０番地　イオン甘木ショッピングセンター２階,開催なし,130.65696716308594,33.419151306152344
1883,スペースタイム25ザ・モール春日店,福岡県春日市春日５丁目１７番地　ザ・モール春日店２階,開催なし,130.47105407714844,33.51651382446289
1884,スペースタイム25サンリブ宗像店,福岡県宗像市くりえいと１丁目５番１号　サンリブ宗像店２階,開催なし,130.56419372558594,33.81168746948242
1885,楽市街道くるめ店,福岡県久留米市新合川２丁目７番１０号　久留米アミューズメントビル内,開催なし,130.54226684570312,33.3199462890625
1886,楽市街道箱崎店　2階,福岡県福岡市東区箱崎５丁目１番８号,開催なし,130.41917419433594,33.62372970581055
1887,楽市楽座２１０トリアス店,福岡県糟屋郡久山町大字山田９９０,開催なし,130.49224853515625,33.6530647277832
1888,楽市楽座２１０久留米店,福岡県久留米市東合川２－２－１,開催なし,130.5459747314453,33.3201789855957
1889,楽市楽座イオンモール大牟田店,福岡県大牟田市岬町３番４　イオンモール大牟田店２階,開催なし,130.42776489257812,33.03047180175781
1890,楽市楽座イオンモール筑紫野店,福岡県筑紫野市立明寺４３４－1イオンモール筑紫野店３階,開催なし,130.5251922607422,33.479949951171875
1891,楽市楽座イオンモール八幡東店,福岡県北九州市八幡東区東田３丁目２－１０２　イオンモール八幡東店３階,開催なし,130.8108367919922,33.87049865722656
1892,楽市楽座イオンモール福岡伊都店,福岡県福岡市西区北原１丁目３番１号　イオンモール福岡伊都店　別館,開催なし,130.2566375732422,33.577598571777344
1893,楽市楽座イオンモール福岡店,福岡県糟屋郡粕屋町大字酒殿字老ノ木１９２番地１　イオンモール福岡店２階,開催なし,130.48028564453125,33.59645462036133
1894,楽市楽座イオンモール福津店,福岡県福津市日蒔野６丁目１６番地の１　イオンモール福津店３階,開催なし,130.49447631835938,33.75407791137695
1895,楽市楽座イオン小郡店,福岡県小郡市大保字弓場１１０　イオン小郡ショッピングセンター内,開催なし,130.5614013671875,33.409969329833984
1896,楽市楽座イオン穂波店,福岡県飯塚市枝国長浦６６６－４８　イオン穂波ショッピングセンター２階,開催なし,130.67393493652344,33.637447357177734
1897,楽市楽座くりえいと宗像店,福岡県宗像市くりえいと１丁目４番４号,開催なし,130.56381225585938,33.81068420410156
1898,楽市楽座サンリブシティ小倉店,福岡県北九州市小倉南区上葛原２丁目１４番１　サンリブシティ小倉店２階,開催なし,130.9078826904297,33.83986282348633
1899,楽市楽座行橋店,福岡県行橋市西泉６－１－１,開催なし,130.9723358154297,33.71781539916992
1900,楽市楽座黒崎店,福岡県北九州市八幡西区桜ヶ丘町１番３号,開催なし,130.75685119628906,33.86531448364258
1901,楽市楽座砂津店,福岡県北九州市小倉北区砂津３丁目１－１チャチャタウン小倉店Ｂ棟３階,開催なし,130.88809204101562,33.88289260864258
1902,楽市楽座福重店,福岡県福岡市西区石丸４丁目２６３番１,開催なし,130.31520080566406,33.56996536254883
1903,タイトーステーション マリノア店,福岡県福岡市西区小戸2-12-30マリノアシティ福岡 マリナサイド棟 2F,開催なし,130.32205200195312,33.59480285644531
1904,タイトーステーション リバーウォーク店,福岡県北九州市小倉北区室町1-1-1リバーウォーク北九州4F 5409,開催なし,130.875244140625,33.8858757019043
1905,タイトーステーション 福岡天神店,福岡県福岡市中央区天神2-6-35サザンクロスビル,開催なし,130.39727783203125,33.58976745605469
1906,メルヘンランド筑紫野ベレッサ店,福岡県筑紫野市美しが丘南1-12-1筑紫野ベレッサ2階,開催なし,130.54153442382812,33.44583511352539
1907,モーリーファンタジー若松,福岡県北九州市若松区二島１－３－１イオン２階　,開催なし,130.74172973632812,33.8913688659668
1908,モーリーファンタジー直方,福岡県直方市湯野原２丁目１番１号イオン２階　,開催なし,130.74951171875,33.76893997192383
1909,モーリーファンタジー八幡東,福岡県北九州市八幡東区東田３丁目２－１０２イオン３階　,開催なし,130.8108367919922,33.87049865722656
1910,モーリーファンタジー香椎浜,福岡県福岡市東区香椎浜３－１２－１イオンモール２階　,開催なし,130.4298553466797,33.65701675415039
1911,モーリーファンタジー福岡,福岡県糟屋郡粕屋町大字酒殿字老ノ木１９２－１イオン２階　,開催なし,130.48028564453125,33.59645462036133
1912,モーリーファンタジー福津,福岡県福津市日蒔野６－１６－１イオン２階　,開催なし,130.49447631835938,33.75407791137695
1913,モーリーファンタジー田川,福岡県田川市大字伊田４６１６トライアル田川店１階　,開催なし,130.8095245361328,33.652767181396484
1914,モーリーファンタジー福岡空港,福岡県糟屋郡志免町別府２－１７－２０スーパーセンタートライアル福岡空港店１階　,開催なし,130.45506286621094,33.60240936279297
1915,モーリーファンタジー大野城,福岡県大野城市錦町４－１－１イオン３階　,開催なし,130.47552490234375,33.53791427612305
1916,"モーリーファンタジー筑紫野★メザスタシティ★
",福岡県筑紫野市立明寺４３４－１イオン３階　,開催なし,130.5251922607422,33.479949951171875
1917,モーリーファンタジー大牟田,福岡県大牟田市岬町３－４イオン２階　,開催なし,130.42776489257812,33.03047180175781
1918,モーリーファンタジー大木,福岡県三潴郡大木町蛭池１２００番地ＳｕＣ１階　,開催なし,130.4488525390625,33.21939468383789
1919,モーリーファンタジー筑後,福岡県筑後市大字上北島字井原口１２５９－１トライアル筑後店１階　,開催なし,130.4927978515625,33.198307037353516
1920,モーリーファンタジー福岡伊都,福岡県福岡市西区北原１丁目２番１号イオンモール３階　,開催なし,130.2593536376953,33.57795715332031
1921,モーリーファンタジー笹丘,福岡県福岡市中央区笹丘１－２８－７４イオンＢ１階　,開催なし,130.37628173828125,33.56584548950195
1922,モーリーファンタジーマリナタウン,福岡県福岡市西区豊浜３－１－１０イオン２階　,開催なし,130.33377075195312,33.589420318603516
1923,ABCパレード博多,福岡県福岡市東区東浜１－１－１　ゆめタウン博多店２Ｆ,開催なし,130.4120635986328,33.61153030395508
1924,ポケモンセンターフクオカ,福岡県福岡市博多区博多駅中央街１番１号　ＪＲ博多シティ８F,開催なし,130.42039489746094,33.58991241455078
1925,ビックカメラ天神,福岡県福岡市中央区天神２－４－５　トイズコーナー,開催なし,130.3984375,33.58738708496094
1926,ミスターマックス春日,福岡県春日市星見ヶ丘４－７　,開催なし,130.4539031982422,33.506351470947266
1927,家電住まいる館ＹＡＭＡＤＡ福岡香椎,福岡県福岡市東区千早５－４－８,開催なし,130.43911743164062,33.65373229980469
1928,家電住まいる館ＹＡＭＡＤＡ福岡賀茂,福岡県福岡市早良区賀茂３－２４－３３　,開催なし,130.33831787109375,33.55008316040039
1929,テックランド門司,福岡県北九州市門司区大里本町３－１０－４０　,開催なし,130.9283447265625,33.90373229980469
1930,ペリカン行橋,福岡県行橋市西宮市３－８－１　　ゆめタウン行橋内２Ｆ,開催なし,130.9669647216797,33.71871566772461
1931,ペリカン筑紫野,福岡県筑紫野市針摺東３－３－１　　ゆめタウン筑紫野内２Ｆ,開催なし,130.5384979248047,33.484249114990234
1932,トイザらス久留米,福岡県久留米市新合川１３－３０　,開催なし,130.5393829345703,33.322662353515625
1933,トイザらス福岡香椎,福岡県福岡市東区香椎浜３１２－１　,開催なし,130.43215942382812,33.6530647277832
1934,トイザらス福岡かすや,福岡県糟屋郡粕屋町大字酒殿字老ノ木１９２－１－１００１　　イオンモ－ル福岡ルクル１Ｆ,開催なし,130.48028564453125,33.59645462036133
1935,ヨドバシカメラマルチメディア博多,福岡県福岡市博多区博多駅中央街６－１２　玩具売場,開催なし,130.42218017578125,33.58854675292969
1936,イオン戸畑,福岡県北九州市戸畑区汐井町汐井町２－２　玩具売場,開催なし,130.8195343017578,33.89615249633789
1937,イオン福岡東,福岡県糟屋郡志免町別府北２－１４－１　玩具売場,開催なし,130.45196533203125,33.60836410522461
1938,イオン穂波,福岡県飯塚市枝国長浦６６６－４８　玩具売場,開催なし,130.67393493652344,33.637447357177734
1939,ゲームコーナー原店,福岡県福岡市早良区原6-27-52イオン原2階,開催なし,130.34165954589844,33.565059661865234
1940,モーリーファンタジー赤間店,福岡県宗像市田久2丁目1番1号　ビバモール赤間店内,開催なし,130.56890869140625,33.80523681640625
1941,パスカランド博多店,福岡県福岡市東区東浜1-1-1　ゆめタウン博多店2F,開催なし,130.4120635986328,33.61153030395508
1942,ｎａｍｃｏららぽーと福岡店,福岡県福岡市博多区那珂6丁目23番地1　ららぽーと福岡内4F,開催なし,130.43869018554688,33.56497573852539
1943,トイザらス大牟田,福岡県大牟田市旭町2-28-1　ゆめタウン大牟田別館1F,開催なし,130.4522247314453,33.036033630371094
1944,GiGOミーナ天神店,福岡県福岡市中央区天神4-3-8　ミーナ天神 7F 706区画,開催なし,130.39871215820312,33.59260940551758
1945,GiGOヨドバシ博多店,福岡県福岡市博多区博多駅中央街6-12　４F,開催なし,130.42218017578125,33.58854675292969
1946,ｎａｍｃｏサニーサイドモール小倉店,福岡県北九州市小倉南区下曽根新町10－1　サニーサイドモール小倉2F,開催なし,130.9328155517578,33.83230972290039
1947,GiGO武雄,佐賀県武雄市武雄町大字富岡12517-1,開催なし,130.03488159179688,33.199241638183594
1948,ソニックワールド伊万里店,佐賀県伊万里市二里町189－3,開催なし,129.88070678710938,33.264739990234375
1949,ｎａｍｃｏモラージュ佐賀店,佐賀県佐賀市巨勢町大字牛島７３０　モラージュ佐賀　南館１Ｆ,開催なし,130.3186798095703,33.25248718261719
1950,"ｎａｍｃｏゆめタウン佐賀店★メザスタシティ★
",佐賀県佐賀市兵庫北５－１４－１　ゆめタウン佐賀店２Ｆ,開催なし,130.3081817626953,33.2756462097168
1951,ゆめタウン武雄　ゆめキッズ,佐賀県武雄市武雄町武雄４９９２　ゆめタウン武雄２Ｆゆめキッズ,開催なし,130.02471923828125,33.18927764892578
1952,楽市楽座３０３佐賀大和店,佐賀県佐賀市大和町尼寺２９６５番地,開催なし,130.2807159423828,33.30157470703125
1953,タイトーFステーション モラージュ佐賀店,佐賀県佐賀市巨勢町大字牛島730モラージュ佐賀 北館2階,開催なし,130.3186798095703,33.25248718261719
1954,モーリーファンタジー唐津,佐賀県唐津市鏡字立神４６７１イオン２階　,開催なし,130.01263427734375,33.4368896484375
1955,モーリーファンタジー佐賀大和,佐賀県佐賀市大和町大字尼寺３５３５番地イオンモール２階　,開催なし,130.2806396484375,33.303863525390625
1956,モーリーファンタジー佐賀,佐賀県佐賀市東与賀町大字下古賀字一本杉８７番地１ＳｕＣ１階　,開催なし,130.29127502441406,33.19624710083008
1957,ペリカン武雄,佐賀県武雄市武雄町武雄大字武雄４９９２　,開催なし,130.00830078125,33.18613052368164
1958,パスカランド鳥栖店,佐賀県鳥栖市本鳥栖町537-1　フレスポ鳥栖店２Ｆ,開催なし,130.51748657226562,33.37606430053711
1959,アミパラ佐世保,長崎県佐世保市大塔町18-15イオン大塔　北側,開催なし,129.77989196777344,33.149871826171875
1960,サンゲームス 佐世保店,長崎県佐世保市田原町38-1,開催なし,129.72056579589844,33.20880126953125
1961,GiGOみらい長崎ココウォーク,長崎県長崎市茂里町1-55　みらい長崎ココウォーク　5F,開催なし,129.86477661132812,32.76298141479492
1962,GiGO諫早,長崎県諫早市小川町90-1,開催なし,130.05532836914062,32.83180236816406
1963,ソニックワールド大村店,長崎県大村市古賀島町383－1,開催なし,129.9394989013672,32.92733383178711
1964,ｎａｍｃｏゆめタウン夢彩都店,長崎県長崎市元船町１０－１　夢彩都４Ｆ,開催なし,129.8709259033203,32.75011444091797
1965,楽市楽座させぼ五番街店,長崎県佐世保市新港町2-7　させぼ五番街3階,開催なし,129.7229461669922,33.1651496887207
1966,楽市楽座諫早店,長崎県諌早市長野町１０８６番地１７,開催なし,130.075927734375,32.8333854675293
1967,モーリーファンタジー大村,長崎県大村市幸町２５－２００イオン２階　,開催なし,129.95433044433594,32.90169906616211
1968,モーリーファンタジー東長崎,長崎県長崎市田中町１０２７－８イオン２階　,開催なし,129.94725036621094,32.76961135864258
1969,モーリーファンタジー有家,長崎県南島原市有家町山川１３５－１イオン１階　,開催なし,130.307861328125,32.66326904296875
1970,"モーリーファンタジー大塔★メザスタシティ★
",長崎県佐世保市大塔町１４－２イオン３階　,開催なし,129.7778778076172,33.147987365722656
1971,モーリーファンタジー時津,長崎県西彼杵郡時津町浜田郷７５１－５イオン２階　,開催なし,129.86337280273438,32.8313102722168
1972,モーリーファンタジー長崎,長崎県長崎市新地町３－１７イオン５階　,開催なし,129.8741455078125,32.74176025390625
1973,モーリーファンタジーチトセピア,長崎県長崎市千歳町５番１号イオン３階　,開催なし,129.86163330078125,32.78923416137695
1974,モーリーファンタジー壱岐,長崎県壱岐市芦辺町箱崎中山触字干拓２６０４－２イオン２階　,開催なし,129.74330139160156,33.81467819213867
1975,おもちゃのあおき夢彩都,長崎県長崎市元船町10-1　夢彩都2階,開催なし,129.8709259033203,32.75011444091797
1976,あすなろ,長崎県対馬市厳原町今屋敷661-3　,開催なし,129.2891387939453,34.20380401611328
1977,ぴのきおマックスバリュ佐々,長崎県北松浦郡佐々町本田原免７３-３　ぴのきおマックスバリュ佐々店,開催なし,129.6505126953125,33.24006652832031
1978,ミスターマックス長崎,長崎市岩見町２６－１,開催なし,129.85305786132812,32.767486572265625
1979,スマイルステーション島原店,長崎県島原市弁天町1-7080-1　イオン島原店内,開催なし,130.37229919433594,32.78288269042969
1980,パスカランド　はません店,熊本県熊本市南区田井島1-2-1ゆめﾀｳﾝはません店3F,開催なし,130.7239990234375,32.77313232421875
1981,パスカランド長嶺店,熊本県熊本市東区長嶺西1-5-1ｼｭﾛｱﾓ-ﾙ長嶺店内,開催なし,130.7631378173828,32.810550689697266
1982,パスカワールドグリーンランド店,熊本県荒尾市本井手1574番54,開催なし,130.4711456298828,32.988590240478516
1983,パスカワールド゛宇土店,熊本県宇土市善道寺町綾織95宇土ｼﾃｨﾓｰﾙ内,開催なし,130.66860961914062,32.6844367980957
1984,パスカランドあらお店,熊本県荒尾市緑ヶ丘1-1-1ゆめタウンあらお ２F,開催なし,130.47035217285156,32.982879638671875
1985,ピノキオランドくまなん店,熊本県熊本市中央区平成3-23-30ｻﾝﾘﾌﾞｼﾃｨくまなん 3F,開催なし,130.70404052734375,32.77754211425781
1986,ピノキオランド玉名店,熊本県玉名市亀甲字前田110ﾋﾞｯｸﾐｶｴﾙ玉名店2F,開催なし,130.55389404296875,32.928367614746094
1987,ピノキオランド本渡店,熊本県天草市船之尾町279-6ﾘﾝﾄﾞﾏｰﾙTAIYO 3F,開催なし,130.18809509277344,32.458160400390625
1988,サープラ荒尾あそびタウン,熊本県荒尾市原万田700－1,開催なし,130.43798828125,33.001792907714844
1989,ｎａｍｃｏＷＣ南熊本店,熊本県熊本市中央区九品寺６丁目９番１,開催なし,130.71673583984375,32.787540435791016
1990,ｎａｍｃｏイオンモール宇城店,熊本県宇城市小川町河江１－１　イオンモール宇城２Ｆ,開催なし,130.70709228515625,32.59312438964844
1991,ｎａｍｃｏイオン大津ショッピングプラザ店,熊本県菊池郡大津町大字室１３７　大津ショピングプラザ２Ｆ,開催なし,130.8670654296875,32.8759765625
1992,ｎａｍｃｏサクラマチクマモト店,熊本県熊本市中央区桜町３－１０　サクラマチクマモト３Ｆ,開催なし,130.7042999267578,32.80059814453125
1993,"ｎａｍｃｏゆめタウン光の森店★メザスタシティ★
",熊本県菊池郡菊陽町光の森７丁目３９番１　ゆめタウン光の森南館３Ｆ,開催なし,130.7855224609375,32.85919189453125
1994,ゆめタウンサンピアンアミューズパーク,熊本県熊本市東区上南部二丁目２番２号　ゆめタウンサンピアン３Ｆ,開催なし,130.7635040283203,32.82604217529297
1995,ＦＥＳＴＡ山鹿店,熊本県山鹿市方保田字鳥越3468-1 MrMax山鹿ｼｮｯﾋﾟﾝｸﾞｾﾝﾀｰ内,開催なし,130.7233123779297,33.006553649902344
1996,ふぇすた人吉店,熊本県人吉市宝来町1307-1　人吉レックス内,開催なし,130.7481231689453,32.21209716796875
1997,楽市楽座イオンモール熊本店,熊本県上益城郡嘉島町大字上島字長池２２３２　イオンモール熊本店２階,開催なし,130.74398803710938,32.73794174194336
1998,楽市楽座イオン錦店,熊本県球磨郡錦町西字打越７１５番地１　イオン錦店内,開催なし,130.79544067382812,32.19329071044922
1999,楽市楽座熊本インター店,熊本県熊本市東区石原１丁目１番１１２号,開催なし,130.77871704101562,32.837989807128906
2000,楽市楽座小川店,熊本県宇城市小川町河江１－１,開催なし,130.70709228515625,32.59312438964844
2001,タイトーステーション ゆめタウン光の森店,熊本県菊池郡菊陽町光の森7丁目33番地1ゆめタウン光の森2F,開催なし,130.78451538085938,32.860225677490234
2002,タイトーステーション ゆめタウン八代店,熊本県八代市建馬町3-1ゆめタウン八代2F,開催なし,130.5848388671875,32.5074462890625
2003,モーリーファンタジー天草,熊本県天草市亀場町食場後山下７４０イオン２階　,開催なし,130.1722869873047,32.42698669433594
2004,モーリーファンタジー八代,熊本県八代市沖町六番割３９８７－３イオン２階　,開催なし,130.5850372314453,32.524757385253906
2005,モーリーファンタジー熊本,熊本県上益城郡嘉島町上島字長池２２３２イオン２階　,開催なし,130.74398803710938,32.73794174194336
2006,モーリーファンタジーあらおシティモール,熊本県荒尾市緑ヶ丘１－１－１あらおシティモール２階　,開催なし,130.47035217285156,32.982879638671875
2007,モーリーファンタジー熊本中央,熊本県熊本市中央区大江４－２－１イオン２階　,開催なし,130.7184295654297,32.79924011230469
2008,モーリーファンタジー田崎,熊本県熊本市西区田崎町字下寄３８０番地イオンタウン１階　,開催なし,130.67636108398438,32.78256607055664
2009,おもちゃのあおき光の森,熊本県菊池郡菊陽町光の森7丁目33-1　　ゆめタウン光の森本館2F,開催なし,130.78451538085938,32.860225677490234
2010,ペリカンはません,熊本県熊本市田井島１－２－１　　ゆめタウンはません内２Ｆ,開催なし,130.70790100097656,32.803077697753906
2011,トイザらス熊本,熊本県熊本市上南部２－２－２　　ゆめタウンサンピアン１Ｆ,開催なし,130.7620086669922,32.827056884765625
2012,トイザらス熊本南,熊本県宇城市小川町河江１－１　,開催なし,130.70709228515625,32.59312438964844
2013,ゴーゴーバンビーノ,熊本県人吉市下林町佐ブ川30番１　ニシムタ人吉店内,開催なし,130.73721313476562,32.218727111816406
2014,おもちゃのあおきイオンモール熊本店,熊本県上益城嘉島町大字上島字長池2232　イオンモール熊本店2F,開催なし,130.74200439453125,32.78937911987305
2015,THE 3RD PLANET 下通り店,熊本県熊本市中央区手取本町4-12,開催なし,130.7094268798828,32.802574157714844
2016,ふぇすたらんど菊陽店,熊本県菊池郡菊陽町津久礼2472　カリーノサンリー菊陽店内,開催なし,130.8003387451172,32.86186981201172
2017,ビックカメラ　アミュプラザくまもと,熊本県熊本市西区春日3丁目15番60号,開催なし,130.688232421875,32.78896713256836
2018,GiGOアミュプラザくまもと,熊本県熊本市西区春日3-15-26　6F　618区画,開催なし,130.688232421875,32.78896713256836
2019,キデイランド アミュプラザくまもと,熊本県熊本市西区春日3丁目15番26号,開催なし,130.688232421875,32.78896713256836
2020,タイトーFステーション ゆめタウン別府,大分県別府市楠町楠町382-7ゆめタウン別府内,開催なし,131.50567626953125,33.27592468261719
2021,ユーズランド三光店,大分県中津市三光佐知1032イオンモール三光2F,開催なし,131.19505310058594,33.557376861572266
2022,にこにこランド臼杵店,大分県臼杵市江無田266-5ｻﾝﾘﾌﾞ臼杵店2F,開催なし,131.79022216796875,33.12526321411133
2023,にこにこらんど杵築店,大分県杵築市杵築字北浜665-618ｻﾝﾘﾌﾞ杵築店内,開催なし,131.6233367919922,33.42007064819336
2024,プラサカプコン大分店,大分県大分市公園通り西2-1パークプレイス大分2F,開催なし,131.6573028564453,33.195377349853516
2025,ピノキオランド三重店,大分県豊後大野市三重町赤嶺 992ｽｰﾊﾟｰｾﾝﾀｰﾄﾗｲｱﾙ三重店 2F,開催なし,131.59226989746094,32.98418045043945
2026,GiGO高城,大分県大分市牧1-161-8,開催なし,131.63719177246094,33.239097595214844
2027,GiGO中津,大分県中津市沖代町1-2-16,開催なし,131.20233154296875,33.591773986816406
2028,GiGO別府,大分県別府市餅ヶ浜町161-2,開催なし,131.5022735595703,33.29378128051758
2029,ｎａｍｃｏアムス大在店,大分県大分市大在浜２－１－１　トキハインダストリーアムス大在内,開催なし,131.72959899902344,33.2423095703125
2030,ｎａｍｃｏトキハわさだタウン店,大分県大分市大字玉沢字楠本７５５－１　トキハわさだタウン内２Ｆ,開催なし,131.5835418701172,33.18955993652344
2031,ｎａｍｃｏミスターマックス宇佐店,大分県宇佐市大字法鏡寺５００　ＭｒＭＡＸ宇佐店内,開催なし,131.34970092773438,33.52621841430664
2032,ｎａｍｃｏ杉乃井ホテル店,大分県別府市観海寺１　スギノイパレス１Ｆ,開催なし,131.47662353515625,33.28303146362305
2033,ｎａｍｃｏ明野店,大分県大分市明野東１－１－１　トキハインダストリー明野内,開催なし,131.65264892578125,33.22239685058594
2034,ｎａｍｃｏトキハインダストリー佐伯店,大分県佐伯市大字池田字大エゴ２０６４　トキハインダストリー佐伯店,開催なし,131.89459228515625,32.94633865356445
2035,トキハ別府店ゲームコーナー,大分県別府市北浜２－９－１　トキハ別府店内４Ｆ,開催なし,131.50489807128906,33.2795524597168
2036,ゆめタウン中津店ゆめキッズ,大分県中津市蛭子町３丁目９９番地　ゆめタウン中津店３階ゆめキッズ,開催なし,131.19464111328125,33.602325439453125
2037,ＦＥＳＴＡコスモタウン佐伯,大分県佐伯市鶴岡西町2丁目163番地 ｺｽﾓﾀｳﾝ佐伯内,開催なし,131.8668975830078,32.96063232421875
2038,ＦＥＳＴＡフリーモールわさだ,大分県大分市大字木上字鉾手2102番地 ﾌﾘｰﾓｰﾙわさだ内,開催なし,131.56976318359375,33.18559646606445
2039,タイトーステーション アミュプラザおおいた店,大分県大分市要町1-14アミュプラザおおいた4F,開催なし,131.60641479492188,33.23331069946289
2040,モーリーファンタジー三光,大分県中津市三光佐知１０３２イオン三光店２Ｆ　,開催なし,131.19505310058594,33.557376861572266
2041,モーリーファンタジー挾間,大分県由布市挾間町北方７７番地イオン２階　,開催なし,131.52259826660156,33.20652389526367
2042,"モーリーファンタジーパークプレイス大分★メザスタシティ★
",大分県大分市公園通り西２丁目－１イオン２階　,開催なし,131.6573028564453,33.195377349853516
2043,モーリーファンタジー日田,大分県日田市南元町１４－２２イオン２階　,開催なし,130.9385528564453,33.31542205810547
2044,トキハわさだタウン,大分県大分市大字玉沢字楠本７５５－１　　2階玩具売場,開催なし,131.5835418701172,33.18955993652344
2045,ＨＩヒロセ別府,大分県別府市餅ヶ浜町６番２３号　,開催なし,131.5020751953125,33.29236602783203
2046,ペリカンあけの,大分県大分市明野東１－１－１　　あけのアクロスタウン１番街４Ｆ,開催なし,131.65264892578125,33.22239685058594
2047,ペリカン別府,大分県別府市楠町３８２－７　　ゆめタウン別府内３Ｆ,開催なし,131.5076446533203,33.27629089355469
2048,トイザらス大分,大分県大分市大字宮崎５２５　,開催なし,131.6086883544922,33.20164108276367
2049,キデイランド アミュプラザおおいた店,大分県大分市要町1-14　アミュプラザおおいた店３F,開催なし,131.60641479492188,33.23331069946289
2050,マンガ倉庫都城店,宮崎県都城市吉尾町840,開催なし,131.07862854003906,31.753034591674805
2051,ピノキオランド西都店,宮崎県西都市小野崎町1-76西都ｼｮｯﾋﾟﾝｸﾞｾﾝﾀｰﾊﾟｵ 2F,開催なし,131.4043426513672,32.10614776611328
2052,ピノキオランド日南店,宮崎県日南市材木町4-1ｻﾋﾟｱ日南ｼｮｯﾋﾟﾝｸﾞｾﾝﾀｰ 2F,開催なし,131.40174865722656,31.586973190307617
2053,サンゲームス 都城北店,宮崎県都城市上川東4-5997-4,開催なし,131.07913208007812,31.749000549316406
2054,GiGO延岡,宮崎県延岡市平原町5-1492-8,開催なし,131.67672729492188,32.54801559448242
2055,GiGOアミュプラザみやざき,宮崎県宮崎市老松2丁目2番22号　アミュプラザみやざき　うみ館　4F　0401区画,開催なし,131.4314727783203,31.915040969848633
2056,ｎａｍｃｏ宮交シティ店,宮崎県宮崎市大淀四丁目６番２８号　宮交シティ３階,開催なし,131.41896057128906,31.894594192504883
2057,ｎａｍｃｏ日向店,宮崎県日向市大字日知屋１４７９８－１　ハイパーモールメルクス日向店内１Ｆ,開催なし,131.64105224609375,32.446983337402344
2058,ラウンドワンスタジアム宮崎店,宮崎県宮崎市中村東3丁目4-60,開催なし,131.41741943359375,31.895822525024414
2059,楽市楽座イオンモール宮崎店,宮崎県宮崎市新別府町江口８６２－１　イオンモール宮崎店２階,開催なし,131.45242309570312,31.924304962158203
2060,楽市楽座イオンモール都城駅前店,宮崎県都城市栄町４６７２番５　,開催なし,131.08038330078125,31.73545265197754
2061,ファミリーランド　ポニー錦町店,宮崎県宮崎市錦町38-1ｸﾞﾗｰﾄﾞ錦町店内2Fｹﾞｰﾑｺｰﾅｰ,開催なし,131.43099975585938,31.91738510131836
2062,ファミリーランド　ポニー高城店,宮崎県都城市高城町穂満坊851番地 ﾀｲﾖｰ高城店内ｹﾞｰﾑｺｰﾅｰ,開催なし,131.1250762939453,31.8053035736084
2063,ファミリーランド　ポニー小松台店,宮崎県宮崎市小松台南町13-1ﾀｲﾖｰ小松台店2F,開催なし,131.39111328125,31.926179885864258
2064,ファミリーランド　ポニー小林店,宮崎県小林市大字堤3005-12ｻﾝｷｭｰ小林店内ｹﾞｰﾑｺｰﾅｰ,開催なし,130.99679565429688,31.981698989868164
2065,ファミリーランド　ポニー都城店,宮崎県都城市下長飯町256－1ﾀｲﾖｰ都城店内,開催なし,131.05770874023438,31.710813522338867
2066,モーリーファンタジー延岡,宮崎県延岡市旭町２－２－１イオン２階　,開催なし,131.67031860351562,32.572296142578125
2067,モーリーファンタジー日向,宮崎県日向市日知屋字古田町６１－１イオン２階　,開催なし,131.65151977539062,32.424495697021484
2068,"モーリーファンタジー宮崎★メザスタシティ★
",宮崎県宮崎市新別府町江口８６２－１イオン２階　,開催なし,131.45242309570312,31.924304962158203
2069,モーリーファンタジー南宮崎,宮崎県宮崎市大淀４－７－３０イオン３階　,開催なし,131.4188690185547,31.895156860351562
2070,モーリーファンタジー都城,宮崎県都城市早鈴町１９５０番地イオンＳＣ２階　,開催なし,131.0767364501953,31.71668243408203
2071,モーリーファンタジー都城駅前,宮崎県都城市栄町４６７２－５イオン２階　,開催なし,131.08038330078125,31.73545265197754
2072,ＨＩヒロセ南延岡,宮崎県延岡市浜町４８０３－１　玩具売場,開催なし,131.6800537109375,32.56178665161133
2073,イオン多々良,宮崎県延岡市岡富町１５４　玩具売場,開催なし,131.65640258789062,32.5897102355957
2074,ドリームランド　宮崎ナナイロ店,宮崎県宮崎市橘通西3-10-32　西館３階,開催なし,131.42294311523438,31.915874481201172
2075,マンガ倉庫鹿屋店,鹿児島県鹿屋市寿８丁目１１－４,開催なし,130.8757781982422,31.3873348236084
2076,マンガ倉庫鹿児島店,鹿児島県鹿児島市小松原1丁目6－7,開催なし,130.53565979003906,31.538429260253906
2077,サープラ鹿児島あそびタウン,鹿児島県鹿児島市与次郎1丁目11番1号 フレスポジャングルパーク2階,開催なし,130.5642547607422,31.57126235961914
2078,THE 3RD PLANET フレスポ国分店,鹿児島県霧島市国分広瀬2丁目4番1号,開催なし,130.75604248046875,31.72319221496582
2079,ｎａｍｃｏプラッセだいわ出水店,鹿児島県出水市本町４－４５　大和出水店２Ｆ,開催なし,130.3583526611328,32.08098220825195
2080,ｎａｍｃｏプラッセだいわ川内店,鹿児島県薩摩川内市矢倉町４２１３－１　プラッセ川内店２階,開催なし,130.31234741210938,31.79115867614746
2081,楽市楽座イオンタウン姶良店,鹿児島県姶良市東餅田336　イオンタウン姶良店2階　209,開催なし,130.6294708251953,31.7337589263916
2082,楽市楽座オプシアミスミ店,鹿児島県鹿児島市宇宿２丁目３番５号        ,開催なし,130.54490661621094,31.544403076171875
2083,タイトーFステーション イオンプラザ大島店,鹿児島県奄美市名瀬小浜町23-1イオンプラザ大島店3階,開催なし,129.50070190429688,28.384037017822266
2084,タイトーＦステーションＮ’Ｓ　ＣＩＴＹ谷山店,鹿児島県鹿児島市卸本町5-35 N'sCITY2階,開催なし,130.5225372314453,31.518081665039062
2085,テクノパーク　ミューズ指宿店,鹿児島県指宿市十二町4088番地ﾆｼﾑﾀ指宿店(内)ｹﾞｰﾑｺｰﾅｰ,開催なし,130.647705078125,31.222997665405273
2086,ファミリーランド　ポニー伊集院店,鹿児島県日置市伊集院徳重三丁目9番地1山忠ﾋﾞﾙｿﾚｲﾕﾀｳﾝ内2Fｹﾞｰﾑｺｰﾅｰ,開催なし,130.39776611328125,31.630136489868164
2087,ファミリーランド　ポニー永利店,鹿児島県薩摩川内市永利町712番地 ﾀｲﾖｰ永利店内ｹﾞｰﾑｺｰﾅｰ,開催なし,130.3412322998047,31.81148910522461
2088,ファミリーランド　ポニー花棚店,鹿児島県鹿児島市吉野町3615-1ﾀｲﾖｰ花棚店内2Fｹﾞｰﾑｺｰﾅｰ,開催なし,130.5689239501953,31.653308868408203
2089,ファミリーランド　ポニー寿店,鹿児島県鹿屋市寿7丁目494－1ｻﾝｷｭｰ寿店内2Fｹﾞｰﾑｺｰﾅｰ,開催なし,130.86647033691406,31.386302947998047
2090,ファミリーランド　ポニー出水店,鹿児島県出水市黄金町313-1 ｻﾝｷｭｰ出水店内ｹﾞｰﾑｺｰﾅｰ,開催なし,130.34628295898438,32.103309631347656
2091,ファミリーランドポニー西志布志店,鹿児島県志布志市志布志町安楽100-1ｻﾝｷｭｰ西志布志店内,開催なし,131.0859832763672,31.469242095947266
2092,タイトーステーション アミュプラザ鹿児島店,鹿児島県鹿児島市中央町1-1アミュプラザ鹿児島6F,開催なし,130.54222106933594,31.584150314331055
2093,モーリーファンタジー隼人国分,鹿児島県霧島市隼人町見次１２２９イオン２階　,開催なし,130.7412872314453,31.737878799438477
2094,"モーリーファンタジー鹿児島★メザスタシティ★
",鹿児島県鹿児島市東開町７イオンモール３階　,開催なし,130.53585815429688,31.527812957763672
2095,モーリーファンタジー姶良,鹿児島県姶良市西餅田２６４－１イオン３階　,開催なし,130.6261444091797,31.732364654541016
2096,モーリーファンタジー鹿児島鴨池,鹿児島県鹿児島市島鴨池２－２６－３０イオン２階　,開催なし,130.55734252929688,31.59678840637207
2097,ポケモンストアアミュプラザ鹿児島,鹿児島県鹿児島市中央町１番地1　アミュプラザ鹿児島本館４F,開催なし,130.54222106933594,31.584150314331055
2098,ビックカメラ鹿児島中央,鹿児島県鹿児島市中央町１－１　玩具売場,開催なし,130.54222106933594,31.584150314331055
2099,イオンストアプラザ大島,鹿児島県奄美市名瀬小浜町２３－１　玩具売場,開催なし,129.50070190429688,28.384037017822266
2100,キャンセランド,鹿児島県鹿児島市中央町10　イオン鹿児島中央店４F,開催なし,130.5444793701172,31.584638595581055
2101,Palette串木野店,鹿児島県いちき串木野市東塩田町1番地　ニシムタ串木野店２F,開催なし,130.27310180664062,31.72330093383789
2102,タイトーFステーションニシムタ出水店,鹿児島県出水市六月田町347　　　　　,開催なし,130.34429931640625,32.107032775878906
2103,ジョイキャッスル,沖縄県宜野湾市宇地泊558番地10 ｻﾝｴｰ宜野湾ｺﾝﾍﾞﾝｼｮﾝｼﾃｨ内2階,開催なし,127.72982788085938,26.274919509887695
2104,ジョイジャングルとみとん店,沖縄県豊見城市字豊崎1-411 豊崎ﾗｲﾌｽﾀｲﾙｾﾝﾀｰTOMITON内,開催なし,127.66020202636719,26.15898895263672
2105,ジョイジャングル経塚シティ,沖縄県浦添市経塚652番 ｻﾝｴｰ経塚ｼﾃｨ内2階,開催なし,127.72274780273438,26.237585067749023
2106,ジョイジャングル美浜店,沖縄県中頭郡北谷町字美浜15-68,開催なし,127.7573471069336,26.317298889160156
2107,アミュージアム南風原,沖縄県島尻郡南風原町字宮城371-1,開催なし,127.73590087890625,26.203561782836914
2108,ＭｉＬＫＹ’Ｓ　サンエー具志川,沖縄県うるま市江洲450-1ｻﾝｴｰ具志川ﾒｲﾝｼﾃｨ2F,開催なし,127.826416015625,26.35281753540039
2109,ミルキーランド サンエーしおざきシティ店,沖縄県糸満市潮崎町2丁目2番地,開催なし,127.66824340820312,26.123870849609375
2110,サンエー西原シティ店　アミューズメントコーナー,沖縄県中頭郡西原町嘉加手刈130ｻﾝｴｰ西原ｼﾃｨ2F,開催なし,127.75881958007812,26.222856521606445
2111,ゲオ西原店,沖縄県浦添市当山2丁目2番3号ゲオ西原店内,開催なし,127.7384033203125,26.2521915435791
2112,GiGO北谷,沖縄県中頭郡北谷町字美浜9-8,開催なし,127.75568389892578,26.316617965698242
2113,ｎａｍｃｏイーアス沖縄豊崎店,沖縄県豊見城市豊崎３－３５　イーアス沖縄豊崎店３Ｆ,開催なし,127.65108489990234,26.15778350830078
2114,ｎａｍｃｏイオンタウン読谷ＳＣ店,沖縄県中頭郡読谷村字古堅７４０番地　イオンタウン読谷ショッピングセンター内,開催なし,127.74517822265625,26.368005752563477
2115,ｎａｍｃｏイオンとよみショッピングセンター店,沖縄県豊見城市根差部７１０　イオンとよみＳＣ,開催なし,127.688232421875,26.1898250579834
2116,ｎａｍｃｏイオン具志川店,沖縄県うるま市字前原幸崎原３０３番地　イオン具志川ＳＣ２Ｆ,開催なし,127.84478759765625,26.337858200073242
2117,"ｎａｍｃｏサンエー浦添西海岸パルコシティ店★メザスタシティ★
",沖縄県浦添市西洲三丁目１番１　サンエー浦添西海岸パルコシティ３Ｆ,開催なし,127.69819641113281,26.261802673339844
2118,ｎａｍｃｏ那覇メインプレイス店,沖縄県那覇市おもろまち４丁目４番地９号　サンエー那覇メインプレイス内２Ｆ,開催なし,127.69474029541016,26.225419998168945
2119,ラウンドワンスタジアム沖縄・宜野湾店,沖縄県宜野湾市真志喜3丁目28番8号,開催なし,127.731689453125,26.27644157409668
2120,楽市楽座イオンモール沖縄ライカム店,沖縄県中頭郡北中城村字ライカム1番地　イオンモール沖縄ライカム店4階4032,開催なし,127.7960433959961,26.3145751953125
2121,モーリーファンタジー那覇,沖縄県那覇市金城５－１０－２イオン３階　,開催なし,127.66584014892578,26.19696807861328
2122,モーリーファンタジー北谷,沖縄県中頭郡北谷町字美浜８－３イオン２階　,開催なし,127.75733947753906,26.314958572387695
2123,モーリーファンタジー具志川,沖縄県うるま市前原幸崎原３０３番地イオン２階　,開催なし,127.84478759765625,26.337858200073242
2124,モーリーファンタジー名護,沖縄県名護市字名護見取川原４４７２イオン１階　,開催なし,127.98461151123047,26.610246658325195
2125,モーリーファンタジー南風原,沖縄県島尻郡南風原町字宮平２６４イオン２階　,開催なし,127.73743438720703,26.20063591003418
2126,モーリーファンタジーライカム,沖縄県中頭郡北中城村　アワセ土地区画整理事業区画内４街区イオンライカム４階　,開催なし,127.79302978515625,26.30107879638672
2127,モーリーファンタジー糸満,沖縄県糸満市字兼城４００番地サンプラザいとまん店１階　,開催なし,127.67259216308594,26.139911651611328
2128,モーリーファンタジー浦添,沖縄県浦添市城間４－７－１浦添ショッピングセンター３階　,開催なし,127.71273803710938,26.258140563964844
2129,トイザらス那覇新都心,沖縄県那覇市おもろまち３－３　　あっぷるタウン１Ｆ,開催なし,127.69220733642578,26.22774314880371
2130,ジョイプラネット店,沖縄県うるま市石川2521-1,開催なし,127.82380676269531,26.421003341674805
2131,あそびパーク／サンエーマチナト店,沖縄県浦添市城間2008-1　サンエーマチナトシティ2F,開催なし,127.71072387695312,26.261144638061523
2132,ポケモンセンターオキナワ,沖縄県中頭郡北中城村字ライカム1番地　イオンモール沖縄ライカム1階,開催なし,127.7960433959961,26.3145751953125
